<?xml version="1.0" encoding="utf-8"?>
<kml xmlns="http://www.opengis.net/kml/2.2">
  <Document>
    <name>18/75689/163550.kml</name>
    <description></description>
    <Style>
      <ListStyle id="hideChildren">
        <listItemType>checkHideChildren</listItemType>
      </ListStyle>
    </Style>
    <Region>
      <LatLonAltBox>
        <north>45.39825439453125</north>
        <south>45.39688110351562</south>
        <east>-76.05560302734375</east>
        <west>-76.05697631835938</west>
      </LatLonAltBox>
      <Lod>
        <minLodPixels>128</minLodPixels>
        <maxLodPixels>2048</maxLodPixels>
      </Lod>
    </Region>
    <GroundOverlay>
      <drawOrder>36</drawOrder>
      <Icon>
        <href>163550.png</href>
      </Icon>
      <LatLonBox>
        <north>45.39825439453125</north>
        <south>45.39688110351562</south>
        <east>-76.05560302734375</east>
        <west>-76.05697631835938</west>
      </LatLonBox>
    </GroundOverlay>

    <NetworkLink>
      <name>19/151378/327100.png</name>
      <Region>
        <LatLonAltBox>
          <north>45.39825439453125</north>
          <south>45.39756774902344</south>
          <east>-76.05628967285156</east>
          <west>-76.05697631835938</west>
        </LatLonAltBox>
        <Lod>
          <minLodPixels>128</minLodPixels>
          <maxLodPixels>-1</maxLodPixels>
        </Lod>
      </Region>
      <Link>
        <href>../../19/151378/327100.kml</href>
        <viewRefreshMode>onRegion</viewRefreshMode>
        <viewFormat/>
      </Link>
    </NetworkLink>
        
    <NetworkLink>
      <name>19/151379/327100.png</name>
      <Region>
        <LatLonAltBox>
          <north>45.39825439453125</north>
          <south>45.39756774902344</south>
          <east>-76.05560302734375</east>
          <west>-76.05628967285156</west>
        </LatLonAltBox>
        <Lod>
          <minLodPixels>128</minLodPixels>
          <maxLodPixels>-1</maxLodPixels>
        </Lod>
      </Region>
      <Link>
        <href>../../19/151379/327100.kml</href>
        <viewRefreshMode>onRegion</viewRefreshMode>
        <viewFormat/>
      </Link>
    </NetworkLink>
        
    <NetworkLink>
      <name>19/151378/327101.png</name>
      <Region>
        <LatLonAltBox>
          <north>45.39756774902344</north>
          <south>45.39688110351562</south>
          <east>-76.05628967285156</east>
          <west>-76.05697631835938</west>
        </LatLonAltBox>
        <Lod>
          <minLodPixels>128</minLodPixels>
          <maxLodPixels>-1</maxLodPixels>
        </Lod>
      </Region>
      <Link>
        <href>../../19/151378/327101.kml</href>
        <viewRefreshMode>onRegion</viewRefreshMode>
        <viewFormat/>
      </Link>
    </NetworkLink>
        
    <NetworkLink>
      <name>19/151379/327101.png</name>
      <Region>
        <LatLonAltBox>
          <north>45.39756774902344</north>
          <south>45.39688110351562</south>
          <east>-76.05560302734375</east>
          <west>-76.05628967285156</west>
        </LatLonAltBox>
        <Lod>
          <minLodPixels>128</minLodPixels>
          <maxLodPixels>-1</maxLodPixels>
        </Lod>
      </Region>
      <Link>
        <href>../../19/151379/327101.kml</href>
        <viewRefreshMode>onRegion</viewRefreshMode>
        <viewFormat/>
      </Link>
    </NetworkLink>
              </Document>
</kml>
    