<?xml version="1.0" encoding="utf-8"?>
<kml xmlns="http://www.opengis.net/kml/2.2">
  <Document>
    <name>18/75689/98574.kml</name>
    <description></description>
    <Style>
      <ListStyle id="hideChildren">
        <listItemType>checkHideChildren</listItemType>
      </ListStyle>
    </Style>
    <Region>
      <LatLonAltBox>
        <north>45.37216186523438</north>
        <south>45.37078857421875</south>
        <east>-76.05560302734375</east>
        <west>-76.05697631835938</west>
      </LatLonAltBox>
      <Lod>
        <minLodPixels>128</minLodPixels>
        <maxLodPixels>2048</maxLodPixels>
      </Lod>
    </Region>
    <GroundOverlay>
      <drawOrder>36</drawOrder>
      <Icon>
        <href>98574.png</href>
      </Icon>
      <LatLonBox>
        <north>45.37216186523438</north>
        <south>45.37078857421875</south>
        <east>-76.05560302734375</east>
        <west>-76.05697631835938</west>
      </LatLonBox>
    </GroundOverlay>

    <NetworkLink>
      <name>19/151378/197149.png</name>
      <Region>
        <LatLonAltBox>
          <north>45.37216186523438</north>
          <south>45.37147521972656</south>
          <east>-76.05628967285156</east>
          <west>-76.05697631835938</west>
        </LatLonAltBox>
        <Lod>
          <minLodPixels>128</minLodPixels>
          <maxLodPixels>-1</maxLodPixels>
        </Lod>
      </Region>
      <Link>
        <href>https://swmoran.github.io/ch-tiles/tiles_GE/tiles_GE/19/151378/197149.kml</href>
        <viewRefreshMode>onRegion</viewRefreshMode>
        <viewFormat/>
      </Link>
    </NetworkLink>
        
    <NetworkLink>
      <name>19/151379/197149.png</name>
      <Region>
        <LatLonAltBox>
          <north>45.37216186523438</north>
          <south>45.37147521972656</south>
          <east>-76.05560302734375</east>
          <west>-76.05628967285156</west>
        </LatLonAltBox>
        <Lod>
          <minLodPixels>128</minLodPixels>
          <maxLodPixels>-1</maxLodPixels>
        </Lod>
      </Region>
      <Link>
        <href>https://swmoran.github.io/ch-tiles/tiles_GE/tiles_GE/19/151379/197149.kml</href>
        <viewRefreshMode>onRegion</viewRefreshMode>
        <viewFormat/>
      </Link>
    </NetworkLink>
        
    <NetworkLink>
      <name>19/151378/197148.png</name>
      <Region>
        <LatLonAltBox>
          <north>45.37147521972656</north>
          <south>45.37078857421875</south>
          <east>-76.05628967285156</east>
          <west>-76.05697631835938</west>
        </LatLonAltBox>
        <Lod>
          <minLodPixels>128</minLodPixels>
          <maxLodPixels>-1</maxLodPixels>
        </Lod>
      </Region>
      <Link>
        <href>https://swmoran.github.io/ch-tiles/tiles_GE/tiles_GE/19/151378/197148.kml</href>
        <viewRefreshMode>onRegion</viewRefreshMode>
        <viewFormat/>
      </Link>
    </NetworkLink>
        
    <NetworkLink>
      <name>19/151379/197148.png</name>
      <Region>
        <LatLonAltBox>
          <north>45.37147521972656</north>
          <south>45.37078857421875</south>
          <east>-76.05560302734375</east>
          <west>-76.05628967285156</west>
        </LatLonAltBox>
        <Lod>
          <minLodPixels>128</minLodPixels>
          <maxLodPixels>-1</maxLodPixels>
        </Lod>
      </Region>
      <Link>
        <href>https://swmoran.github.io/ch-tiles/tiles_GE/tiles_GE/19/151379/197148.kml</href>
        <viewRefreshMode>onRegion</viewRefreshMode>
        <viewFormat/>
      </Link>
    </NetworkLink>
              </Document>
</kml>
    