<?xml version="1.0" encoding="utf-8"?>
<kml xmlns="http://www.opengis.net/kml/2.2">
  <Document>
    <name>19/151397/197189.kml</name>
    <description></description>
    <Style>
      <ListStyle id="hideChildren">
        <listItemType>checkHideChildren</listItemType>
      </ListStyle>
    </Style>
    <Region>
      <LatLonAltBox>
        <north>45.39962768554688</north>
        <south>45.39894104003906</south>
        <east>-76.04324340820312</east>
        <west>-76.04393005371094</west>
      </LatLonAltBox>
      <Lod>
        <minLodPixels>128</minLodPixels>
        <maxLodPixels>-1</maxLodPixels>
      </Lod>
    </Region>
    <GroundOverlay>
      <drawOrder>38</drawOrder>
      <Icon>
        <href>197189.png</href>
      </Icon>
      <LatLonBox>
        <north>45.39962768554688</north>
        <south>45.39894104003906</south>
        <east>-76.04324340820312</east>
        <west>-76.04393005371094</west>
      </LatLonBox>
    </GroundOverlay>
      </Document>
</kml>
    