<?xml version="1.0" encoding="utf-8"?>
<kml xmlns="http://www.opengis.net/kml/2.2">
  <Document>
    <name>18/75653/163577.kml</name>
    <description></description>
    <Style>
      <ListStyle id="hideChildren">
        <listItemType>checkHideChildren</listItemType>
      </ListStyle>
    </Style>
    <Region>
      <LatLonAltBox>
        <north>45.36117553710938</north>
        <south>45.35980224609375</south>
        <east>-76.10504150390625</east>
        <west>-76.10641479492188</west>
      </LatLonAltBox>
      <Lod>
        <minLodPixels>128</minLodPixels>
        <maxLodPixels>2048</maxLodPixels>
      </Lod>
    </Region>
    <GroundOverlay>
      <drawOrder>36</drawOrder>
      <Icon>
        <href>163577.png</href>
      </Icon>
      <LatLonBox>
        <north>45.36117553710938</north>
        <south>45.35980224609375</south>
        <east>-76.10504150390625</east>
        <west>-76.10641479492188</west>
      </LatLonBox>
    </GroundOverlay>

    <NetworkLink>
      <name>19/151306/327154.png</name>
      <Region>
        <LatLonAltBox>
          <north>45.36117553710938</north>
          <south>45.36048889160156</south>
          <east>-76.10572814941406</east>
          <west>-76.10641479492188</west>
        </LatLonAltBox>
        <Lod>
          <minLodPixels>128</minLodPixels>
          <maxLodPixels>-1</maxLodPixels>
        </Lod>
      </Region>
      <Link>
        <href>../../19/151306/327154.kml</href>
        <viewRefreshMode>onRegion</viewRefreshMode>
        <viewFormat/>
      </Link>
    </NetworkLink>
        
    <NetworkLink>
      <name>19/151307/327154.png</name>
      <Region>
        <LatLonAltBox>
          <north>45.36117553710938</north>
          <south>45.36048889160156</south>
          <east>-76.10504150390625</east>
          <west>-76.10572814941406</west>
        </LatLonAltBox>
        <Lod>
          <minLodPixels>128</minLodPixels>
          <maxLodPixels>-1</maxLodPixels>
        </Lod>
      </Region>
      <Link>
        <href>../../19/151307/327154.kml</href>
        <viewRefreshMode>onRegion</viewRefreshMode>
        <viewFormat/>
      </Link>
    </NetworkLink>
        
    <NetworkLink>
      <name>19/151306/327155.png</name>
      <Region>
        <LatLonAltBox>
          <north>45.36048889160156</north>
          <south>45.35980224609375</south>
          <east>-76.10572814941406</east>
          <west>-76.10641479492188</west>
        </LatLonAltBox>
        <Lod>
          <minLodPixels>128</minLodPixels>
          <maxLodPixels>-1</maxLodPixels>
        </Lod>
      </Region>
      <Link>
        <href>../../19/151306/327155.kml</href>
        <viewRefreshMode>onRegion</viewRefreshMode>
        <viewFormat/>
      </Link>
    </NetworkLink>
        
    <NetworkLink>
      <name>19/151307/327155.png</name>
      <Region>
        <LatLonAltBox>
          <north>45.36048889160156</north>
          <south>45.35980224609375</south>
          <east>-76.10504150390625</east>
          <west>-76.10572814941406</west>
        </LatLonAltBox>
        <Lod>
          <minLodPixels>128</minLodPixels>
          <maxLodPixels>-1</maxLodPixels>
        </Lod>
      </Region>
      <Link>
        <href>../../19/151307/327155.kml</href>
        <viewRefreshMode>onRegion</viewRefreshMode>
        <viewFormat/>
      </Link>
    </NetworkLink>
              </Document>
</kml>
    