<?xml version="1.0" encoding="utf-8"?>
<kml xmlns="http://www.opengis.net/kml/2.2">
  <Document>
    <name>17/37836/84123.kml</name>
    <description></description>
    <Style>
      <ListStyle id="hideChildren">
        <listItemType>checkHideChildren</listItemType>
      </ListStyle>
    </Style>
    <Region>
      <LatLonAltBox>
        <north>45.39073515424887</north>
        <south>45.38880628417227</south>
        <east>-76.07757568359376</east>
        <west>-76.08032226562500</west>
      </LatLonAltBox>
      <Lod>
        <minLodPixels>128</minLodPixels>
        <maxLodPixels>2048</maxLodPixels>
      </Lod>
    </Region>
    <GroundOverlay>
      <drawOrder>34</drawOrder>
      <Icon>
        <href>84123.png</href>
      </Icon>
      <LatLonBox>
        <north>45.39073515424887</north>
        <south>45.38880628417227</south>
        <east>-76.07757568359376</east>
        <west>-76.08032226562500</west>
      </LatLonBox>
    </GroundOverlay>

    <NetworkLink>
      <name>18/75672/168247.png</name>
      <Region>
        <LatLonAltBox>
          <north>45.39073515424887</north>
          <south>45.38977072743872</south>
          <east>-76.07894897460939</east>
          <west>-76.08032226562500</west>
        </LatLonAltBox>
        <Lod>
          <minLodPixels>128</minLodPixels>
          <maxLodPixels>-1</maxLodPixels>
        </Lod>
      </Region>
      <Link>
        <href>../../18/75672/168247.kml</href>
        <viewRefreshMode>onRegion</viewRefreshMode>
        <viewFormat/>
      </Link>
    </NetworkLink>
        
    <NetworkLink>
      <name>18/75673/168247.png</name>
      <Region>
        <LatLonAltBox>
          <north>45.39073515424887</north>
          <south>45.38977072743872</south>
          <east>-76.07757568359376</east>
          <west>-76.07894897460939</west>
        </LatLonAltBox>
        <Lod>
          <minLodPixels>128</minLodPixels>
          <maxLodPixels>-1</maxLodPixels>
        </Lod>
      </Region>
      <Link>
        <href>../../18/75673/168247.kml</href>
        <viewRefreshMode>onRegion</viewRefreshMode>
        <viewFormat/>
      </Link>
    </NetworkLink>
        
    <NetworkLink>
      <name>18/75672/168246.png</name>
      <Region>
        <LatLonAltBox>
          <north>45.38977072743872</north>
          <south>45.38880628417227</south>
          <east>-76.07894897460939</east>
          <west>-76.08032226562500</west>
        </LatLonAltBox>
        <Lod>
          <minLodPixels>128</minLodPixels>
          <maxLodPixels>-1</maxLodPixels>
        </Lod>
      </Region>
      <Link>
        <href>../../18/75672/168246.kml</href>
        <viewRefreshMode>onRegion</viewRefreshMode>
        <viewFormat/>
      </Link>
    </NetworkLink>
        
    <NetworkLink>
      <name>18/75673/168246.png</name>
      <Region>
        <LatLonAltBox>
          <north>45.38977072743872</north>
          <south>45.38880628417227</south>
          <east>-76.07757568359376</east>
          <west>-76.07894897460939</west>
        </LatLonAltBox>
        <Lod>
          <minLodPixels>128</minLodPixels>
          <maxLodPixels>-1</maxLodPixels>
        </Lod>
      </Region>
      <Link>
        <href>../../18/75673/168246.kml</href>
        <viewRefreshMode>onRegion</viewRefreshMode>
        <viewFormat/>
      </Link>
    </NetworkLink>
              </Document>
</kml>
    