<?xml version="1.0" encoding="utf-8"?>
<kml xmlns="http://www.opengis.net/kml/2.2">
  <Document>
    <name>19/151408/197176.kml</name>
    <description></description>
    <Style>
      <ListStyle id="hideChildren">
        <listItemType>checkHideChildren</listItemType>
      </ListStyle>
    </Style>
    <Region>
      <LatLonAltBox>
        <north>134.60998535156250</north>
        <south>134.60929870605469</south>
        <east>-76.03569030761719</east>
        <west>-76.03637695312500</west>
      </LatLonAltBox>
      <Lod>
        <minLodPixels>128</minLodPixels>
        <maxLodPixels>-1</maxLodPixels>
      </Lod>
    </Region>
    <GroundOverlay>
      <drawOrder>38</drawOrder>
      <Icon>
        <href>197176.png</href>
      </Icon>
      <LatLonBox>
        <north>134.60998535156250</north>
        <south>134.60929870605469</south>
        <east>-76.03569030761719</east>
        <west>-76.03637695312500</west>
      </LatLonBox>
    </GroundOverlay>
      </Document>
</kml>
    