<?xml version="1.0" encoding="utf-8"?>
<kml xmlns="http://www.opengis.net/kml/2.2">
  <Document>
    <name>17/37855/49292.kml</name>
    <description></description>
    <Style>
      <ListStyle id="hideChildren">
        <listItemType>checkHideChildren</listItemType>
      </ListStyle>
    </Style>
    <Region>
      <LatLonAltBox>
        <north>45.38726806640625</north>
        <south>45.38452148437500</south>
        <east>-76.02539062500000</east>
        <west>-76.02813720703125</west>
      </LatLonAltBox>
      <Lod>
        <minLodPixels>128</minLodPixels>
        <maxLodPixels>2048</maxLodPixels>
      </Lod>
    </Region>
    <GroundOverlay>
      <drawOrder>34</drawOrder>
      <Icon>
        <href>49292.png</href>
      </Icon>
      <LatLonBox>
        <north>45.38726806640625</north>
        <south>45.38452148437500</south>
        <east>-76.02539062500000</east>
        <west>-76.02813720703125</west>
      </LatLonBox>
    </GroundOverlay>

    <NetworkLink>
      <name>18/75710/98585.png</name>
      <Region>
        <LatLonAltBox>
          <north>45.38726806640625</north>
          <south>45.38589477539062</south>
          <east>-76.02676391601562</east>
          <west>-76.02813720703125</west>
        </LatLonAltBox>
        <Lod>
          <minLodPixels>128</minLodPixels>
          <maxLodPixels>-1</maxLodPixels>
        </Lod>
      </Region>
      <Link>
        <href>https://swmoran.github.io/ch-tiles/tiles/DRAPE_Tiles/18/75710/98585.kml</href>
        <viewRefreshMode>onRegion</viewRefreshMode>
        <viewFormat/>
      </Link>
    </NetworkLink>
        
    <NetworkLink>
      <name>18/75711/98585.png</name>
      <Region>
        <LatLonAltBox>
          <north>45.38726806640625</north>
          <south>45.38589477539062</south>
          <east>-76.02539062500000</east>
          <west>-76.02676391601562</west>
        </LatLonAltBox>
        <Lod>
          <minLodPixels>128</minLodPixels>
          <maxLodPixels>-1</maxLodPixels>
        </Lod>
      </Region>
      <Link>
        <href>https://swmoran.github.io/ch-tiles/tiles/DRAPE_Tiles/18/75711/98585.kml</href>
        <viewRefreshMode>onRegion</viewRefreshMode>
        <viewFormat/>
      </Link>
    </NetworkLink>
        
    <NetworkLink>
      <name>18/75710/98584.png</name>
      <Region>
        <LatLonAltBox>
          <north>45.38589477539062</north>
          <south>45.38452148437500</south>
          <east>-76.02676391601562</east>
          <west>-76.02813720703125</west>
        </LatLonAltBox>
        <Lod>
          <minLodPixels>128</minLodPixels>
          <maxLodPixels>-1</maxLodPixels>
        </Lod>
      </Region>
      <Link>
        <href>https://swmoran.github.io/ch-tiles/tiles/DRAPE_Tiles/18/75710/98584.kml</href>
        <viewRefreshMode>onRegion</viewRefreshMode>
        <viewFormat/>
      </Link>
    </NetworkLink>
        
    <NetworkLink>
      <name>18/75711/98584.png</name>
      <Region>
        <LatLonAltBox>
          <north>45.38589477539062</north>
          <south>45.38452148437500</south>
          <east>-76.02539062500000</east>
          <west>-76.02676391601562</west>
        </LatLonAltBox>
        <Lod>
          <minLodPixels>128</minLodPixels>
          <maxLodPixels>-1</maxLodPixels>
        </Lod>
      </Region>
      <Link>
        <href>https://swmoran.github.io/ch-tiles/tiles/DRAPE_Tiles/18/75711/98584.kml</href>
        <viewRefreshMode>onRegion</viewRefreshMode>
        <viewFormat/>
      </Link>
    </NetworkLink>
              </Document>
</kml>
    