<?xml version="1.0" encoding="utf-8"?>
<kml xmlns="http://www.opengis.net/kml/2.2">
  <Document>
    <name>19/151409/197151.kml</name>
    <description></description>
    <Style>
      <ListStyle id="hideChildren">
        <listItemType>checkHideChildren</listItemType>
      </ListStyle>
    </Style>
    <Region>
      <LatLonAltBox>
        <north>134.62715148925781</north>
        <south>134.62646484375000</south>
        <east>-76.03500366210938</east>
        <west>-76.03569030761719</west>
      </LatLonAltBox>
      <Lod>
        <minLodPixels>128</minLodPixels>
        <maxLodPixels>-1</maxLodPixels>
      </Lod>
    </Region>
    <GroundOverlay>
      <drawOrder>38</drawOrder>
      <Icon>
        <href>197151.png</href>
      </Icon>
      <LatLonBox>
        <north>134.62715148925781</north>
        <south>134.62646484375000</south>
        <east>-76.03500366210938</east>
        <west>-76.03569030761719</west>
      </LatLonBox>
    </GroundOverlay>
      </Document>
</kml>
    