<?xml version="1.0" encoding="utf-8"?>
<kml xmlns="http://www.opengis.net/kml/2.2">
  <Document>
    <name>19/151409/197144.kml</name>
    <description></description>
    <Style>
      <ListStyle id="hideChildren">
        <listItemType>checkHideChildren</listItemType>
      </ListStyle>
    </Style>
    <Region>
      <LatLonAltBox>
        <north>45.36872863769531</north>
        <south>45.36804199218750</south>
        <east>-76.03500366210938</east>
        <west>-76.03569030761719</west>
      </LatLonAltBox>
      <Lod>
        <minLodPixels>128</minLodPixels>
        <maxLodPixels>-1</maxLodPixels>
      </Lod>
    </Region>
    <GroundOverlay>
      <drawOrder>38</drawOrder>
      <Icon>
        <href>197144.png</href>
      </Icon>
      <LatLonBox>
        <north>45.36872863769531</north>
        <south>45.36804199218750</south>
        <east>-76.03500366210938</east>
        <west>-76.03569030761719</west>
      </LatLonBox>
    </GroundOverlay>
      </Document>
</kml>
    