<?xml version="1.0" encoding="utf-8"?>
<kml xmlns="http://www.opengis.net/kml/2.2">
  <Document>
    <name>19/151365/336534.kml</name>
    <description></description>
    <Style>
      <ListStyle id="hideChildren">
        <listItemType>checkHideChildren</listItemType>
      </ListStyle>
    </Style>
    <Region>
      <LatLonAltBox>
        <north>45.40953818785395</north>
        <south>45.40905613695408</south>
        <east>-76.06521606445312</east>
        <west>-76.06590270996094</west>
      </LatLonAltBox>
      <Lod>
        <minLodPixels>128</minLodPixels>
        <maxLodPixels>-1</maxLodPixels>
      </Lod>
    </Region>
    <GroundOverlay>
      <drawOrder>38</drawOrder>
      <Icon>
        <href>336534.png</href>
      </Icon>
      <LatLonBox>
        <north>45.40953818785395</north>
        <south>45.40905613695408</south>
        <east>-76.06521606445312</east>
        <west>-76.06590270996094</west>
      </LatLonBox>
    </GroundOverlay>
      </Document>
</kml>
    