<?xml version="1.0" encoding="utf-8"?>
<kml xmlns="http://www.opengis.net/kml/2.2">
  <Document>
    <name>16/18920/24649.kml</name>
    <description></description>
    <Style>
      <ListStyle id="hideChildren">
        <listItemType>checkHideChildren</listItemType>
      </ListStyle>
    </Style>
    <Region>
      <LatLonAltBox>
        <north>45.40649414062500</north>
        <south>45.40100097656250</south>
        <east>-76.06384277343750</east>
        <west>-76.06933593750000</west>
      </LatLonAltBox>
      <Lod>
        <minLodPixels>128</minLodPixels>
        <maxLodPixels>2048</maxLodPixels>
      </Lod>
    </Region>
    <GroundOverlay>
      <drawOrder>32</drawOrder>
      <Icon>
        <href>24649.png</href>
      </Icon>
      <LatLonBox>
        <north>45.40649414062500</north>
        <south>45.40100097656250</south>
        <east>-76.06384277343750</east>
        <west>-76.06933593750000</west>
      </LatLonBox>
    </GroundOverlay>

    <NetworkLink>
      <name>17/37840/49299.png</name>
      <Region>
        <LatLonAltBox>
          <north>45.40649414062500</north>
          <south>45.40374755859375</south>
          <east>-76.06658935546875</east>
          <west>-76.06933593750000</west>
        </LatLonAltBox>
        <Lod>
          <minLodPixels>128</minLodPixels>
          <maxLodPixels>-1</maxLodPixels>
        </Lod>
      </Region>
      <Link>
        <href>https://swmoran.github.io/ch-tiles/tiles/DRAPE_Tiles/17/37840/49299.kml</href>
        <viewRefreshMode>onRegion</viewRefreshMode>
        <viewFormat/>
      </Link>
    </NetworkLink>
        
    <NetworkLink>
      <name>17/37841/49299.png</name>
      <Region>
        <LatLonAltBox>
          <north>45.40649414062500</north>
          <south>45.40374755859375</south>
          <east>-76.06384277343750</east>
          <west>-76.06658935546875</west>
        </LatLonAltBox>
        <Lod>
          <minLodPixels>128</minLodPixels>
          <maxLodPixels>-1</maxLodPixels>
        </Lod>
      </Region>
      <Link>
        <href>https://swmoran.github.io/ch-tiles/tiles/DRAPE_Tiles/17/37841/49299.kml</href>
        <viewRefreshMode>onRegion</viewRefreshMode>
        <viewFormat/>
      </Link>
    </NetworkLink>
        
    <NetworkLink>
      <name>17/37840/49298.png</name>
      <Region>
        <LatLonAltBox>
          <north>45.40374755859375</north>
          <south>45.40100097656250</south>
          <east>-76.06658935546875</east>
          <west>-76.06933593750000</west>
        </LatLonAltBox>
        <Lod>
          <minLodPixels>128</minLodPixels>
          <maxLodPixels>-1</maxLodPixels>
        </Lod>
      </Region>
      <Link>
        <href>https://swmoran.github.io/ch-tiles/tiles/DRAPE_Tiles/17/37840/49298.kml</href>
        <viewRefreshMode>onRegion</viewRefreshMode>
        <viewFormat/>
      </Link>
    </NetworkLink>
        
    <NetworkLink>
      <name>17/37841/49298.png</name>
      <Region>
        <LatLonAltBox>
          <north>45.40374755859375</north>
          <south>45.40100097656250</south>
          <east>-76.06384277343750</east>
          <west>-76.06658935546875</west>
        </LatLonAltBox>
        <Lod>
          <minLodPixels>128</minLodPixels>
          <maxLodPixels>-1</maxLodPixels>
        </Lod>
      </Region>
      <Link>
        <href>https://swmoran.github.io/ch-tiles/tiles/DRAPE_Tiles/17/37841/49298.kml</href>
        <viewRefreshMode>onRegion</viewRefreshMode>
        <viewFormat/>
      </Link>
    </NetworkLink>
              </Document>
</kml>
    