<?xml version="1.0" encoding="utf-8"?>
<kml xmlns="http://www.opengis.net/kml/2.2">
  <Document>
    <name>17/37844/84111.kml</name>
    <description></description>
    <Style>
      <ListStyle id="hideChildren">
        <listItemType>checkHideChildren</listItemType>
      </ListStyle>
    </Style>
    <Region>
      <LatLonAltBox>
        <north>45.36758436884980</north>
        <south>45.36565470886627</south>
        <east>-76.05560302734376</east>
        <west>-76.05834960937500</west>
      </LatLonAltBox>
      <Lod>
        <minLodPixels>128</minLodPixels>
        <maxLodPixels>2048</maxLodPixels>
      </Lod>
    </Region>
    <GroundOverlay>
      <drawOrder>34</drawOrder>
      <Icon>
        <href>84111.png</href>
      </Icon>
      <LatLonBox>
        <north>45.36758436884980</north>
        <south>45.36565470886627</south>
        <east>-76.05560302734376</east>
        <west>-76.05834960937500</west>
      </LatLonBox>
    </GroundOverlay>

    <NetworkLink>
      <name>18/75688/168223.png</name>
      <Region>
        <LatLonAltBox>
          <north>45.36758436884980</north>
          <south>45.36661954708626</south>
          <east>-76.05697631835939</east>
          <west>-76.05834960937500</west>
        </LatLonAltBox>
        <Lod>
          <minLodPixels>128</minLodPixels>
          <maxLodPixels>-1</maxLodPixels>
        </Lod>
      </Region>
      <Link>
        <href>../../18/75688/168223.kml</href>
        <viewRefreshMode>onRegion</viewRefreshMode>
        <viewFormat/>
      </Link>
    </NetworkLink>
        
    <NetworkLink>
      <name>18/75689/168223.png</name>
      <Region>
        <LatLonAltBox>
          <north>45.36758436884980</north>
          <south>45.36661954708626</south>
          <east>-76.05560302734376</east>
          <west>-76.05697631835939</west>
        </LatLonAltBox>
        <Lod>
          <minLodPixels>128</minLodPixels>
          <maxLodPixels>-1</maxLodPixels>
        </Lod>
      </Region>
      <Link>
        <href>../../18/75689/168223.kml</href>
        <viewRefreshMode>onRegion</viewRefreshMode>
        <viewFormat/>
      </Link>
    </NetworkLink>
        
    <NetworkLink>
      <name>18/75688/168222.png</name>
      <Region>
        <LatLonAltBox>
          <north>45.36661954708626</north>
          <south>45.36565470886627</south>
          <east>-76.05697631835939</east>
          <west>-76.05834960937500</west>
        </LatLonAltBox>
        <Lod>
          <minLodPixels>128</minLodPixels>
          <maxLodPixels>-1</maxLodPixels>
        </Lod>
      </Region>
      <Link>
        <href>../../18/75688/168222.kml</href>
        <viewRefreshMode>onRegion</viewRefreshMode>
        <viewFormat/>
      </Link>
    </NetworkLink>
        
    <NetworkLink>
      <name>18/75689/168222.png</name>
      <Region>
        <LatLonAltBox>
          <north>45.36661954708626</north>
          <south>45.36565470886627</south>
          <east>-76.05560302734376</east>
          <west>-76.05697631835939</west>
        </LatLonAltBox>
        <Lod>
          <minLodPixels>128</minLodPixels>
          <maxLodPixels>-1</maxLodPixels>
        </Lod>
      </Region>
      <Link>
        <href>../../18/75689/168222.kml</href>
        <viewRefreshMode>onRegion</viewRefreshMode>
        <viewFormat/>
      </Link>
    </NetworkLink>
              </Document>
</kml>
    