<?xml version="1.0" encoding="utf-8"?>
<kml xmlns="http://www.opengis.net/kml/2.2">
  <Document>
    <name>19/151314/336521.kml</name>
    <description></description>
    <Style>
      <ListStyle id="hideChildren">
        <listItemType>checkHideChildren</listItemType>
      </ListStyle>
    </Style>
    <Region>
      <LatLonAltBox>
        <north>45.40327120526064</north>
        <south>45.40278910087822</south>
        <east>-76.10023498535156</east>
        <west>-76.10092163085938</west>
      </LatLonAltBox>
      <Lod>
        <minLodPixels>128</minLodPixels>
        <maxLodPixels>-1</maxLodPixels>
      </Lod>
    </Region>
    <GroundOverlay>
      <drawOrder>38</drawOrder>
      <Icon>
        <href>336521.png</href>
      </Icon>
      <LatLonBox>
        <north>45.40327120526064</north>
        <south>45.40278910087822</south>
        <east>-76.10023498535156</east>
        <west>-76.10092163085938</west>
      </LatLonBox>
    </GroundOverlay>
      </Document>
</kml>
    