<?xml version="1.0" encoding="utf-8"?>
<kml xmlns="http://www.opengis.net/kml/2.2">
  <Document>
    <name>17/37835/49291.kml</name>
    <description></description>
    <Style>
      <ListStyle id="hideChildren">
        <listItemType>checkHideChildren</listItemType>
      </ListStyle>
    </Style>
    <Region>
      <LatLonAltBox>
        <north>45.38452148437500</north>
        <south>45.38177490234375</south>
        <east>-76.08032226562500</east>
        <west>-76.08306884765625</west>
      </LatLonAltBox>
      <Lod>
        <minLodPixels>128</minLodPixels>
        <maxLodPixels>2048</maxLodPixels>
      </Lod>
    </Region>
    <GroundOverlay>
      <drawOrder>34</drawOrder>
      <Icon>
        <href>49291.png</href>
      </Icon>
      <LatLonBox>
        <north>45.38452148437500</north>
        <south>45.38177490234375</south>
        <east>-76.08032226562500</east>
        <west>-76.08306884765625</west>
      </LatLonBox>
    </GroundOverlay>

    <NetworkLink>
      <name>18/75670/98583.png</name>
      <Region>
        <LatLonAltBox>
          <north>45.38452148437500</north>
          <south>45.38314819335938</south>
          <east>-76.08169555664062</east>
          <west>-76.08306884765625</west>
        </LatLonAltBox>
        <Lod>
          <minLodPixels>128</minLodPixels>
          <maxLodPixels>-1</maxLodPixels>
        </Lod>
      </Region>
      <Link>
        <href>https://swmoran.github.io/ch-tiles/tiles_GE/tiles_GE/18/75670/98583.kml</href>
        <viewRefreshMode>onRegion</viewRefreshMode>
        <viewFormat/>
      </Link>
    </NetworkLink>
        
    <NetworkLink>
      <name>18/75671/98583.png</name>
      <Region>
        <LatLonAltBox>
          <north>45.38452148437500</north>
          <south>45.38314819335938</south>
          <east>-76.08032226562500</east>
          <west>-76.08169555664062</west>
        </LatLonAltBox>
        <Lod>
          <minLodPixels>128</minLodPixels>
          <maxLodPixels>-1</maxLodPixels>
        </Lod>
      </Region>
      <Link>
        <href>https://swmoran.github.io/ch-tiles/tiles_GE/tiles_GE/18/75671/98583.kml</href>
        <viewRefreshMode>onRegion</viewRefreshMode>
        <viewFormat/>
      </Link>
    </NetworkLink>
        
    <NetworkLink>
      <name>18/75670/98582.png</name>
      <Region>
        <LatLonAltBox>
          <north>45.38314819335938</north>
          <south>45.38177490234375</south>
          <east>-76.08169555664062</east>
          <west>-76.08306884765625</west>
        </LatLonAltBox>
        <Lod>
          <minLodPixels>128</minLodPixels>
          <maxLodPixels>-1</maxLodPixels>
        </Lod>
      </Region>
      <Link>
        <href>https://swmoran.github.io/ch-tiles/tiles_GE/tiles_GE/18/75670/98582.kml</href>
        <viewRefreshMode>onRegion</viewRefreshMode>
        <viewFormat/>
      </Link>
    </NetworkLink>
        
    <NetworkLink>
      <name>18/75671/98582.png</name>
      <Region>
        <LatLonAltBox>
          <north>45.38314819335938</north>
          <south>45.38177490234375</south>
          <east>-76.08032226562500</east>
          <west>-76.08169555664062</west>
        </LatLonAltBox>
        <Lod>
          <minLodPixels>128</minLodPixels>
          <maxLodPixels>-1</maxLodPixels>
        </Lod>
      </Region>
      <Link>
        <href>https://swmoran.github.io/ch-tiles/tiles_GE/tiles_GE/18/75671/98582.kml</href>
        <viewRefreshMode>onRegion</viewRefreshMode>
        <viewFormat/>
      </Link>
    </NetworkLink>
              </Document>
</kml>
    