<?xml version="1.0" encoding="utf-8"?>
<kml xmlns="http://www.opengis.net/kml/2.2">
  <Document>
    <name>17/37835/49294.kml</name>
    <description></description>
    <Style>
      <ListStyle id="hideChildren">
        <listItemType>checkHideChildren</listItemType>
      </ListStyle>
    </Style>
    <Region>
      <LatLonAltBox>
        <north>45.39276123046875</north>
        <south>45.39001464843750</south>
        <east>-76.08032226562500</east>
        <west>-76.08306884765625</west>
      </LatLonAltBox>
      <Lod>
        <minLodPixels>128</minLodPixels>
        <maxLodPixels>2048</maxLodPixels>
      </Lod>
    </Region>
    <GroundOverlay>
      <drawOrder>34</drawOrder>
      <Icon>
        <href>49294.png</href>
      </Icon>
      <LatLonBox>
        <north>45.39276123046875</north>
        <south>45.39001464843750</south>
        <east>-76.08032226562500</east>
        <west>-76.08306884765625</west>
      </LatLonBox>
    </GroundOverlay>

    <NetworkLink>
      <name>18/75670/98589.png</name>
      <Region>
        <LatLonAltBox>
          <north>45.39276123046875</north>
          <south>45.39138793945312</south>
          <east>-76.08169555664062</east>
          <west>-76.08306884765625</west>
        </LatLonAltBox>
        <Lod>
          <minLodPixels>128</minLodPixels>
          <maxLodPixels>-1</maxLodPixels>
        </Lod>
      </Region>
      <Link>
        <href>../../18/75670/98589.kml</href>
        <viewRefreshMode>onRegion</viewRefreshMode>
        <viewFormat/>
      </Link>
    </NetworkLink>
        
    <NetworkLink>
      <name>18/75671/98589.png</name>
      <Region>
        <LatLonAltBox>
          <north>45.39276123046875</north>
          <south>45.39138793945312</south>
          <east>-76.08032226562500</east>
          <west>-76.08169555664062</west>
        </LatLonAltBox>
        <Lod>
          <minLodPixels>128</minLodPixels>
          <maxLodPixels>-1</maxLodPixels>
        </Lod>
      </Region>
      <Link>
        <href>../../18/75671/98589.kml</href>
        <viewRefreshMode>onRegion</viewRefreshMode>
        <viewFormat/>
      </Link>
    </NetworkLink>
        
    <NetworkLink>
      <name>18/75670/98588.png</name>
      <Region>
        <LatLonAltBox>
          <north>45.39138793945312</north>
          <south>45.39001464843750</south>
          <east>-76.08169555664062</east>
          <west>-76.08306884765625</west>
        </LatLonAltBox>
        <Lod>
          <minLodPixels>128</minLodPixels>
          <maxLodPixels>-1</maxLodPixels>
        </Lod>
      </Region>
      <Link>
        <href>../../18/75670/98588.kml</href>
        <viewRefreshMode>onRegion</viewRefreshMode>
        <viewFormat/>
      </Link>
    </NetworkLink>
        
    <NetworkLink>
      <name>18/75671/98588.png</name>
      <Region>
        <LatLonAltBox>
          <north>45.39138793945312</north>
          <south>45.39001464843750</south>
          <east>-76.08032226562500</east>
          <west>-76.08169555664062</west>
        </LatLonAltBox>
        <Lod>
          <minLodPixels>128</minLodPixels>
          <maxLodPixels>-1</maxLodPixels>
        </Lod>
      </Region>
      <Link>
        <href>../../18/75671/98588.kml</href>
        <viewRefreshMode>onRegion</viewRefreshMode>
        <viewFormat/>
      </Link>
    </NetworkLink>
              </Document>
</kml>
    