<?xml version="1.0" encoding="utf-8"?>
<kml xmlns="http://www.opengis.net/kml/2.2">
  <Document>
    <name>19/151339/197129.kml</name>
    <description></description>
    <Style>
      <ListStyle id="hideChildren">
        <listItemType>checkHideChildren</listItemType>
      </ListStyle>
    </Style>
    <Region>
      <LatLonAltBox>
        <north>134.64225769042969</north>
        <south>134.64157104492188</south>
        <east>-76.08306884765625</east>
        <west>-76.08375549316406</west>
      </LatLonAltBox>
      <Lod>
        <minLodPixels>128</minLodPixels>
        <maxLodPixels>-1</maxLodPixels>
      </Lod>
    </Region>
    <GroundOverlay>
      <drawOrder>38</drawOrder>
      <Icon>
        <href>197129.png</href>
      </Icon>
      <LatLonBox>
        <north>134.64225769042969</north>
        <south>134.64157104492188</south>
        <east>-76.08306884765625</east>
        <west>-76.08375549316406</west>
      </LatLonBox>
    </GroundOverlay>
      </Document>
</kml>
    