<?xml version="1.0" encoding="utf-8"?>
<kml xmlns="http://www.opengis.net/kml/2.2">
  <Document>
    <name>18/75708/98568.kml</name>
    <description></description>
    <Style>
      <ListStyle id="hideChildren">
        <listItemType>checkHideChildren</listItemType>
      </ListStyle>
    </Style>
    <Region>
      <LatLonAltBox>
        <north>45.36392211914062</north>
        <south>45.36254882812500</south>
        <east>-76.02951049804688</east>
        <west>-76.03088378906250</west>
      </LatLonAltBox>
      <Lod>
        <minLodPixels>128</minLodPixels>
        <maxLodPixels>2048</maxLodPixels>
      </Lod>
    </Region>
    <GroundOverlay>
      <drawOrder>36</drawOrder>
      <Icon>
        <href>98568.png</href>
      </Icon>
      <LatLonBox>
        <north>45.36392211914062</north>
        <south>45.36254882812500</south>
        <east>-76.02951049804688</east>
        <west>-76.03088378906250</west>
      </LatLonBox>
    </GroundOverlay>

    <NetworkLink>
      <name>19/151416/197137.png</name>
      <Region>
        <LatLonAltBox>
          <north>45.36392211914062</north>
          <south>45.36323547363281</south>
          <east>-76.03019714355469</east>
          <west>-76.03088378906250</west>
        </LatLonAltBox>
        <Lod>
          <minLodPixels>128</minLodPixels>
          <maxLodPixels>-1</maxLodPixels>
        </Lod>
      </Region>
      <Link>
        <href>https://swmoran.github.io/ch-tiles/tiles/DRAPE_tiles/19/151416/197137.kml</href>
        <viewRefreshMode>onRegion</viewRefreshMode>
        <viewFormat/>
      </Link>
    </NetworkLink>
        
    <NetworkLink>
      <name>19/151417/197137.png</name>
      <Region>
        <LatLonAltBox>
          <north>45.36392211914062</north>
          <south>45.36323547363281</south>
          <east>-76.02951049804688</east>
          <west>-76.03019714355469</west>
        </LatLonAltBox>
        <Lod>
          <minLodPixels>128</minLodPixels>
          <maxLodPixels>-1</maxLodPixels>
        </Lod>
      </Region>
      <Link>
        <href>https://swmoran.github.io/ch-tiles/tiles/DRAPE_tiles/19/151417/197137.kml</href>
        <viewRefreshMode>onRegion</viewRefreshMode>
        <viewFormat/>
      </Link>
    </NetworkLink>
        
    <NetworkLink>
      <name>19/151416/197136.png</name>
      <Region>
        <LatLonAltBox>
          <north>45.36323547363281</north>
          <south>45.36254882812500</south>
          <east>-76.03019714355469</east>
          <west>-76.03088378906250</west>
        </LatLonAltBox>
        <Lod>
          <minLodPixels>128</minLodPixels>
          <maxLodPixels>-1</maxLodPixels>
        </Lod>
      </Region>
      <Link>
        <href>https://swmoran.github.io/ch-tiles/tiles/DRAPE_tiles/19/151416/197136.kml</href>
        <viewRefreshMode>onRegion</viewRefreshMode>
        <viewFormat/>
      </Link>
    </NetworkLink>
        
    <NetworkLink>
      <name>19/151417/197136.png</name>
      <Region>
        <LatLonAltBox>
          <north>45.36323547363281</north>
          <south>45.36254882812500</south>
          <east>-76.02951049804688</east>
          <west>-76.03019714355469</west>
        </LatLonAltBox>
        <Lod>
          <minLodPixels>128</minLodPixels>
          <maxLodPixels>-1</maxLodPixels>
        </Lod>
      </Region>
      <Link>
        <href>https://swmoran.github.io/ch-tiles/tiles/DRAPE_tiles/19/151417/197136.kml</href>
        <viewRefreshMode>onRegion</viewRefreshMode>
        <viewFormat/>
      </Link>
    </NetworkLink>
              </Document>
</kml>
    