<?xml version="1.0" encoding="utf-8"?>
<kml xmlns="http://www.opengis.net/kml/2.2">
  <Document>
    <name>18/75682/98565.kml</name>
    <description></description>
    <Style>
      <ListStyle id="hideChildren">
        <listItemType>checkHideChildren</listItemType>
      </ListStyle>
    </Style>
    <Region>
      <LatLonAltBox>
        <north>45.35980224609375</north>
        <south>45.35842895507812</south>
        <east>-76.06521606445312</east>
        <west>-76.06658935546875</west>
      </LatLonAltBox>
      <Lod>
        <minLodPixels>128</minLodPixels>
        <maxLodPixels>2048</maxLodPixels>
      </Lod>
    </Region>
    <GroundOverlay>
      <drawOrder>36</drawOrder>
      <Icon>
        <href>98565.png</href>
      </Icon>
      <LatLonBox>
        <north>45.35980224609375</north>
        <south>45.35842895507812</south>
        <east>-76.06521606445312</east>
        <west>-76.06658935546875</west>
      </LatLonBox>
    </GroundOverlay>

    <NetworkLink>
      <name>19/151364/197131.png</name>
      <Region>
        <LatLonAltBox>
          <north>45.35980224609375</north>
          <south>45.35911560058594</south>
          <east>-76.06590270996094</east>
          <west>-76.06658935546875</west>
        </LatLonAltBox>
        <Lod>
          <minLodPixels>128</minLodPixels>
          <maxLodPixels>-1</maxLodPixels>
        </Lod>
      </Region>
      <Link>
        <href>https://swmoran.github.io/ch-tiles/tiles/DRAPE_tiles/19/151364/197131.kml</href>
        <viewRefreshMode>onRegion</viewRefreshMode>
        <viewFormat/>
      </Link>
    </NetworkLink>
        
    <NetworkLink>
      <name>19/151365/197131.png</name>
      <Region>
        <LatLonAltBox>
          <north>45.35980224609375</north>
          <south>45.35911560058594</south>
          <east>-76.06521606445312</east>
          <west>-76.06590270996094</west>
        </LatLonAltBox>
        <Lod>
          <minLodPixels>128</minLodPixels>
          <maxLodPixels>-1</maxLodPixels>
        </Lod>
      </Region>
      <Link>
        <href>https://swmoran.github.io/ch-tiles/tiles/DRAPE_tiles/19/151365/197131.kml</href>
        <viewRefreshMode>onRegion</viewRefreshMode>
        <viewFormat/>
      </Link>
    </NetworkLink>
        
    <NetworkLink>
      <name>19/151364/197130.png</name>
      <Region>
        <LatLonAltBox>
          <north>45.35911560058594</north>
          <south>45.35842895507812</south>
          <east>-76.06590270996094</east>
          <west>-76.06658935546875</west>
        </LatLonAltBox>
        <Lod>
          <minLodPixels>128</minLodPixels>
          <maxLodPixels>-1</maxLodPixels>
        </Lod>
      </Region>
      <Link>
        <href>https://swmoran.github.io/ch-tiles/tiles/DRAPE_tiles/19/151364/197130.kml</href>
        <viewRefreshMode>onRegion</viewRefreshMode>
        <viewFormat/>
      </Link>
    </NetworkLink>
        
    <NetworkLink>
      <name>19/151365/197130.png</name>
      <Region>
        <LatLonAltBox>
          <north>45.35911560058594</north>
          <south>45.35842895507812</south>
          <east>-76.06521606445312</east>
          <west>-76.06590270996094</west>
        </LatLonAltBox>
        <Lod>
          <minLodPixels>128</minLodPixels>
          <maxLodPixels>-1</maxLodPixels>
        </Lod>
      </Region>
      <Link>
        <href>https://swmoran.github.io/ch-tiles/tiles/DRAPE_tiles/19/151365/197130.kml</href>
        <viewRefreshMode>onRegion</viewRefreshMode>
        <viewFormat/>
      </Link>
    </NetworkLink>
              </Document>
</kml>
    