<?xml version="1.0" encoding="utf-8"?>
<kml xmlns="http://www.opengis.net/kml/2.2">
  <Document>
    <name>19/151391/197205.kml</name>
    <description></description>
    <Style>
      <ListStyle id="hideChildren">
        <listItemType>checkHideChildren</listItemType>
      </ListStyle>
    </Style>
    <Region>
      <LatLonAltBox>
        <north>45.41061401367188</north>
        <south>45.40992736816406</south>
        <east>-76.04736328125000</east>
        <west>-76.04804992675781</west>
      </LatLonAltBox>
      <Lod>
        <minLodPixels>128</minLodPixels>
        <maxLodPixels>-1</maxLodPixels>
      </Lod>
    </Region>
    <GroundOverlay>
      <drawOrder>38</drawOrder>
      <Icon>
        <href>197205.png</href>
      </Icon>
      <LatLonBox>
        <north>45.41061401367188</north>
        <south>45.40992736816406</south>
        <east>-76.04736328125000</east>
        <west>-76.04804992675781</west>
      </LatLonBox>
    </GroundOverlay>
      </Document>
</kml>
    