<?xml version="1.0" encoding="utf-8"?>
<kml xmlns="http://www.opengis.net/kml/2.2">
  <Document>
    <name>19/151386/197156.kml</name>
    <description></description>
    <Style>
      <ListStyle id="hideChildren">
        <listItemType>checkHideChildren</listItemType>
      </ListStyle>
    </Style>
    <Region>
      <LatLonAltBox>
        <north>45.37696838378906</north>
        <south>45.37628173828125</south>
        <east>-76.05079650878906</east>
        <west>-76.05148315429688</west>
      </LatLonAltBox>
      <Lod>
        <minLodPixels>128</minLodPixels>
        <maxLodPixels>-1</maxLodPixels>
      </Lod>
    </Region>
    <GroundOverlay>
      <drawOrder>38</drawOrder>
      <Icon>
        <href>197156.png</href>
      </Icon>
      <LatLonBox>
        <north>45.37696838378906</north>
        <south>45.37628173828125</south>
        <east>-76.05079650878906</east>
        <west>-76.05148315429688</west>
      </LatLonBox>
    </GroundOverlay>
      </Document>
</kml>
    