<?xml version="1.0" encoding="utf-8"?>
<kml xmlns="http://www.opengis.net/kml/2.2">
  <Document>
    <name>17/37830/81787.kml</name>
    <description></description>
    <Style>
      <ListStyle id="hideChildren">
        <listItemType>checkHideChildren</listItemType>
      </ListStyle>
    </Style>
    <Region>
      <LatLonAltBox>
        <north>45.36529541015625</north>
        <south>45.36254882812500</south>
        <east>-76.09405517578125</east>
        <west>-76.09680175781250</west>
      </LatLonAltBox>
      <Lod>
        <minLodPixels>128</minLodPixels>
        <maxLodPixels>2048</maxLodPixels>
      </Lod>
    </Region>
    <GroundOverlay>
      <drawOrder>34</drawOrder>
      <Icon>
        <href>81787.png</href>
      </Icon>
      <LatLonBox>
        <north>45.36529541015625</north>
        <south>45.36254882812500</south>
        <east>-76.09405517578125</east>
        <west>-76.09680175781250</west>
      </LatLonBox>
    </GroundOverlay>

    <NetworkLink>
      <name>18/75660/163574.png</name>
      <Region>
        <LatLonAltBox>
          <north>45.36529541015625</north>
          <south>45.36392211914062</south>
          <east>-76.09542846679688</east>
          <west>-76.09680175781250</west>
        </LatLonAltBox>
        <Lod>
          <minLodPixels>128</minLodPixels>
          <maxLodPixels>-1</maxLodPixels>
        </Lod>
      </Region>
      <Link>
        <href>../../18/75660/163574.kml</href>
        <viewRefreshMode>onRegion</viewRefreshMode>
        <viewFormat/>
      </Link>
    </NetworkLink>
        
    <NetworkLink>
      <name>18/75661/163574.png</name>
      <Region>
        <LatLonAltBox>
          <north>45.36529541015625</north>
          <south>45.36392211914062</south>
          <east>-76.09405517578125</east>
          <west>-76.09542846679688</west>
        </LatLonAltBox>
        <Lod>
          <minLodPixels>128</minLodPixels>
          <maxLodPixels>-1</maxLodPixels>
        </Lod>
      </Region>
      <Link>
        <href>../../18/75661/163574.kml</href>
        <viewRefreshMode>onRegion</viewRefreshMode>
        <viewFormat/>
      </Link>
    </NetworkLink>
        
    <NetworkLink>
      <name>18/75660/163575.png</name>
      <Region>
        <LatLonAltBox>
          <north>45.36392211914062</north>
          <south>45.36254882812500</south>
          <east>-76.09542846679688</east>
          <west>-76.09680175781250</west>
        </LatLonAltBox>
        <Lod>
          <minLodPixels>128</minLodPixels>
          <maxLodPixels>-1</maxLodPixels>
        </Lod>
      </Region>
      <Link>
        <href>../../18/75660/163575.kml</href>
        <viewRefreshMode>onRegion</viewRefreshMode>
        <viewFormat/>
      </Link>
    </NetworkLink>
        
    <NetworkLink>
      <name>18/75661/163575.png</name>
      <Region>
        <LatLonAltBox>
          <north>45.36392211914062</north>
          <south>45.36254882812500</south>
          <east>-76.09405517578125</east>
          <west>-76.09542846679688</west>
        </LatLonAltBox>
        <Lod>
          <minLodPixels>128</minLodPixels>
          <maxLodPixels>-1</maxLodPixels>
        </Lod>
      </Region>
      <Link>
        <href>../../18/75661/163575.kml</href>
        <viewRefreshMode>onRegion</viewRefreshMode>
        <viewFormat/>
      </Link>
    </NetworkLink>
              </Document>
</kml>
    