<?xml version="1.0" encoding="utf-8"?>
<kml xmlns="http://www.opengis.net/kml/2.2">
  <Document>
    <name>19/151322/197202.kml</name>
    <description></description>
    <Style>
      <ListStyle id="hideChildren">
        <listItemType>checkHideChildren</listItemType>
      </ListStyle>
    </Style>
    <Region>
      <LatLonAltBox>
        <north>134.59213256835938</north>
        <south>134.59144592285156</south>
        <east>-76.09474182128906</east>
        <west>-76.09542846679688</west>
      </LatLonAltBox>
      <Lod>
        <minLodPixels>128</minLodPixels>
        <maxLodPixels>-1</maxLodPixels>
      </Lod>
    </Region>
    <GroundOverlay>
      <drawOrder>38</drawOrder>
      <Icon>
        <href>197202.png</href>
      </Icon>
      <LatLonBox>
        <north>134.59213256835938</north>
        <south>134.59144592285156</south>
        <east>-76.09474182128906</east>
        <west>-76.09542846679688</west>
      </LatLonBox>
    </GroundOverlay>
      </Document>
</kml>
    