<?xml version="1.0" encoding="utf-8"?>
<kml xmlns="http://www.opengis.net/kml/2.2">
  <Document>
    <name>12/1183/2629.kml</name>
    <description></description>
    <Style>
      <ListStyle id="hideChildren">
        <listItemType>checkHideChildren</listItemType>
      </ListStyle>
    </Style>
    <Region>
      <LatLonAltBox>
        <north>45.46013063792100</north>
        <south>45.39844997630411</south>
        <east>-75.93750000000000</east>
        <west>-76.02539062500000</west>
      </LatLonAltBox>
      <Lod>
        <minLodPixels>128</minLodPixels>
        <maxLodPixels>2048</maxLodPixels>
      </Lod>
    </Region>
    <GroundOverlay>
      <drawOrder>24</drawOrder>
      <Icon>
        <href>2629.png</href>
      </Icon>
      <LatLonBox>
        <north>45.46013063792100</north>
        <south>45.39844997630411</south>
        <east>-75.93750000000000</east>
        <west>-76.02539062500000</west>
      </LatLonBox>
    </GroundOverlay>

    <NetworkLink>
      <name>13/2366/5258.png</name>
      <Region>
        <LatLonAltBox>
          <north>45.42929873257377</north>
          <south>45.39844997630411</south>
          <east>-75.98144531250000</east>
          <west>-76.02539062500000</west>
        </LatLonAltBox>
        <Lod>
          <minLodPixels>128</minLodPixels>
          <maxLodPixels>-1</maxLodPixels>
        </Lod>
      </Region>
      <Link>
        <href>../../13/2366/5258.kml</href>
        <viewRefreshMode>onRegion</viewRefreshMode>
        <viewFormat/>
      </Link>
    </NetworkLink>
              </Document>
</kml>
    