<?xml version="1.0" encoding="utf-8"?>
<kml xmlns="http://www.opengis.net/kml/2.2">
  <Document>
    <name>19/151322/336437.kml</name>
    <description></description>
    <Style>
      <ListStyle id="hideChildren">
        <listItemType>checkHideChildren</listItemType>
      </ListStyle>
    </Style>
    <Region>
      <LatLonAltBox>
        <north>45.36276009546730</north>
        <south>45.36227764550133</south>
        <east>-76.09474182128905</east>
        <west>-76.09542846679686</west>
      </LatLonAltBox>
      <Lod>
        <minLodPixels>128</minLodPixels>
        <maxLodPixels>-1</maxLodPixels>
      </Lod>
    </Region>
    <GroundOverlay>
      <drawOrder>38</drawOrder>
      <Icon>
        <href>336437.png</href>
      </Icon>
      <LatLonBox>
        <north>45.36276009546730</north>
        <south>45.36227764550133</south>
        <east>-76.09474182128905</east>
        <west>-76.09542846679686</west>
      </LatLonBox>
    </GroundOverlay>
      </Document>
</kml>
    