<?xml version="1.0" encoding="utf-8"?>
<kml xmlns="http://www.opengis.net/kml/2.2">
  <Document>
    <name>18/75708/168241.kml</name>
    <description></description>
    <Style>
      <ListStyle id="hideChildren">
        <listItemType>checkHideChildren</listItemType>
      </ListStyle>
    </Style>
    <Region>
      <LatLonAltBox>
        <north>45.38494834654319</north>
        <south>45.38398382099511</south>
        <east>-76.02951049804686</east>
        <west>-76.03088378906249</west>
      </LatLonAltBox>
      <Lod>
        <minLodPixels>128</minLodPixels>
        <maxLodPixels>2048</maxLodPixels>
      </Lod>
    </Region>
    <GroundOverlay>
      <drawOrder>36</drawOrder>
      <Icon>
        <href>168241.png</href>
      </Icon>
      <LatLonBox>
        <north>45.38494834654319</north>
        <south>45.38398382099511</south>
        <east>-76.02951049804686</east>
        <west>-76.03088378906249</west>
      </LatLonBox>
    </GroundOverlay>

    <NetworkLink>
      <name>19/151416/336483.png</name>
      <Region>
        <LatLonAltBox>
          <north>45.38494834654319</north>
          <south>45.38446608582618</south>
          <east>-76.03019714355467</east>
          <west>-76.03088378906249</west>
        </LatLonAltBox>
        <Lod>
          <minLodPixels>128</minLodPixels>
          <maxLodPixels>-1</maxLodPixels>
        </Lod>
      </Region>
      <Link>
        <href>../../19/151416/336483.kml</href>
        <viewRefreshMode>onRegion</viewRefreshMode>
        <viewFormat/>
      </Link>
    </NetworkLink>
        
    <NetworkLink>
      <name>19/151417/336483.png</name>
      <Region>
        <LatLonAltBox>
          <north>45.38494834654319</north>
          <south>45.38446608582618</south>
          <east>-76.02951049804686</east>
          <west>-76.03019714355467</west>
        </LatLonAltBox>
        <Lod>
          <minLodPixels>128</minLodPixels>
          <maxLodPixels>-1</maxLodPixels>
        </Lod>
      </Region>
      <Link>
        <href>../../19/151417/336483.kml</href>
        <viewRefreshMode>onRegion</viewRefreshMode>
        <viewFormat/>
      </Link>
    </NetworkLink>
        
    <NetworkLink>
      <name>19/151416/336482.png</name>
      <Region>
        <LatLonAltBox>
          <north>45.38446608582618</north>
          <south>45.38398382099511</south>
          <east>-76.03019714355467</east>
          <west>-76.03088378906249</west>
        </LatLonAltBox>
        <Lod>
          <minLodPixels>128</minLodPixels>
          <maxLodPixels>-1</maxLodPixels>
        </Lod>
      </Region>
      <Link>
        <href>../../19/151416/336482.kml</href>
        <viewRefreshMode>onRegion</viewRefreshMode>
        <viewFormat/>
      </Link>
    </NetworkLink>
        
    <NetworkLink>
      <name>19/151417/336482.png</name>
      <Region>
        <LatLonAltBox>
          <north>45.38446608582618</north>
          <south>45.38398382099511</south>
          <east>-76.02951049804686</east>
          <west>-76.03019714355467</west>
        </LatLonAltBox>
        <Lod>
          <minLodPixels>128</minLodPixels>
          <maxLodPixels>-1</maxLodPixels>
        </Lod>
      </Region>
      <Link>
        <href>../../19/151417/336482.kml</href>
        <viewRefreshMode>onRegion</viewRefreshMode>
        <viewFormat/>
      </Link>
    </NetworkLink>
              </Document>
</kml>
    