<?xml version="1.0" encoding="utf-8"?>
<kml xmlns="http://www.opengis.net/kml/2.2">
  <Document>
    <name>17/37838/49285.kml</name>
    <description></description>
    <Style>
      <ListStyle id="hideChildren">
        <listItemType>checkHideChildren</listItemType>
      </ListStyle>
    </Style>
    <Region>
      <LatLonAltBox>
        <north>45.36804199218750</north>
        <south>45.36529541015625</south>
        <east>-76.07208251953125</east>
        <west>-76.07482910156250</west>
      </LatLonAltBox>
      <Lod>
        <minLodPixels>128</minLodPixels>
        <maxLodPixels>2048</maxLodPixels>
      </Lod>
    </Region>
    <GroundOverlay>
      <drawOrder>34</drawOrder>
      <Icon>
        <href>49285.png</href>
      </Icon>
      <LatLonBox>
        <north>45.36804199218750</north>
        <south>45.36529541015625</south>
        <east>-76.07208251953125</east>
        <west>-76.07482910156250</west>
      </LatLonBox>
    </GroundOverlay>

    <NetworkLink>
      <name>18/75676/98571.png</name>
      <Region>
        <LatLonAltBox>
          <north>45.36804199218750</north>
          <south>45.36666870117188</south>
          <east>-76.07345581054688</east>
          <west>-76.07482910156250</west>
        </LatLonAltBox>
        <Lod>
          <minLodPixels>128</minLodPixels>
          <maxLodPixels>-1</maxLodPixels>
        </Lod>
      </Region>
      <Link>
        <href>https://swmoran.github.io/ch-tiles/tiles_GE/tiles_GE/18/75676/98571.kml</href>
        <viewRefreshMode>onRegion</viewRefreshMode>
        <viewFormat/>
      </Link>
    </NetworkLink>
        
    <NetworkLink>
      <name>18/75677/98571.png</name>
      <Region>
        <LatLonAltBox>
          <north>45.36804199218750</north>
          <south>45.36666870117188</south>
          <east>-76.07208251953125</east>
          <west>-76.07345581054688</west>
        </LatLonAltBox>
        <Lod>
          <minLodPixels>128</minLodPixels>
          <maxLodPixels>-1</maxLodPixels>
        </Lod>
      </Region>
      <Link>
        <href>https://swmoran.github.io/ch-tiles/tiles_GE/tiles_GE/18/75677/98571.kml</href>
        <viewRefreshMode>onRegion</viewRefreshMode>
        <viewFormat/>
      </Link>
    </NetworkLink>
        
    <NetworkLink>
      <name>18/75676/98570.png</name>
      <Region>
        <LatLonAltBox>
          <north>45.36666870117188</north>
          <south>45.36529541015625</south>
          <east>-76.07345581054688</east>
          <west>-76.07482910156250</west>
        </LatLonAltBox>
        <Lod>
          <minLodPixels>128</minLodPixels>
          <maxLodPixels>-1</maxLodPixels>
        </Lod>
      </Region>
      <Link>
        <href>https://swmoran.github.io/ch-tiles/tiles_GE/tiles_GE/18/75676/98570.kml</href>
        <viewRefreshMode>onRegion</viewRefreshMode>
        <viewFormat/>
      </Link>
    </NetworkLink>
        
    <NetworkLink>
      <name>18/75677/98570.png</name>
      <Region>
        <LatLonAltBox>
          <north>45.36666870117188</north>
          <south>45.36529541015625</south>
          <east>-76.07208251953125</east>
          <west>-76.07345581054688</west>
        </LatLonAltBox>
        <Lod>
          <minLodPixels>128</minLodPixels>
          <maxLodPixels>-1</maxLodPixels>
        </Lod>
      </Region>
      <Link>
        <href>https://swmoran.github.io/ch-tiles/tiles_GE/tiles_GE/18/75677/98570.kml</href>
        <viewRefreshMode>onRegion</viewRefreshMode>
        <viewFormat/>
      </Link>
    </NetworkLink>
              </Document>
</kml>
    