<?xml version="1.0" encoding="utf-8"?>
<kml xmlns="http://www.opengis.net/kml/2.2">
  <Document>
    <name>19/151412/336445.kml</name>
    <description></description>
    <Style>
      <ListStyle id="hideChildren">
        <listItemType>checkHideChildren</listItemType>
      </ListStyle>
    </Style>
    <Region>
      <LatLonAltBox>
        <north>45.36661954708626</north>
        <south>45.36613713003334</south>
        <east>-76.03294372558595</east>
        <west>-76.03363037109376</west>
      </LatLonAltBox>
      <Lod>
        <minLodPixels>128</minLodPixels>
        <maxLodPixels>-1</maxLodPixels>
      </Lod>
    </Region>
    <GroundOverlay>
      <drawOrder>38</drawOrder>
      <Icon>
        <href>336445.png</href>
      </Icon>
      <LatLonBox>
        <north>45.36661954708626</north>
        <south>45.36613713003334</south>
        <east>-76.03294372558595</east>
        <west>-76.03363037109376</west>
      </LatLonBox>
    </GroundOverlay>
      </Document>
</kml>
    