<?xml version="1.0" encoding="utf-8"?>
<kml xmlns="http://www.opengis.net/kml/2.2">
  <Document>
    <name>19/151357/197204.kml</name>
    <description></description>
    <Style>
      <ListStyle id="hideChildren">
        <listItemType>checkHideChildren</listItemType>
      </ListStyle>
    </Style>
    <Region>
      <LatLonAltBox>
        <north>45.40992736816406</north>
        <south>45.40924072265625</south>
        <east>-76.07070922851562</east>
        <west>-76.07139587402344</west>
      </LatLonAltBox>
      <Lod>
        <minLodPixels>128</minLodPixels>
        <maxLodPixels>-1</maxLodPixels>
      </Lod>
    </Region>
    <GroundOverlay>
      <drawOrder>38</drawOrder>
      <Icon>
        <href>197204.png</href>
      </Icon>
      <LatLonBox>
        <north>45.40992736816406</north>
        <south>45.40924072265625</south>
        <east>-76.07070922851562</east>
        <west>-76.07139587402344</west>
      </LatLonBox>
    </GroundOverlay>
      </Document>
</kml>
    