<?xml version="1.0" encoding="utf-8"?>
<kml xmlns="http://www.opengis.net/kml/2.2">
  <Document>
    <name>18/75693/163548.kml</name>
    <description></description>
    <Style>
      <ListStyle id="hideChildren">
        <listItemType>checkHideChildren</listItemType>
      </ListStyle>
    </Style>
    <Region>
      <LatLonAltBox>
        <north>45.40100097656250</north>
        <south>45.39962768554688</south>
        <east>-76.05010986328125</east>
        <west>-76.05148315429688</west>
      </LatLonAltBox>
      <Lod>
        <minLodPixels>128</minLodPixels>
        <maxLodPixels>2048</maxLodPixels>
      </Lod>
    </Region>
    <GroundOverlay>
      <drawOrder>36</drawOrder>
      <Icon>
        <href>163548.png</href>
      </Icon>
      <LatLonBox>
        <north>45.40100097656250</north>
        <south>45.39962768554688</south>
        <east>-76.05010986328125</east>
        <west>-76.05148315429688</west>
      </LatLonBox>
    </GroundOverlay>

    <NetworkLink>
      <name>19/151386/327096.png</name>
      <Region>
        <LatLonAltBox>
          <north>45.40100097656250</north>
          <south>45.40031433105469</south>
          <east>-76.05079650878906</east>
          <west>-76.05148315429688</west>
        </LatLonAltBox>
        <Lod>
          <minLodPixels>128</minLodPixels>
          <maxLodPixels>-1</maxLodPixels>
        </Lod>
      </Region>
      <Link>
        <href>../../19/151386/327096.kml</href>
        <viewRefreshMode>onRegion</viewRefreshMode>
        <viewFormat/>
      </Link>
    </NetworkLink>
        
    <NetworkLink>
      <name>19/151387/327096.png</name>
      <Region>
        <LatLonAltBox>
          <north>45.40100097656250</north>
          <south>45.40031433105469</south>
          <east>-76.05010986328125</east>
          <west>-76.05079650878906</west>
        </LatLonAltBox>
        <Lod>
          <minLodPixels>128</minLodPixels>
          <maxLodPixels>-1</maxLodPixels>
        </Lod>
      </Region>
      <Link>
        <href>../../19/151387/327096.kml</href>
        <viewRefreshMode>onRegion</viewRefreshMode>
        <viewFormat/>
      </Link>
    </NetworkLink>
        
    <NetworkLink>
      <name>19/151386/327097.png</name>
      <Region>
        <LatLonAltBox>
          <north>45.40031433105469</north>
          <south>45.39962768554688</south>
          <east>-76.05079650878906</east>
          <west>-76.05148315429688</west>
        </LatLonAltBox>
        <Lod>
          <minLodPixels>128</minLodPixels>
          <maxLodPixels>-1</maxLodPixels>
        </Lod>
      </Region>
      <Link>
        <href>../../19/151386/327097.kml</href>
        <viewRefreshMode>onRegion</viewRefreshMode>
        <viewFormat/>
      </Link>
    </NetworkLink>
        
    <NetworkLink>
      <name>19/151387/327097.png</name>
      <Region>
        <LatLonAltBox>
          <north>45.40031433105469</north>
          <south>45.39962768554688</south>
          <east>-76.05010986328125</east>
          <west>-76.05079650878906</west>
        </LatLonAltBox>
        <Lod>
          <minLodPixels>128</minLodPixels>
          <maxLodPixels>-1</maxLodPixels>
        </Lod>
      </Region>
      <Link>
        <href>../../19/151387/327097.kml</href>
        <viewRefreshMode>onRegion</viewRefreshMode>
        <viewFormat/>
      </Link>
    </NetworkLink>
              </Document>
</kml>
    