<?xml version="1.0" encoding="utf-8"?>
<kml xmlns="http://www.opengis.net/kml/2.2">
  <Document>
    <name>19/151403/197196.kml</name>
    <description></description>
    <Style>
      <ListStyle id="hideChildren">
        <listItemType>checkHideChildren</listItemType>
      </ListStyle>
    </Style>
    <Region>
      <LatLonAltBox>
        <north>134.59625244140625</north>
        <south>134.59556579589844</south>
        <east>-76.03912353515625</east>
        <west>-76.03981018066406</west>
      </LatLonAltBox>
      <Lod>
        <minLodPixels>128</minLodPixels>
        <maxLodPixels>-1</maxLodPixels>
      </Lod>
    </Region>
    <GroundOverlay>
      <drawOrder>38</drawOrder>
      <Icon>
        <href>197196.png</href>
      </Icon>
      <LatLonBox>
        <north>134.59625244140625</north>
        <south>134.59556579589844</south>
        <east>-76.03912353515625</east>
        <west>-76.03981018066406</west>
      </LatLonBox>
    </GroundOverlay>
      </Document>
</kml>
    