<?xml version="1.0" encoding="utf-8"?>
<kml xmlns="http://www.opengis.net/kml/2.2">
  <Document>
    <name>18/75711/98591.kml</name>
    <description></description>
    <Style>
      <ListStyle id="hideChildren">
        <listItemType>checkHideChildren</listItemType>
      </ListStyle>
    </Style>
    <Region>
      <LatLonAltBox>
        <north>45.39550781250000</north>
        <south>45.39413452148438</south>
        <east>-76.02539062500000</east>
        <west>-76.02676391601562</west>
      </LatLonAltBox>
      <Lod>
        <minLodPixels>128</minLodPixels>
        <maxLodPixels>2048</maxLodPixels>
      </Lod>
    </Region>
    <GroundOverlay>
      <drawOrder>36</drawOrder>
      <Icon>
        <href>98591.png</href>
      </Icon>
      <LatLonBox>
        <north>45.39550781250000</north>
        <south>45.39413452148438</south>
        <east>-76.02539062500000</east>
        <west>-76.02676391601562</west>
      </LatLonBox>
    </GroundOverlay>

    <NetworkLink>
      <name>19/151422/197183.png</name>
      <Region>
        <LatLonAltBox>
          <north>45.39550781250000</north>
          <south>45.39482116699219</south>
          <east>-76.02607727050781</east>
          <west>-76.02676391601562</west>
        </LatLonAltBox>
        <Lod>
          <minLodPixels>128</minLodPixels>
          <maxLodPixels>-1</maxLodPixels>
        </Lod>
      </Region>
      <Link>
        <href>https://swmoran.github.io/ch-tiles/tiles/DRAPE_tiles/19/151422/197183.kml</href>
        <viewRefreshMode>onRegion</viewRefreshMode>
        <viewFormat/>
      </Link>
    </NetworkLink>
        
    <NetworkLink>
      <name>19/151423/197183.png</name>
      <Region>
        <LatLonAltBox>
          <north>45.39550781250000</north>
          <south>45.39482116699219</south>
          <east>-76.02539062500000</east>
          <west>-76.02607727050781</west>
        </LatLonAltBox>
        <Lod>
          <minLodPixels>128</minLodPixels>
          <maxLodPixels>-1</maxLodPixels>
        </Lod>
      </Region>
      <Link>
        <href>https://swmoran.github.io/ch-tiles/tiles/DRAPE_tiles/19/151423/197183.kml</href>
        <viewRefreshMode>onRegion</viewRefreshMode>
        <viewFormat/>
      </Link>
    </NetworkLink>
        
    <NetworkLink>
      <name>19/151422/197182.png</name>
      <Region>
        <LatLonAltBox>
          <north>45.39482116699219</north>
          <south>45.39413452148438</south>
          <east>-76.02607727050781</east>
          <west>-76.02676391601562</west>
        </LatLonAltBox>
        <Lod>
          <minLodPixels>128</minLodPixels>
          <maxLodPixels>-1</maxLodPixels>
        </Lod>
      </Region>
      <Link>
        <href>https://swmoran.github.io/ch-tiles/tiles/DRAPE_tiles/19/151422/197182.kml</href>
        <viewRefreshMode>onRegion</viewRefreshMode>
        <viewFormat/>
      </Link>
    </NetworkLink>
        
    <NetworkLink>
      <name>19/151423/197182.png</name>
      <Region>
        <LatLonAltBox>
          <north>45.39482116699219</north>
          <south>45.39413452148438</south>
          <east>-76.02539062500000</east>
          <west>-76.02607727050781</west>
        </LatLonAltBox>
        <Lod>
          <minLodPixels>128</minLodPixels>
          <maxLodPixels>-1</maxLodPixels>
        </Lod>
      </Region>
      <Link>
        <href>https://swmoran.github.io/ch-tiles/tiles/DRAPE_tiles/19/151423/197182.kml</href>
        <viewRefreshMode>onRegion</viewRefreshMode>
        <viewFormat/>
      </Link>
    </NetworkLink>
              </Document>
</kml>
    