<?xml version="1.0" encoding="utf-8"?>
<kml xmlns="http://www.opengis.net/kml/2.2">
  <Document>
    <name>14/4728/10513.kml</name>
    <description></description>
    <Style>
      <ListStyle id="hideChildren">
        <listItemType>checkHideChildren</listItemType>
      </ListStyle>
    </Style>
    <Region>
      <LatLonAltBox>
        <north>45.36758436884980</north>
        <south>45.35214524585180</south>
        <east>-76.09130859375000</east>
        <west>-76.11328124999999</west>
      </LatLonAltBox>
      <Lod>
        <minLodPixels>128</minLodPixels>
        <maxLodPixels>2048</maxLodPixels>
      </Lod>
    </Region>
    <GroundOverlay>
      <drawOrder>28</drawOrder>
      <Icon>
        <href>10513.png</href>
      </Icon>
      <LatLonBox>
        <north>45.36758436884980</north>
        <south>45.35214524585180</south>
        <east>-76.09130859375000</east>
        <west>-76.11328124999999</west>
      </LatLonBox>
    </GroundOverlay>

    <NetworkLink>
      <name>15/9456/21027.png</name>
      <Region>
        <LatLonAltBox>
          <north>45.36758436884980</north>
          <south>45.35986533395975</south>
          <east>-76.10229492187500</east>
          <west>-76.11328124999999</west>
        </LatLonAltBox>
        <Lod>
          <minLodPixels>128</minLodPixels>
          <maxLodPixels>-1</maxLodPixels>
        </Lod>
      </Region>
      <Link>
        <href>../../15/9456/21027.kml</href>
        <viewRefreshMode>onRegion</viewRefreshMode>
        <viewFormat/>
      </Link>
    </NetworkLink>
        
    <NetworkLink>
      <name>15/9457/21027.png</name>
      <Region>
        <LatLonAltBox>
          <north>45.36758436884980</north>
          <south>45.35986533395975</south>
          <east>-76.09130859375000</east>
          <west>-76.10229492187500</west>
        </LatLonAltBox>
        <Lod>
          <minLodPixels>128</minLodPixels>
          <maxLodPixels>-1</maxLodPixels>
        </Lod>
      </Region>
      <Link>
        <href>../../15/9457/21027.kml</href>
        <viewRefreshMode>onRegion</viewRefreshMode>
        <viewFormat/>
      </Link>
    </NetworkLink>
        
    <NetworkLink>
      <name>15/9456/21026.png</name>
      <Region>
        <LatLonAltBox>
          <north>45.35986533395975</north>
          <south>45.35214524585180</south>
          <east>-76.10229492187500</east>
          <west>-76.11328124999999</west>
        </LatLonAltBox>
        <Lod>
          <minLodPixels>128</minLodPixels>
          <maxLodPixels>-1</maxLodPixels>
        </Lod>
      </Region>
      <Link>
        <href>../../15/9456/21026.kml</href>
        <viewRefreshMode>onRegion</viewRefreshMode>
        <viewFormat/>
      </Link>
    </NetworkLink>
        
    <NetworkLink>
      <name>15/9457/21026.png</name>
      <Region>
        <LatLonAltBox>
          <north>45.35986533395975</north>
          <south>45.35214524585180</south>
          <east>-76.09130859375000</east>
          <west>-76.10229492187500</west>
        </LatLonAltBox>
        <Lod>
          <minLodPixels>128</minLodPixels>
          <maxLodPixels>-1</maxLodPixels>
        </Lod>
      </Region>
      <Link>
        <href>../../15/9457/21026.kml</href>
        <viewRefreshMode>onRegion</viewRefreshMode>
        <viewFormat/>
      </Link>
    </NetworkLink>
              </Document>
</kml>
    