<?xml version="1.0" encoding="utf-8"?>
<kml xmlns="http://www.opengis.net/kml/2.2">
  <Document>
    <name>18/75681/98598.kml</name>
    <description></description>
    <Style>
      <ListStyle id="hideChildren">
        <listItemType>checkHideChildren</listItemType>
      </ListStyle>
    </Style>
    <Region>
      <LatLonAltBox>
        <north>45.40512084960938</north>
        <south>45.40374755859375</south>
        <east>-76.06658935546875</east>
        <west>-76.06796264648438</west>
      </LatLonAltBox>
      <Lod>
        <minLodPixels>128</minLodPixels>
        <maxLodPixels>2048</maxLodPixels>
      </Lod>
    </Region>
    <GroundOverlay>
      <drawOrder>36</drawOrder>
      <Icon>
        <href>98598.png</href>
      </Icon>
      <LatLonBox>
        <north>45.40512084960938</north>
        <south>45.40374755859375</south>
        <east>-76.06658935546875</east>
        <west>-76.06796264648438</west>
      </LatLonBox>
    </GroundOverlay>

    <NetworkLink>
      <name>19/151362/197197.png</name>
      <Region>
        <LatLonAltBox>
          <north>45.40512084960938</north>
          <south>45.40443420410156</south>
          <east>-76.06727600097656</east>
          <west>-76.06796264648438</west>
        </LatLonAltBox>
        <Lod>
          <minLodPixels>128</minLodPixels>
          <maxLodPixels>-1</maxLodPixels>
        </Lod>
      </Region>
      <Link>
        <href>https://swmoran.github.io/ch-tiles/tiles/DRAPE_Tiles/19/151362/197197.kml</href>
        <viewRefreshMode>onRegion</viewRefreshMode>
        <viewFormat/>
      </Link>
    </NetworkLink>
        
    <NetworkLink>
      <name>19/151363/197197.png</name>
      <Region>
        <LatLonAltBox>
          <north>45.40512084960938</north>
          <south>45.40443420410156</south>
          <east>-76.06658935546875</east>
          <west>-76.06727600097656</west>
        </LatLonAltBox>
        <Lod>
          <minLodPixels>128</minLodPixels>
          <maxLodPixels>-1</maxLodPixels>
        </Lod>
      </Region>
      <Link>
        <href>https://swmoran.github.io/ch-tiles/tiles/DRAPE_Tiles/19/151363/197197.kml</href>
        <viewRefreshMode>onRegion</viewRefreshMode>
        <viewFormat/>
      </Link>
    </NetworkLink>
        
    <NetworkLink>
      <name>19/151362/197196.png</name>
      <Region>
        <LatLonAltBox>
          <north>45.40443420410156</north>
          <south>45.40374755859375</south>
          <east>-76.06727600097656</east>
          <west>-76.06796264648438</west>
        </LatLonAltBox>
        <Lod>
          <minLodPixels>128</minLodPixels>
          <maxLodPixels>-1</maxLodPixels>
        </Lod>
      </Region>
      <Link>
        <href>https://swmoran.github.io/ch-tiles/tiles/DRAPE_Tiles/19/151362/197196.kml</href>
        <viewRefreshMode>onRegion</viewRefreshMode>
        <viewFormat/>
      </Link>
    </NetworkLink>
        
    <NetworkLink>
      <name>19/151363/197196.png</name>
      <Region>
        <LatLonAltBox>
          <north>45.40443420410156</north>
          <south>45.40374755859375</south>
          <east>-76.06658935546875</east>
          <west>-76.06727600097656</west>
        </LatLonAltBox>
        <Lod>
          <minLodPixels>128</minLodPixels>
          <maxLodPixels>-1</maxLodPixels>
        </Lod>
      </Region>
      <Link>
        <href>https://swmoran.github.io/ch-tiles/tiles/DRAPE_Tiles/19/151363/197196.kml</href>
        <viewRefreshMode>onRegion</viewRefreshMode>
        <viewFormat/>
      </Link>
    </NetworkLink>
              </Document>
</kml>
    