<?xml version="1.0" encoding="utf-8"?>
<kml xmlns="http://www.opengis.net/kml/2.2">
  <Document>
    <name>18/75654/168222.kml</name>
    <description></description>
    <Style>
      <ListStyle id="hideChildren">
        <listItemType>checkHideChildren</listItemType>
      </ListStyle>
    </Style>
    <Region>
      <LatLonAltBox>
        <north>45.36661954708626</north>
        <south>45.36565470886627</south>
        <east>-76.10366821289062</east>
        <west>-76.10504150390625</west>
      </LatLonAltBox>
      <Lod>
        <minLodPixels>128</minLodPixels>
        <maxLodPixels>2048</maxLodPixels>
      </Lod>
    </Region>
    <GroundOverlay>
      <drawOrder>36</drawOrder>
      <Icon>
        <href>168222.png</href>
      </Icon>
      <LatLonBox>
        <north>45.36661954708626</north>
        <south>45.36565470886627</south>
        <east>-76.10366821289062</east>
        <west>-76.10504150390625</west>
      </LatLonBox>
    </GroundOverlay>

    <NetworkLink>
      <name>19/151308/336445.png</name>
      <Region>
        <LatLonAltBox>
          <north>45.36661954708626</north>
          <south>45.36613713003334</south>
          <east>-76.10435485839844</east>
          <west>-76.10504150390625</west>
        </LatLonAltBox>
        <Lod>
          <minLodPixels>128</minLodPixels>
          <maxLodPixels>-1</maxLodPixels>
        </Lod>
      </Region>
      <Link>
        <href>../../19/151308/336445.kml</href>
        <viewRefreshMode>onRegion</viewRefreshMode>
        <viewFormat/>
      </Link>
    </NetworkLink>
        
    <NetworkLink>
      <name>19/151309/336445.png</name>
      <Region>
        <LatLonAltBox>
          <north>45.36661954708626</north>
          <south>45.36613713003334</south>
          <east>-76.10366821289062</east>
          <west>-76.10435485839844</west>
        </LatLonAltBox>
        <Lod>
          <minLodPixels>128</minLodPixels>
          <maxLodPixels>-1</maxLodPixels>
        </Lod>
      </Region>
      <Link>
        <href>../../19/151309/336445.kml</href>
        <viewRefreshMode>onRegion</viewRefreshMode>
        <viewFormat/>
      </Link>
    </NetworkLink>
        
    <NetworkLink>
      <name>19/151308/336444.png</name>
      <Region>
        <LatLonAltBox>
          <north>45.36613713003334</north>
          <south>45.36565470886627</south>
          <east>-76.10435485839844</east>
          <west>-76.10504150390625</west>
        </LatLonAltBox>
        <Lod>
          <minLodPixels>128</minLodPixels>
          <maxLodPixels>-1</maxLodPixels>
        </Lod>
      </Region>
      <Link>
        <href>../../19/151308/336444.kml</href>
        <viewRefreshMode>onRegion</viewRefreshMode>
        <viewFormat/>
      </Link>
    </NetworkLink>
        
    <NetworkLink>
      <name>19/151309/336444.png</name>
      <Region>
        <LatLonAltBox>
          <north>45.36613713003334</north>
          <south>45.36565470886627</south>
          <east>-76.10366821289062</east>
          <west>-76.10435485839844</west>
        </LatLonAltBox>
        <Lod>
          <minLodPixels>128</minLodPixels>
          <maxLodPixels>-1</maxLodPixels>
        </Lod>
      </Region>
      <Link>
        <href>../../19/151309/336444.kml</href>
        <viewRefreshMode>onRegion</viewRefreshMode>
        <viewFormat/>
      </Link>
    </NetworkLink>
              </Document>
</kml>
    