<?xml version="1.0" encoding="utf-8"?>
<kml xmlns="http://www.opengis.net/kml/2.2">
  <Document>
    <name>18/75664/168248.kml</name>
    <description></description>
    <Style>
      <ListStyle id="hideChildren">
        <listItemType>checkHideChildren</listItemType>
      </ListStyle>
    </Style>
    <Region>
      <LatLonAltBox>
        <north>45.39169956460273</north>
        <south>45.39073515424887</south>
        <east>-76.08993530273438</east>
        <west>-76.09130859375000</west>
      </LatLonAltBox>
      <Lod>
        <minLodPixels>128</minLodPixels>
        <maxLodPixels>2048</maxLodPixels>
      </Lod>
    </Region>
    <GroundOverlay>
      <drawOrder>36</drawOrder>
      <Icon>
        <href>168248.png</href>
      </Icon>
      <LatLonBox>
        <north>45.39169956460273</north>
        <south>45.39073515424887</south>
        <east>-76.08993530273438</east>
        <west>-76.09130859375000</west>
      </LatLonBox>
    </GroundOverlay>

    <NetworkLink>
      <name>19/151328/336497.png</name>
      <Region>
        <LatLonAltBox>
          <north>45.39169956460273</north>
          <south>45.39121736148284</south>
          <east>-76.09062194824219</east>
          <west>-76.09130859375000</west>
        </LatLonAltBox>
        <Lod>
          <minLodPixels>128</minLodPixels>
          <maxLodPixels>-1</maxLodPixels>
        </Lod>
      </Region>
      <Link>
        <href>../../19/151328/336497.kml</href>
        <viewRefreshMode>onRegion</viewRefreshMode>
        <viewFormat/>
      </Link>
    </NetworkLink>
        
    <NetworkLink>
      <name>19/151329/336497.png</name>
      <Region>
        <LatLonAltBox>
          <north>45.39169956460273</north>
          <south>45.39121736148284</south>
          <east>-76.08993530273438</east>
          <west>-76.09062194824219</west>
        </LatLonAltBox>
        <Lod>
          <minLodPixels>128</minLodPixels>
          <maxLodPixels>-1</maxLodPixels>
        </Lod>
      </Region>
      <Link>
        <href>../../19/151329/336497.kml</href>
        <viewRefreshMode>onRegion</viewRefreshMode>
        <viewFormat/>
      </Link>
    </NetworkLink>
        
    <NetworkLink>
      <name>19/151328/336496.png</name>
      <Region>
        <LatLonAltBox>
          <north>45.39121736148284</north>
          <south>45.39073515424887</south>
          <east>-76.09062194824219</east>
          <west>-76.09130859375000</west>
        </LatLonAltBox>
        <Lod>
          <minLodPixels>128</minLodPixels>
          <maxLodPixels>-1</maxLodPixels>
        </Lod>
      </Region>
      <Link>
        <href>../../19/151328/336496.kml</href>
        <viewRefreshMode>onRegion</viewRefreshMode>
        <viewFormat/>
      </Link>
    </NetworkLink>
        
    <NetworkLink>
      <name>19/151329/336496.png</name>
      <Region>
        <LatLonAltBox>
          <north>45.39121736148284</north>
          <south>45.39073515424887</south>
          <east>-76.08993530273438</east>
          <west>-76.09062194824219</west>
        </LatLonAltBox>
        <Lod>
          <minLodPixels>128</minLodPixels>
          <maxLodPixels>-1</maxLodPixels>
        </Lod>
      </Region>
      <Link>
        <href>../../19/151329/336496.kml</href>
        <viewRefreshMode>onRegion</viewRefreshMode>
        <viewFormat/>
      </Link>
    </NetworkLink>
              </Document>
</kml>
    