<?xml version="1.0" encoding="utf-8"?>
<kml xmlns="http://www.opengis.net/kml/2.2">
  <Document>
    <name>18/75663/98596.kml</name>
    <description></description>
    <Style>
      <ListStyle id="hideChildren">
        <listItemType>checkHideChildren</listItemType>
      </ListStyle>
    </Style>
    <Region>
      <LatLonAltBox>
        <north>45.40237426757812</north>
        <south>45.40100097656250</south>
        <east>-76.09130859375000</east>
        <west>-76.09268188476562</west>
      </LatLonAltBox>
      <Lod>
        <minLodPixels>128</minLodPixels>
        <maxLodPixels>2048</maxLodPixels>
      </Lod>
    </Region>
    <GroundOverlay>
      <drawOrder>36</drawOrder>
      <Icon>
        <href>98596.png</href>
      </Icon>
      <LatLonBox>
        <north>45.40237426757812</north>
        <south>45.40100097656250</south>
        <east>-76.09130859375000</east>
        <west>-76.09268188476562</west>
      </LatLonBox>
    </GroundOverlay>

    <NetworkLink>
      <name>19/151326/197193.png</name>
      <Region>
        <LatLonAltBox>
          <north>45.40237426757812</north>
          <south>45.40168762207031</south>
          <east>-76.09199523925781</east>
          <west>-76.09268188476562</west>
        </LatLonAltBox>
        <Lod>
          <minLodPixels>128</minLodPixels>
          <maxLodPixels>-1</maxLodPixels>
        </Lod>
      </Region>
      <Link>
        <href>../../19/151326/197193.kml</href>
        <viewRefreshMode>onRegion</viewRefreshMode>
        <viewFormat/>
      </Link>
    </NetworkLink>
        
    <NetworkLink>
      <name>19/151327/197193.png</name>
      <Region>
        <LatLonAltBox>
          <north>45.40237426757812</north>
          <south>45.40168762207031</south>
          <east>-76.09130859375000</east>
          <west>-76.09199523925781</west>
        </LatLonAltBox>
        <Lod>
          <minLodPixels>128</minLodPixels>
          <maxLodPixels>-1</maxLodPixels>
        </Lod>
      </Region>
      <Link>
        <href>../../19/151327/197193.kml</href>
        <viewRefreshMode>onRegion</viewRefreshMode>
        <viewFormat/>
      </Link>
    </NetworkLink>
        
    <NetworkLink>
      <name>19/151326/197192.png</name>
      <Region>
        <LatLonAltBox>
          <north>45.40168762207031</north>
          <south>45.40100097656250</south>
          <east>-76.09199523925781</east>
          <west>-76.09268188476562</west>
        </LatLonAltBox>
        <Lod>
          <minLodPixels>128</minLodPixels>
          <maxLodPixels>-1</maxLodPixels>
        </Lod>
      </Region>
      <Link>
        <href>../../19/151326/197192.kml</href>
        <viewRefreshMode>onRegion</viewRefreshMode>
        <viewFormat/>
      </Link>
    </NetworkLink>
        
    <NetworkLink>
      <name>19/151327/197192.png</name>
      <Region>
        <LatLonAltBox>
          <north>45.40168762207031</north>
          <south>45.40100097656250</south>
          <east>-76.09130859375000</east>
          <west>-76.09199523925781</west>
        </LatLonAltBox>
        <Lod>
          <minLodPixels>128</minLodPixels>
          <maxLodPixels>-1</maxLodPixels>
        </Lod>
      </Region>
      <Link>
        <href>../../19/151327/197192.kml</href>
        <viewRefreshMode>onRegion</viewRefreshMode>
        <viewFormat/>
      </Link>
    </NetworkLink>
              </Document>
</kml>
    