<?xml version="1.0" encoding="utf-8"?>
<kml xmlns="http://www.opengis.net/kml/2.2">
  <Document>
    <name>16/18918/42054.kml</name>
    <description></description>
    <Style>
      <ListStyle id="hideChildren">
        <listItemType>checkHideChildren</listItemType>
      </ListStyle>
    </Style>
    <Region>
      <LatLonAltBox>
        <north>45.36372498305681</north>
        <south>45.35986533395975</south>
        <east>-76.07482910156251</east>
        <west>-76.08032226562500</west>
      </LatLonAltBox>
      <Lod>
        <minLodPixels>128</minLodPixels>
        <maxLodPixels>2048</maxLodPixels>
      </Lod>
    </Region>
    <GroundOverlay>
      <drawOrder>32</drawOrder>
      <Icon>
        <href>42054.png</href>
      </Icon>
      <LatLonBox>
        <north>45.36372498305681</north>
        <south>45.35986533395975</south>
        <east>-76.07482910156251</east>
        <west>-76.08032226562500</west>
      </LatLonBox>
    </GroundOverlay>

    <NetworkLink>
      <name>17/37836/84109.png</name>
      <Region>
        <LatLonAltBox>
          <north>45.36372498305681</north>
          <south>45.36179519142128</south>
          <east>-76.07757568359376</east>
          <west>-76.08032226562500</west>
        </LatLonAltBox>
        <Lod>
          <minLodPixels>128</minLodPixels>
          <maxLodPixels>-1</maxLodPixels>
        </Lod>
      </Region>
      <Link>
        <href>../../17/37836/84109.kml</href>
        <viewRefreshMode>onRegion</viewRefreshMode>
        <viewFormat/>
      </Link>
    </NetworkLink>
        
    <NetworkLink>
      <name>17/37837/84109.png</name>
      <Region>
        <LatLonAltBox>
          <north>45.36372498305681</north>
          <south>45.36179519142128</south>
          <east>-76.07482910156251</east>
          <west>-76.07757568359376</west>
        </LatLonAltBox>
        <Lod>
          <minLodPixels>128</minLodPixels>
          <maxLodPixels>-1</maxLodPixels>
        </Lod>
      </Region>
      <Link>
        <href>../../17/37837/84109.kml</href>
        <viewRefreshMode>onRegion</viewRefreshMode>
        <viewFormat/>
      </Link>
    </NetworkLink>
        
    <NetworkLink>
      <name>17/37836/84108.png</name>
      <Region>
        <LatLonAltBox>
          <north>45.36179519142128</north>
          <south>45.35986533395975</south>
          <east>-76.07757568359376</east>
          <west>-76.08032226562500</west>
        </LatLonAltBox>
        <Lod>
          <minLodPixels>128</minLodPixels>
          <maxLodPixels>-1</maxLodPixels>
        </Lod>
      </Region>
      <Link>
        <href>../../17/37836/84108.kml</href>
        <viewRefreshMode>onRegion</viewRefreshMode>
        <viewFormat/>
      </Link>
    </NetworkLink>
        
    <NetworkLink>
      <name>17/37837/84108.png</name>
      <Region>
        <LatLonAltBox>
          <north>45.36179519142128</north>
          <south>45.35986533395975</south>
          <east>-76.07482910156251</east>
          <west>-76.07757568359376</west>
        </LatLonAltBox>
        <Lod>
          <minLodPixels>128</minLodPixels>
          <maxLodPixels>-1</maxLodPixels>
        </Lod>
      </Region>
      <Link>
        <href>../../17/37837/84108.kml</href>
        <viewRefreshMode>onRegion</viewRefreshMode>
        <viewFormat/>
      </Link>
    </NetworkLink>
              </Document>
</kml>
    