<?xml version="1.0" encoding="utf-8"?>
<kml xmlns="http://www.opengis.net/kml/2.2">
  <Document>
    <name>17/37837/49283.kml</name>
    <description></description>
    <Style>
      <ListStyle id="hideChildren">
        <listItemType>checkHideChildren</listItemType>
      </ListStyle>
    </Style>
    <Region>
      <LatLonAltBox>
        <north>45.36254882812500</north>
        <south>45.35980224609375</south>
        <east>-76.07482910156250</east>
        <west>-76.07757568359375</west>
      </LatLonAltBox>
      <Lod>
        <minLodPixels>128</minLodPixels>
        <maxLodPixels>2048</maxLodPixels>
      </Lod>
    </Region>
    <GroundOverlay>
      <drawOrder>34</drawOrder>
      <Icon>
        <href>49283.png</href>
      </Icon>
      <LatLonBox>
        <north>45.36254882812500</north>
        <south>45.35980224609375</south>
        <east>-76.07482910156250</east>
        <west>-76.07757568359375</west>
      </LatLonBox>
    </GroundOverlay>

    <NetworkLink>
      <name>18/75674/98567.png</name>
      <Region>
        <LatLonAltBox>
          <north>45.36254882812500</north>
          <south>45.36117553710938</south>
          <east>-76.07620239257812</east>
          <west>-76.07757568359375</west>
        </LatLonAltBox>
        <Lod>
          <minLodPixels>128</minLodPixels>
          <maxLodPixels>-1</maxLodPixels>
        </Lod>
      </Region>
      <Link>
        <href>../../18/75674/98567.kml</href>
        <viewRefreshMode>onRegion</viewRefreshMode>
        <viewFormat/>
      </Link>
    </NetworkLink>
        
    <NetworkLink>
      <name>18/75675/98567.png</name>
      <Region>
        <LatLonAltBox>
          <north>45.36254882812500</north>
          <south>45.36117553710938</south>
          <east>-76.07482910156250</east>
          <west>-76.07620239257812</west>
        </LatLonAltBox>
        <Lod>
          <minLodPixels>128</minLodPixels>
          <maxLodPixels>-1</maxLodPixels>
        </Lod>
      </Region>
      <Link>
        <href>../../18/75675/98567.kml</href>
        <viewRefreshMode>onRegion</viewRefreshMode>
        <viewFormat/>
      </Link>
    </NetworkLink>
        
    <NetworkLink>
      <name>18/75674/98566.png</name>
      <Region>
        <LatLonAltBox>
          <north>45.36117553710938</north>
          <south>45.35980224609375</south>
          <east>-76.07620239257812</east>
          <west>-76.07757568359375</west>
        </LatLonAltBox>
        <Lod>
          <minLodPixels>128</minLodPixels>
          <maxLodPixels>-1</maxLodPixels>
        </Lod>
      </Region>
      <Link>
        <href>../../18/75674/98566.kml</href>
        <viewRefreshMode>onRegion</viewRefreshMode>
        <viewFormat/>
      </Link>
    </NetworkLink>
        
    <NetworkLink>
      <name>18/75675/98566.png</name>
      <Region>
        <LatLonAltBox>
          <north>45.36117553710938</north>
          <south>45.35980224609375</south>
          <east>-76.07482910156250</east>
          <west>-76.07620239257812</west>
        </LatLonAltBox>
        <Lod>
          <minLodPixels>128</minLodPixels>
          <maxLodPixels>-1</maxLodPixels>
        </Lod>
      </Region>
      <Link>
        <href>../../18/75675/98566.kml</href>
        <viewRefreshMode>onRegion</viewRefreshMode>
        <viewFormat/>
      </Link>
    </NetworkLink>
              </Document>
</kml>
    