<?xml version="1.0" encoding="utf-8"?>
<kml xmlns="http://www.opengis.net/kml/2.2">
  <Document>
    <name>17/37837/84106.kml</name>
    <description></description>
    <Style>
      <ListStyle id="hideChildren">
        <listItemType>checkHideChildren</listItemType>
      </ListStyle>
    </Style>
    <Region>
      <LatLonAltBox>
        <north>45.35793541067206</north>
        <south>45.35600542155823</south>
        <east>-76.07482910156251</east>
        <west>-76.07757568359376</west>
      </LatLonAltBox>
      <Lod>
        <minLodPixels>128</minLodPixels>
        <maxLodPixels>2048</maxLodPixels>
      </Lod>
    </Region>
    <GroundOverlay>
      <drawOrder>34</drawOrder>
      <Icon>
        <href>84106.png</href>
      </Icon>
      <LatLonBox>
        <north>45.35793541067206</north>
        <south>45.35600542155823</south>
        <east>-76.07482910156251</east>
        <west>-76.07757568359376</west>
      </LatLonBox>
    </GroundOverlay>

    <NetworkLink>
      <name>18/75674/168213.png</name>
      <Region>
        <LatLonAltBox>
          <north>45.35793541067206</north>
          <south>45.35697042434340</south>
          <east>-76.07620239257814</east>
          <west>-76.07757568359376</west>
        </LatLonAltBox>
        <Lod>
          <minLodPixels>128</minLodPixels>
          <maxLodPixels>-1</maxLodPixels>
        </Lod>
      </Region>
      <Link>
        <href>../../18/75674/168213.kml</href>
        <viewRefreshMode>onRegion</viewRefreshMode>
        <viewFormat/>
      </Link>
    </NetworkLink>
        
    <NetworkLink>
      <name>18/75675/168213.png</name>
      <Region>
        <LatLonAltBox>
          <north>45.35793541067206</north>
          <south>45.35697042434340</south>
          <east>-76.07482910156251</east>
          <west>-76.07620239257814</west>
        </LatLonAltBox>
        <Lod>
          <minLodPixels>128</minLodPixels>
          <maxLodPixels>-1</maxLodPixels>
        </Lod>
      </Region>
      <Link>
        <href>../../18/75675/168213.kml</href>
        <viewRefreshMode>onRegion</viewRefreshMode>
        <viewFormat/>
      </Link>
    </NetworkLink>
        
    <NetworkLink>
      <name>18/75674/168212.png</name>
      <Region>
        <LatLonAltBox>
          <north>45.35697042434340</north>
          <south>45.35600542155823</south>
          <east>-76.07620239257814</east>
          <west>-76.07757568359376</west>
        </LatLonAltBox>
        <Lod>
          <minLodPixels>128</minLodPixels>
          <maxLodPixels>-1</maxLodPixels>
        </Lod>
      </Region>
      <Link>
        <href>../../18/75674/168212.kml</href>
        <viewRefreshMode>onRegion</viewRefreshMode>
        <viewFormat/>
      </Link>
    </NetworkLink>
        
    <NetworkLink>
      <name>18/75675/168212.png</name>
      <Region>
        <LatLonAltBox>
          <north>45.35697042434340</north>
          <south>45.35600542155823</south>
          <east>-76.07482910156251</east>
          <west>-76.07620239257814</west>
        </LatLonAltBox>
        <Lod>
          <minLodPixels>128</minLodPixels>
          <maxLodPixels>-1</maxLodPixels>
        </Lod>
      </Region>
      <Link>
        <href>../../18/75675/168212.kml</href>
        <viewRefreshMode>onRegion</viewRefreshMode>
        <viewFormat/>
      </Link>
    </NetworkLink>
              </Document>
</kml>
    