<?xml version="1.0" encoding="utf-8"?>
<kml xmlns="http://www.opengis.net/kml/2.2">
  <Document>
    <name>17/37837/84122.kml</name>
    <description></description>
    <Style>
      <ListStyle id="hideChildren">
        <listItemType>checkHideChildren</listItemType>
      </ListStyle>
    </Style>
    <Region>
      <LatLonAltBox>
        <north>45.38880628417227</north>
        <south>45.38687734827037</south>
        <east>-76.07482910156251</east>
        <west>-76.07757568359376</west>
      </LatLonAltBox>
      <Lod>
        <minLodPixels>128</minLodPixels>
        <maxLodPixels>2048</maxLodPixels>
      </Lod>
    </Region>
    <GroundOverlay>
      <drawOrder>34</drawOrder>
      <Icon>
        <href>84122.png</href>
      </Icon>
      <LatLonBox>
        <north>45.38880628417227</north>
        <south>45.38687734827037</south>
        <east>-76.07482910156251</east>
        <west>-76.07757568359376</west>
      </LatLonBox>
    </GroundOverlay>

    <NetworkLink>
      <name>18/75674/168245.png</name>
      <Region>
        <LatLonAltBox>
          <north>45.38880628417227</north>
          <south>45.38784182444948</south>
          <east>-76.07620239257814</east>
          <west>-76.07757568359376</west>
        </LatLonAltBox>
        <Lod>
          <minLodPixels>128</minLodPixels>
          <maxLodPixels>-1</maxLodPixels>
        </Lod>
      </Region>
      <Link>
        <href>../../18/75674/168245.kml</href>
        <viewRefreshMode>onRegion</viewRefreshMode>
        <viewFormat/>
      </Link>
    </NetworkLink>
        
    <NetworkLink>
      <name>18/75675/168245.png</name>
      <Region>
        <LatLonAltBox>
          <north>45.38880628417227</north>
          <south>45.38784182444948</south>
          <east>-76.07482910156251</east>
          <west>-76.07620239257814</west>
        </LatLonAltBox>
        <Lod>
          <minLodPixels>128</minLodPixels>
          <maxLodPixels>-1</maxLodPixels>
        </Lod>
      </Region>
      <Link>
        <href>../../18/75675/168245.kml</href>
        <viewRefreshMode>onRegion</viewRefreshMode>
        <viewFormat/>
      </Link>
    </NetworkLink>
        
    <NetworkLink>
      <name>18/75674/168244.png</name>
      <Region>
        <LatLonAltBox>
          <north>45.38784182444948</north>
          <south>45.38687734827037</south>
          <east>-76.07620239257814</east>
          <west>-76.07757568359376</west>
        </LatLonAltBox>
        <Lod>
          <minLodPixels>128</minLodPixels>
          <maxLodPixels>-1</maxLodPixels>
        </Lod>
      </Region>
      <Link>
        <href>../../18/75674/168244.kml</href>
        <viewRefreshMode>onRegion</viewRefreshMode>
        <viewFormat/>
      </Link>
    </NetworkLink>
        
    <NetworkLink>
      <name>18/75675/168244.png</name>
      <Region>
        <LatLonAltBox>
          <north>45.38784182444948</north>
          <south>45.38687734827037</south>
          <east>-76.07482910156251</east>
          <west>-76.07620239257814</west>
        </LatLonAltBox>
        <Lod>
          <minLodPixels>128</minLodPixels>
          <maxLodPixels>-1</maxLodPixels>
        </Lod>
      </Region>
      <Link>
        <href>../../18/75675/168244.kml</href>
        <viewRefreshMode>onRegion</viewRefreshMode>
        <viewFormat/>
      </Link>
    </NetworkLink>
              </Document>
</kml>
    