<?xml version="1.0" encoding="utf-8"?>
<kml xmlns="http://www.opengis.net/kml/2.2">
  <Document>
    <name>17/37835/84113.kml</name>
    <description></description>
    <Style>
      <ListStyle id="hideChildren">
        <listItemType>checkHideChildren</listItemType>
      </ListStyle>
    </Style>
    <Region>
      <LatLonAltBox>
        <north>45.37144349133922</north>
        <south>45.36951396300744</south>
        <east>-76.08032226562500</east>
        <west>-76.08306884765625</west>
      </LatLonAltBox>
      <Lod>
        <minLodPixels>128</minLodPixels>
        <maxLodPixels>2048</maxLodPixels>
      </Lod>
    </Region>
    <GroundOverlay>
      <drawOrder>34</drawOrder>
      <Icon>
        <href>84113.png</href>
      </Icon>
      <LatLonBox>
        <north>45.37144349133922</north>
        <south>45.36951396300744</south>
        <east>-76.08032226562500</east>
        <west>-76.08306884765625</west>
      </LatLonBox>
    </GroundOverlay>

    <NetworkLink>
      <name>18/75670/168227.png</name>
      <Region>
        <LatLonAltBox>
          <north>45.37144349133922</north>
          <south>45.37047873540156</south>
          <east>-76.08169555664062</east>
          <west>-76.08306884765625</west>
        </LatLonAltBox>
        <Lod>
          <minLodPixels>128</minLodPixels>
          <maxLodPixels>-1</maxLodPixels>
        </Lod>
      </Region>
      <Link>
        <href>../../18/75670/168227.kml</href>
        <viewRefreshMode>onRegion</viewRefreshMode>
        <viewFormat/>
      </Link>
    </NetworkLink>
        
    <NetworkLink>
      <name>18/75671/168227.png</name>
      <Region>
        <LatLonAltBox>
          <north>45.37144349133922</north>
          <south>45.37047873540156</south>
          <east>-76.08032226562500</east>
          <west>-76.08169555664062</west>
        </LatLonAltBox>
        <Lod>
          <minLodPixels>128</minLodPixels>
          <maxLodPixels>-1</maxLodPixels>
        </Lod>
      </Region>
      <Link>
        <href>../../18/75671/168227.kml</href>
        <viewRefreshMode>onRegion</viewRefreshMode>
        <viewFormat/>
      </Link>
    </NetworkLink>
        
    <NetworkLink>
      <name>18/75670/168226.png</name>
      <Region>
        <LatLonAltBox>
          <north>45.37047873540156</north>
          <south>45.36951396300744</south>
          <east>-76.08169555664062</east>
          <west>-76.08306884765625</west>
        </LatLonAltBox>
        <Lod>
          <minLodPixels>128</minLodPixels>
          <maxLodPixels>-1</maxLodPixels>
        </Lod>
      </Region>
      <Link>
        <href>../../18/75670/168226.kml</href>
        <viewRefreshMode>onRegion</viewRefreshMode>
        <viewFormat/>
      </Link>
    </NetworkLink>
        
    <NetworkLink>
      <name>18/75671/168226.png</name>
      <Region>
        <LatLonAltBox>
          <north>45.37047873540156</north>
          <south>45.36951396300744</south>
          <east>-76.08032226562500</east>
          <west>-76.08169555664062</west>
        </LatLonAltBox>
        <Lod>
          <minLodPixels>128</minLodPixels>
          <maxLodPixels>-1</maxLodPixels>
        </Lod>
      </Region>
      <Link>
        <href>../../18/75671/168226.kml</href>
        <viewRefreshMode>onRegion</viewRefreshMode>
        <viewFormat/>
      </Link>
    </NetworkLink>
              </Document>
</kml>
    