<?xml version="1.0" encoding="utf-8"?>
<kml xmlns="http://www.opengis.net/kml/2.2">
  <Document>
    <name>19/151351/197159.kml</name>
    <description></description>
    <Style>
      <ListStyle id="hideChildren">
        <listItemType>checkHideChildren</listItemType>
      </ListStyle>
    </Style>
    <Region>
      <LatLonAltBox>
        <north>45.37902832031250</north>
        <south>45.37834167480469</south>
        <east>-76.07482910156250</east>
        <west>-76.07551574707031</west>
      </LatLonAltBox>
      <Lod>
        <minLodPixels>128</minLodPixels>
        <maxLodPixels>-1</maxLodPixels>
      </Lod>
    </Region>
    <GroundOverlay>
      <drawOrder>38</drawOrder>
      <Icon>
        <href>197159.png</href>
      </Icon>
      <LatLonBox>
        <north>45.37902832031250</north>
        <south>45.37834167480469</south>
        <east>-76.07482910156250</east>
        <west>-76.07551574707031</west>
      </LatLonBox>
    </GroundOverlay>
      </Document>
</kml>
    