<?xml version="1.0" encoding="utf-8"?>
<kml xmlns="http://www.opengis.net/kml/2.2">
  <Document>
    <name>19/151387/197140.kml</name>
    <description></description>
    <Style>
      <ListStyle id="hideChildren">
        <listItemType>checkHideChildren</listItemType>
      </ListStyle>
    </Style>
    <Region>
      <LatLonAltBox>
        <north>45.36598205566406</north>
        <south>45.36529541015625</south>
        <east>-76.05010986328125</east>
        <west>-76.05079650878906</west>
      </LatLonAltBox>
      <Lod>
        <minLodPixels>128</minLodPixels>
        <maxLodPixels>-1</maxLodPixels>
      </Lod>
    </Region>
    <GroundOverlay>
      <drawOrder>38</drawOrder>
      <Icon>
        <href>197140.png</href>
      </Icon>
      <LatLonBox>
        <north>45.36598205566406</north>
        <south>45.36529541015625</south>
        <east>-76.05010986328125</east>
        <west>-76.05079650878906</west>
      </LatLonBox>
    </GroundOverlay>
      </Document>
</kml>
    