<?xml version="1.0" encoding="utf-8"?>
<kml xmlns="http://www.opengis.net/kml/2.2">
  <Document>
    <name>CarpHills_DRAPE_Img_WGS.tif</name>
    <description></description>
    <Style>
      <ListStyle id="hideChildren">
        <listItemType>checkHideChildren</listItemType>
      </ListStyle>
    </Style>
    <NetworkLink>
      <name>11/591/1314.png</name>
      <Region>
        <LatLonAltBox>
          <north>45.46013063792100</north>
          <south>45.33670190996813</south>
          <east>-75.93750000000000</east>
          <west>-76.11328124999999</west>
        </LatLonAltBox>
        <Lod>
          <minLodPixels>128</minLodPixels>
          <maxLodPixels>-1</maxLodPixels>
        </Lod>
      </Region>
      <Link>
        <href>11/591/1314.kml</href>
        <viewRefreshMode>onRegion</viewRefreshMode>
        <viewFormat/>
      </Link>
    </NetworkLink>
              </Document>
</kml>
    