<?xml version="1.0" encoding="utf-8"?>
<kml xmlns="http://www.opengis.net/kml/2.2">
  <Document>
    <name>19/151427/197163.kml</name>
    <description></description>
    <Style>
      <ListStyle id="hideChildren">
        <listItemType>checkHideChildren</listItemType>
      </ListStyle>
    </Style>
    <Region>
      <LatLonAltBox>
        <north>45.38177490234375</north>
        <south>45.38108825683594</south>
        <east>-76.02264404296875</east>
        <west>-76.02333068847656</west>
      </LatLonAltBox>
      <Lod>
        <minLodPixels>128</minLodPixels>
        <maxLodPixels>-1</maxLodPixels>
      </Lod>
    </Region>
    <GroundOverlay>
      <drawOrder>38</drawOrder>
      <Icon>
        <href>197163.png</href>
      </Icon>
      <LatLonBox>
        <north>45.38177490234375</north>
        <south>45.38108825683594</south>
        <east>-76.02264404296875</east>
        <west>-76.02333068847656</west>
      </LatLonBox>
    </GroundOverlay>
      </Document>
</kml>
    