<?xml version="1.0" encoding="utf-8"?>
<kml xmlns="http://www.opengis.net/kml/2.2">
  <Document>
    <name>18/75662/163580.kml</name>
    <description></description>
    <Style>
      <ListStyle id="hideChildren">
        <listItemType>checkHideChildren</listItemType>
      </ListStyle>
    </Style>
    <Region>
      <LatLonAltBox>
        <north>45.35705566406250</north>
        <south>45.35568237304688</south>
        <east>-76.09268188476562</east>
        <west>-76.09405517578125</west>
      </LatLonAltBox>
      <Lod>
        <minLodPixels>128</minLodPixels>
        <maxLodPixels>2048</maxLodPixels>
      </Lod>
    </Region>
    <GroundOverlay>
      <drawOrder>36</drawOrder>
      <Icon>
        <href>163580.png</href>
      </Icon>
      <LatLonBox>
        <north>45.35705566406250</north>
        <south>45.35568237304688</south>
        <east>-76.09268188476562</east>
        <west>-76.09405517578125</west>
      </LatLonBox>
    </GroundOverlay>

    <NetworkLink>
      <name>19/151324/327160.png</name>
      <Region>
        <LatLonAltBox>
          <north>45.35705566406250</north>
          <south>45.35636901855469</south>
          <east>-76.09336853027344</east>
          <west>-76.09405517578125</west>
        </LatLonAltBox>
        <Lod>
          <minLodPixels>128</minLodPixels>
          <maxLodPixels>-1</maxLodPixels>
        </Lod>
      </Region>
      <Link>
        <href>../../19/151324/327160.kml</href>
        <viewRefreshMode>onRegion</viewRefreshMode>
        <viewFormat/>
      </Link>
    </NetworkLink>
        
    <NetworkLink>
      <name>19/151325/327160.png</name>
      <Region>
        <LatLonAltBox>
          <north>45.35705566406250</north>
          <south>45.35636901855469</south>
          <east>-76.09268188476562</east>
          <west>-76.09336853027344</west>
        </LatLonAltBox>
        <Lod>
          <minLodPixels>128</minLodPixels>
          <maxLodPixels>-1</maxLodPixels>
        </Lod>
      </Region>
      <Link>
        <href>../../19/151325/327160.kml</href>
        <viewRefreshMode>onRegion</viewRefreshMode>
        <viewFormat/>
      </Link>
    </NetworkLink>
        
    <NetworkLink>
      <name>19/151324/327161.png</name>
      <Region>
        <LatLonAltBox>
          <north>45.35636901855469</north>
          <south>45.35568237304688</south>
          <east>-76.09336853027344</east>
          <west>-76.09405517578125</west>
        </LatLonAltBox>
        <Lod>
          <minLodPixels>128</minLodPixels>
          <maxLodPixels>-1</maxLodPixels>
        </Lod>
      </Region>
      <Link>
        <href>../../19/151324/327161.kml</href>
        <viewRefreshMode>onRegion</viewRefreshMode>
        <viewFormat/>
      </Link>
    </NetworkLink>
        
    <NetworkLink>
      <name>19/151325/327161.png</name>
      <Region>
        <LatLonAltBox>
          <north>45.35636901855469</north>
          <south>45.35568237304688</south>
          <east>-76.09268188476562</east>
          <west>-76.09336853027344</west>
        </LatLonAltBox>
        <Lod>
          <minLodPixels>128</minLodPixels>
          <maxLodPixels>-1</maxLodPixels>
        </Lod>
      </Region>
      <Link>
        <href>../../19/151325/327161.kml</href>
        <viewRefreshMode>onRegion</viewRefreshMode>
        <viewFormat/>
      </Link>
    </NetworkLink>
              </Document>
</kml>
    