<?xml version="1.0" encoding="utf-8"?>
<kml xmlns="http://www.opengis.net/kml/2.2">
  <Document>
    <name>18/75674/168211.kml</name>
    <description></description>
    <Style>
      <ListStyle id="hideChildren">
        <listItemType>checkHideChildren</listItemType>
      </ListStyle>
    </Style>
    <Region>
      <LatLonAltBox>
        <north>45.35600542155823</north>
        <south>45.35504040231646</south>
        <east>-76.07620239257814</east>
        <west>-76.07757568359376</west>
      </LatLonAltBox>
      <Lod>
        <minLodPixels>128</minLodPixels>
        <maxLodPixels>2048</maxLodPixels>
      </Lod>
    </Region>
    <GroundOverlay>
      <drawOrder>36</drawOrder>
      <Icon>
        <href>168211.png</href>
      </Icon>
      <LatLonBox>
        <north>45.35600542155823</north>
        <south>45.35504040231646</south>
        <east>-76.07620239257814</east>
        <west>-76.07757568359376</west>
      </LatLonBox>
    </GroundOverlay>

    <NetworkLink>
      <name>19/151348/336423.png</name>
      <Region>
        <LatLonAltBox>
          <north>45.35600542155823</north>
          <south>45.35552291399440</south>
          <east>-76.07688903808595</east>
          <west>-76.07757568359376</west>
        </LatLonAltBox>
        <Lod>
          <minLodPixels>128</minLodPixels>
          <maxLodPixels>-1</maxLodPixels>
        </Lod>
      </Region>
      <Link>
        <href>../../19/151348/336423.kml</href>
        <viewRefreshMode>onRegion</viewRefreshMode>
        <viewFormat/>
      </Link>
    </NetworkLink>
        
    <NetworkLink>
      <name>19/151349/336423.png</name>
      <Region>
        <LatLonAltBox>
          <north>45.35600542155823</north>
          <south>45.35552291399440</south>
          <east>-76.07620239257814</east>
          <west>-76.07688903808595</west>
        </LatLonAltBox>
        <Lod>
          <minLodPixels>128</minLodPixels>
          <maxLodPixels>-1</maxLodPixels>
        </Lod>
      </Region>
      <Link>
        <href>../../19/151349/336423.kml</href>
        <viewRefreshMode>onRegion</viewRefreshMode>
        <viewFormat/>
      </Link>
    </NetworkLink>
        
    <NetworkLink>
      <name>19/151348/336422.png</name>
      <Region>
        <LatLonAltBox>
          <north>45.35552291399440</north>
          <south>45.35504040231646</south>
          <east>-76.07688903808595</east>
          <west>-76.07757568359376</west>
        </LatLonAltBox>
        <Lod>
          <minLodPixels>128</minLodPixels>
          <maxLodPixels>-1</maxLodPixels>
        </Lod>
      </Region>
      <Link>
        <href>../../19/151348/336422.kml</href>
        <viewRefreshMode>onRegion</viewRefreshMode>
        <viewFormat/>
      </Link>
    </NetworkLink>
        
    <NetworkLink>
      <name>19/151349/336422.png</name>
      <Region>
        <LatLonAltBox>
          <north>45.35552291399440</north>
          <south>45.35504040231646</south>
          <east>-76.07620239257814</east>
          <west>-76.07688903808595</west>
        </LatLonAltBox>
        <Lod>
          <minLodPixels>128</minLodPixels>
          <maxLodPixels>-1</maxLodPixels>
        </Lod>
      </Region>
      <Link>
        <href>../../19/151349/336422.kml</href>
        <viewRefreshMode>onRegion</viewRefreshMode>
        <viewFormat/>
      </Link>
    </NetworkLink>
              </Document>
</kml>
    