<?xml version="1.0" encoding="utf-8"?>
<kml xmlns="http://www.opengis.net/kml/2.2">
  <Document>
    <name>19/151337/197148.kml</name>
    <description></description>
    <Style>
      <ListStyle id="hideChildren">
        <listItemType>checkHideChildren</listItemType>
      </ListStyle>
    </Style>
    <Region>
      <LatLonAltBox>
        <north>45.37147521972656</north>
        <south>45.37078857421875</south>
        <east>-76.08444213867188</east>
        <west>-76.08512878417969</west>
      </LatLonAltBox>
      <Lod>
        <minLodPixels>128</minLodPixels>
        <maxLodPixels>-1</maxLodPixels>
      </Lod>
    </Region>
    <GroundOverlay>
      <drawOrder>38</drawOrder>
      <Icon>
        <href>197148.png</href>
      </Icon>
      <LatLonBox>
        <north>45.37147521972656</north>
        <south>45.37078857421875</south>
        <east>-76.08444213867188</east>
        <west>-76.08512878417969</west>
      </LatLonBox>
    </GroundOverlay>
      </Document>
</kml>
    