<?xml version="1.0" encoding="utf-8"?>
<kml xmlns="http://www.opengis.net/kml/2.2">
  <Document>
    <name>19/151378/336477.kml</name>
    <description></description>
    <Style>
      <ListStyle id="hideChildren">
        <listItemType>checkHideChildren</listItemType>
      </ListStyle>
    </Style>
    <Region>
      <LatLonAltBox>
        <north>45.38205472052984</north>
        <south>45.38157243512828</south>
        <east>-76.05628967285158</east>
        <west>-76.05697631835939</west>
      </LatLonAltBox>
      <Lod>
        <minLodPixels>128</minLodPixels>
        <maxLodPixels>-1</maxLodPixels>
      </Lod>
    </Region>
    <GroundOverlay>
      <drawOrder>38</drawOrder>
      <Icon>
        <href>336477.png</href>
      </Icon>
      <LatLonBox>
        <north>45.38205472052984</north>
        <south>45.38157243512828</south>
        <east>-76.05628967285158</east>
        <west>-76.05697631835939</west>
      </LatLonBox>
    </GroundOverlay>
      </Document>
</kml>
    