<?xml version="1.0" encoding="utf-8"?>
<kml xmlns="http://www.opengis.net/kml/2.2">
  <Document>
    <name>15/9461/12320.kml</name>
    <description></description>
    <Style>
      <ListStyle id="hideChildren">
        <listItemType>checkHideChildren</listItemType>
      </ListStyle>
    </Style>
    <Region>
      <LatLonAltBox>
        <north>45.36254882812500</north>
        <south>45.35156250000000</south>
        <east>-76.04736328125000</east>
        <west>-76.05834960937500</west>
      </LatLonAltBox>
      <Lod>
        <minLodPixels>128</minLodPixels>
        <maxLodPixels>2048</maxLodPixels>
      </Lod>
    </Region>
    <GroundOverlay>
      <drawOrder>30</drawOrder>
      <Icon>
        <href>12320.png</href>
      </Icon>
      <LatLonBox>
        <north>45.36254882812500</north>
        <south>45.35156250000000</south>
        <east>-76.04736328125000</east>
        <west>-76.05834960937500</west>
      </LatLonBox>
    </GroundOverlay>

    <NetworkLink>
      <name>16/18922/24641.png</name>
      <Region>
        <LatLonAltBox>
          <north>45.36254882812500</north>
          <south>45.35705566406250</south>
          <east>-76.05285644531250</east>
          <west>-76.05834960937500</west>
        </LatLonAltBox>
        <Lod>
          <minLodPixels>128</minLodPixels>
          <maxLodPixels>-1</maxLodPixels>
        </Lod>
      </Region>
      <Link>
        <href>https://swmoran.github.io/ch-tiles/tiles_GE/tiles_GE/16/18922/24641.kml</href>
        <viewRefreshMode>onRegion</viewRefreshMode>
        <viewFormat/>
      </Link>
    </NetworkLink>
        
    <NetworkLink>
      <name>16/18923/24641.png</name>
      <Region>
        <LatLonAltBox>
          <north>45.36254882812500</north>
          <south>45.35705566406250</south>
          <east>-76.04736328125000</east>
          <west>-76.05285644531250</west>
        </LatLonAltBox>
        <Lod>
          <minLodPixels>128</minLodPixels>
          <maxLodPixels>-1</maxLodPixels>
        </Lod>
      </Region>
      <Link>
        <href>https://swmoran.github.io/ch-tiles/tiles_GE/tiles_GE/16/18923/24641.kml</href>
        <viewRefreshMode>onRegion</viewRefreshMode>
        <viewFormat/>
      </Link>
    </NetworkLink>
        
    <NetworkLink>
      <name>16/18922/24640.png</name>
      <Region>
        <LatLonAltBox>
          <north>45.35705566406250</north>
          <south>45.35156250000000</south>
          <east>-76.05285644531250</east>
          <west>-76.05834960937500</west>
        </LatLonAltBox>
        <Lod>
          <minLodPixels>128</minLodPixels>
          <maxLodPixels>-1</maxLodPixels>
        </Lod>
      </Region>
      <Link>
        <href>https://swmoran.github.io/ch-tiles/tiles_GE/tiles_GE/16/18922/24640.kml</href>
        <viewRefreshMode>onRegion</viewRefreshMode>
        <viewFormat/>
      </Link>
    </NetworkLink>
        
    <NetworkLink>
      <name>16/18923/24640.png</name>
      <Region>
        <LatLonAltBox>
          <north>45.35705566406250</north>
          <south>45.35156250000000</south>
          <east>-76.04736328125000</east>
          <west>-76.05285644531250</west>
        </LatLonAltBox>
        <Lod>
          <minLodPixels>128</minLodPixels>
          <maxLodPixels>-1</maxLodPixels>
        </Lod>
      </Region>
      <Link>
        <href>https://swmoran.github.io/ch-tiles/tiles_GE/tiles_GE/16/18923/24640.kml</href>
        <viewRefreshMode>onRegion</viewRefreshMode>
        <viewFormat/>
      </Link>
    </NetworkLink>
              </Document>
</kml>
    