<?xml version="1.0" encoding="utf-8"?>
<kml xmlns="http://www.opengis.net/kml/2.2">
  <Document>
    <name>19/151429/197145.kml</name>
    <description></description>
    <Style>
      <ListStyle id="hideChildren">
        <listItemType>checkHideChildren</listItemType>
      </ListStyle>
    </Style>
    <Region>
      <LatLonAltBox>
        <north>134.63127136230469</north>
        <south>134.63058471679688</south>
        <east>-76.02127075195312</east>
        <west>-76.02195739746094</west>
      </LatLonAltBox>
      <Lod>
        <minLodPixels>128</minLodPixels>
        <maxLodPixels>-1</maxLodPixels>
      </Lod>
    </Region>
    <GroundOverlay>
      <drawOrder>38</drawOrder>
      <Icon>
        <href>197145.png</href>
      </Icon>
      <LatLonBox>
        <north>134.63127136230469</north>
        <south>134.63058471679688</south>
        <east>-76.02127075195312</east>
        <west>-76.02195739746094</west>
      </LatLonBox>
    </GroundOverlay>
      </Document>
</kml>
    