<?xml version="1.0" encoding="utf-8"?>
<kml xmlns="http://www.opengis.net/kml/2.2">
  <Document>
    <name>19/151383/336475.kml</name>
    <description></description>
    <Style>
      <ListStyle id="hideChildren">
        <listItemType>checkHideChildren</listItemType>
      </ListStyle>
    </Style>
    <Region>
      <LatLonAltBox>
        <north>45.38109014561265</north>
        <south>45.38060785198293</south>
        <east>-76.05285644531249</east>
        <west>-76.05354309082033</west>
      </LatLonAltBox>
      <Lod>
        <minLodPixels>128</minLodPixels>
        <maxLodPixels>-1</maxLodPixels>
      </Lod>
    </Region>
    <GroundOverlay>
      <drawOrder>38</drawOrder>
      <Icon>
        <href>336475.png</href>
      </Icon>
      <LatLonBox>
        <north>45.38109014561265</north>
        <south>45.38060785198293</south>
        <east>-76.05285644531249</east>
        <west>-76.05354309082033</west>
      </LatLonBox>
    </GroundOverlay>
      </Document>
</kml>
    