<?xml version="1.0" encoding="utf-8"?>
<kml xmlns="http://www.opengis.net/kml/2.2">
  <Document>
    <name>16/18921/40889.kml</name>
    <description></description>
    <Style>
      <ListStyle id="hideChildren">
        <listItemType>checkHideChildren</listItemType>
      </ListStyle>
    </Style>
    <Region>
      <LatLonAltBox>
        <north>45.39001464843750</north>
        <south>45.38452148437500</south>
        <east>-76.05834960937500</east>
        <west>-76.06384277343750</west>
      </LatLonAltBox>
      <Lod>
        <minLodPixels>128</minLodPixels>
        <maxLodPixels>2048</maxLodPixels>
      </Lod>
    </Region>
    <GroundOverlay>
      <drawOrder>32</drawOrder>
      <Icon>
        <href>40889.png</href>
      </Icon>
      <LatLonBox>
        <north>45.39001464843750</north>
        <south>45.38452148437500</south>
        <east>-76.05834960937500</east>
        <west>-76.06384277343750</west>
      </LatLonBox>
    </GroundOverlay>

    <NetworkLink>
      <name>17/37842/81778.png</name>
      <Region>
        <LatLonAltBox>
          <north>45.39001464843750</north>
          <south>45.38726806640625</south>
          <east>-76.06109619140625</east>
          <west>-76.06384277343750</west>
        </LatLonAltBox>
        <Lod>
          <minLodPixels>128</minLodPixels>
          <maxLodPixels>-1</maxLodPixels>
        </Lod>
      </Region>
      <Link>
        <href>../../17/37842/81778.kml</href>
        <viewRefreshMode>onRegion</viewRefreshMode>
        <viewFormat/>
      </Link>
    </NetworkLink>
        
    <NetworkLink>
      <name>17/37843/81778.png</name>
      <Region>
        <LatLonAltBox>
          <north>45.39001464843750</north>
          <south>45.38726806640625</south>
          <east>-76.05834960937500</east>
          <west>-76.06109619140625</west>
        </LatLonAltBox>
        <Lod>
          <minLodPixels>128</minLodPixels>
          <maxLodPixels>-1</maxLodPixels>
        </Lod>
      </Region>
      <Link>
        <href>../../17/37843/81778.kml</href>
        <viewRefreshMode>onRegion</viewRefreshMode>
        <viewFormat/>
      </Link>
    </NetworkLink>
        
    <NetworkLink>
      <name>17/37842/81779.png</name>
      <Region>
        <LatLonAltBox>
          <north>45.38726806640625</north>
          <south>45.38452148437500</south>
          <east>-76.06109619140625</east>
          <west>-76.06384277343750</west>
        </LatLonAltBox>
        <Lod>
          <minLodPixels>128</minLodPixels>
          <maxLodPixels>-1</maxLodPixels>
        </Lod>
      </Region>
      <Link>
        <href>../../17/37842/81779.kml</href>
        <viewRefreshMode>onRegion</viewRefreshMode>
        <viewFormat/>
      </Link>
    </NetworkLink>
        
    <NetworkLink>
      <name>17/37843/81779.png</name>
      <Region>
        <LatLonAltBox>
          <north>45.38726806640625</north>
          <south>45.38452148437500</south>
          <east>-76.05834960937500</east>
          <west>-76.06109619140625</west>
        </LatLonAltBox>
        <Lod>
          <minLodPixels>128</minLodPixels>
          <maxLodPixels>-1</maxLodPixels>
        </Lod>
      </Region>
      <Link>
        <href>../../17/37843/81779.kml</href>
        <viewRefreshMode>onRegion</viewRefreshMode>
        <viewFormat/>
      </Link>
    </NetworkLink>
              </Document>
</kml>
    