<?xml version="1.0" encoding="utf-8"?>
<kml xmlns="http://www.opengis.net/kml/2.2">
  <Document>
    <name>15/9464/20446.kml</name>
    <description></description>
    <Style>
      <ListStyle id="hideChildren">
        <listItemType>checkHideChildren</listItemType>
      </ListStyle>
    </Style>
    <Region>
      <LatLonAltBox>
        <north>45.37353515625000</north>
        <south>45.36254882812500</south>
        <east>-76.01440429687500</east>
        <west>-76.02539062500000</west>
      </LatLonAltBox>
      <Lod>
        <minLodPixels>128</minLodPixels>
        <maxLodPixels>2048</maxLodPixels>
      </Lod>
    </Region>
    <GroundOverlay>
      <drawOrder>30</drawOrder>
      <Icon>
        <href>20446.png</href>
      </Icon>
      <LatLonBox>
        <north>45.37353515625000</north>
        <south>45.36254882812500</south>
        <east>-76.01440429687500</east>
        <west>-76.02539062500000</west>
      </LatLonBox>
    </GroundOverlay>

    <NetworkLink>
      <name>16/18928/40892.png</name>
      <Region>
        <LatLonAltBox>
          <north>45.37353515625000</north>
          <south>45.36804199218750</south>
          <east>-76.01989746093750</east>
          <west>-76.02539062500000</west>
        </LatLonAltBox>
        <Lod>
          <minLodPixels>128</minLodPixels>
          <maxLodPixels>-1</maxLodPixels>
        </Lod>
      </Region>
      <Link>
        <href>../../16/18928/40892.kml</href>
        <viewRefreshMode>onRegion</viewRefreshMode>
        <viewFormat/>
      </Link>
    </NetworkLink>
        
    <NetworkLink>
      <name>16/18928/40893.png</name>
      <Region>
        <LatLonAltBox>
          <north>45.36804199218750</north>
          <south>45.36254882812500</south>
          <east>-76.01989746093750</east>
          <west>-76.02539062500000</west>
        </LatLonAltBox>
        <Lod>
          <minLodPixels>128</minLodPixels>
          <maxLodPixels>-1</maxLodPixels>
        </Lod>
      </Region>
      <Link>
        <href>../../16/18928/40893.kml</href>
        <viewRefreshMode>onRegion</viewRefreshMode>
        <viewFormat/>
      </Link>
    </NetworkLink>
              </Document>
</kml>
    