<?xml version="1.0" encoding="utf-8"?>
<kml xmlns="http://www.opengis.net/kml/2.2">
  <Document>
    <name>19/151413/336517.kml</name>
    <description></description>
    <Style>
      <ListStyle id="hideChildren">
        <listItemType>checkHideChildren</listItemType>
      </ListStyle>
    </Style>
    <Region>
      <LatLonAltBox>
        <north>45.40134276304669</north>
        <south>45.40086064220805</south>
        <east>-76.03225708007811</east>
        <west>-76.03294372558595</west>
      </LatLonAltBox>
      <Lod>
        <minLodPixels>128</minLodPixels>
        <maxLodPixels>-1</maxLodPixels>
      </Lod>
    </Region>
    <GroundOverlay>
      <drawOrder>38</drawOrder>
      <Icon>
        <href>336517.png</href>
      </Icon>
      <LatLonBox>
        <north>45.40134276304669</north>
        <south>45.40086064220805</south>
        <east>-76.03225708007811</east>
        <west>-76.03294372558595</west>
      </LatLonBox>
    </GroundOverlay>
      </Document>
</kml>
    