<?xml version="1.0" encoding="utf-8"?>
<kml xmlns="http://www.opengis.net/kml/2.2">
  <Document>
    <name>19/151417/336458.kml</name>
    <description></description>
    <Style>
      <ListStyle id="hideChildren">
        <listItemType>checkHideChildren</listItemType>
      </ListStyle>
    </Style>
    <Region>
      <LatLonAltBox>
        <north>45.37289059438990</north>
        <south>45.37240823082044</south>
        <east>-76.02951049804686</east>
        <west>-76.03019714355467</west>
      </LatLonAltBox>
      <Lod>
        <minLodPixels>128</minLodPixels>
        <maxLodPixels>-1</maxLodPixels>
      </Lod>
    </Region>
    <GroundOverlay>
      <drawOrder>38</drawOrder>
      <Icon>
        <href>336458.png</href>
      </Icon>
      <LatLonBox>
        <north>45.37289059438990</north>
        <south>45.37240823082044</south>
        <east>-76.02951049804686</east>
        <west>-76.03019714355467</west>
      </LatLonBox>
    </GroundOverlay>
      </Document>
</kml>
    