<?xml version="1.0" encoding="utf-8"?>
<kml xmlns="http://www.opengis.net/kml/2.2">
  <Document>
    <name>18/75695/168234.kml</name>
    <description></description>
    <Style>
      <ListStyle id="hideChildren">
        <listItemType>checkHideChildren</listItemType>
      </ListStyle>
    </Style>
    <Region>
      <LatLonAltBox>
        <north>45.37819632212285</north>
        <south>45.37723168138015</south>
        <east>-76.04736328125000</east>
        <west>-76.04873657226562</west>
      </LatLonAltBox>
      <Lod>
        <minLodPixels>128</minLodPixels>
        <maxLodPixels>2048</maxLodPixels>
      </Lod>
    </Region>
    <GroundOverlay>
      <drawOrder>36</drawOrder>
      <Icon>
        <href>168234.png</href>
      </Icon>
      <LatLonBox>
        <north>45.37819632212285</north>
        <south>45.37723168138015</south>
        <east>-76.04736328125000</east>
        <west>-76.04873657226562</west>
      </LatLonBox>
    </GroundOverlay>

    <NetworkLink>
      <name>19/151390/336469.png</name>
      <Region>
        <LatLonAltBox>
          <north>45.37819632212285</north>
          <south>45.37771400380857</south>
          <east>-76.04804992675781</east>
          <west>-76.04873657226562</west>
        </LatLonAltBox>
        <Lod>
          <minLodPixels>128</minLodPixels>
          <maxLodPixels>-1</maxLodPixels>
        </Lod>
      </Region>
      <Link>
        <href>../../19/151390/336469.kml</href>
        <viewRefreshMode>onRegion</viewRefreshMode>
        <viewFormat/>
      </Link>
    </NetworkLink>
        
    <NetworkLink>
      <name>19/151391/336469.png</name>
      <Region>
        <LatLonAltBox>
          <north>45.37819632212285</north>
          <south>45.37771400380857</south>
          <east>-76.04736328125000</east>
          <west>-76.04804992675781</west>
        </LatLonAltBox>
        <Lod>
          <minLodPixels>128</minLodPixels>
          <maxLodPixels>-1</maxLodPixels>
        </Lod>
      </Region>
      <Link>
        <href>../../19/151391/336469.kml</href>
        <viewRefreshMode>onRegion</viewRefreshMode>
        <viewFormat/>
      </Link>
    </NetworkLink>
        
    <NetworkLink>
      <name>19/151390/336468.png</name>
      <Region>
        <LatLonAltBox>
          <north>45.37771400380857</north>
          <south>45.37723168138015</south>
          <east>-76.04804992675781</east>
          <west>-76.04873657226562</west>
        </LatLonAltBox>
        <Lod>
          <minLodPixels>128</minLodPixels>
          <maxLodPixels>-1</maxLodPixels>
        </Lod>
      </Region>
      <Link>
        <href>../../19/151390/336468.kml</href>
        <viewRefreshMode>onRegion</viewRefreshMode>
        <viewFormat/>
      </Link>
    </NetworkLink>
        
    <NetworkLink>
      <name>19/151391/336468.png</name>
      <Region>
        <LatLonAltBox>
          <north>45.37771400380857</north>
          <south>45.37723168138015</south>
          <east>-76.04736328125000</east>
          <west>-76.04804992675781</west>
        </LatLonAltBox>
        <Lod>
          <minLodPixels>128</minLodPixels>
          <maxLodPixels>-1</maxLodPixels>
        </Lod>
      </Region>
      <Link>
        <href>../../19/151391/336468.kml</href>
        <viewRefreshMode>onRegion</viewRefreshMode>
        <viewFormat/>
      </Link>
    </NetworkLink>
              </Document>
</kml>
    