<?xml version="1.0" encoding="utf-8"?>
<kml xmlns="http://www.opengis.net/kml/2.2">
  <Document>
    <name>19/151350/336434.kml</name>
    <description></description>
    <Style>
      <ListStyle id="hideChildren">
        <listItemType>checkHideChildren</listItemType>
      </ListStyle>
    </Style>
    <Region>
      <LatLonAltBox>
        <north>45.36131273322709</north>
        <south>45.36083027091878</south>
        <east>-76.07551574707033</east>
        <west>-76.07620239257814</west>
      </LatLonAltBox>
      <Lod>
        <minLodPixels>128</minLodPixels>
        <maxLodPixels>-1</maxLodPixels>
      </Lod>
    </Region>
    <GroundOverlay>
      <drawOrder>38</drawOrder>
      <Icon>
        <href>336434.png</href>
      </Icon>
      <LatLonBox>
        <north>45.36131273322709</north>
        <south>45.36083027091878</south>
        <east>-76.07551574707033</east>
        <west>-76.07620239257814</west>
      </LatLonBox>
    </GroundOverlay>
      </Document>
</kml>
    