<?xml version="1.0" encoding="utf-8"?>
<kml xmlns="http://www.opengis.net/kml/2.2">
  <Document>
    <name>19/151379/197142.kml</name>
    <description></description>
    <Style>
      <ListStyle id="hideChildren">
        <listItemType>checkHideChildren</listItemType>
      </ListStyle>
    </Style>
    <Region>
      <LatLonAltBox>
        <north>45.36735534667969</north>
        <south>45.36666870117188</south>
        <east>-76.05560302734375</east>
        <west>-76.05628967285156</west>
      </LatLonAltBox>
      <Lod>
        <minLodPixels>128</minLodPixels>
        <maxLodPixels>-1</maxLodPixels>
      </Lod>
    </Region>
    <GroundOverlay>
      <drawOrder>38</drawOrder>
      <Icon>
        <href>197142.png</href>
      </Icon>
      <LatLonBox>
        <north>45.36735534667969</north>
        <south>45.36666870117188</south>
        <east>-76.05560302734375</east>
        <west>-76.05628967285156</west>
      </LatLonBox>
    </GroundOverlay>
      </Document>
</kml>
    