<?xml version="1.0" encoding="utf-8"?>
<kml xmlns="http://www.opengis.net/kml/2.2">
  <Document>
    <name>19/151340/197133.kml</name>
    <description></description>
    <Style>
      <ListStyle id="hideChildren">
        <listItemType>checkHideChildren</listItemType>
      </ListStyle>
    </Style>
    <Region>
      <LatLonAltBox>
        <north>134.63951110839844</north>
        <south>134.63882446289062</south>
        <east>-76.08238220214844</east>
        <west>-76.08306884765625</west>
      </LatLonAltBox>
      <Lod>
        <minLodPixels>128</minLodPixels>
        <maxLodPixels>-1</maxLodPixels>
      </Lod>
    </Region>
    <GroundOverlay>
      <drawOrder>38</drawOrder>
      <Icon>
        <href>197133.png</href>
      </Icon>
      <LatLonBox>
        <north>134.63951110839844</north>
        <south>134.63882446289062</south>
        <east>-76.08238220214844</east>
        <west>-76.08306884765625</west>
      </LatLonBox>
    </GroundOverlay>
      </Document>
</kml>
    