<?xml version="1.0" encoding="utf-8"?>
<kml xmlns="http://www.opengis.net/kml/2.2">
  <Document>
    <name>18/75690/168225.kml</name>
    <description></description>
    <Style>
      <ListStyle id="hideChildren">
        <listItemType>checkHideChildren</listItemType>
      </ListStyle>
    </Style>
    <Region>
      <LatLonAltBox>
        <north>45.36951396300744</north>
        <south>45.36854917415683</south>
        <east>-76.05422973632814</east>
        <west>-76.05560302734376</west>
      </LatLonAltBox>
      <Lod>
        <minLodPixels>128</minLodPixels>
        <maxLodPixels>2048</maxLodPixels>
      </Lod>
    </Region>
    <GroundOverlay>
      <drawOrder>36</drawOrder>
      <Icon>
        <href>168225.png</href>
      </Icon>
      <LatLonBox>
        <north>45.36951396300744</north>
        <south>45.36854917415683</south>
        <east>-76.05422973632814</east>
        <west>-76.05560302734376</west>
      </LatLonBox>
    </GroundOverlay>

    <NetworkLink>
      <name>19/151380/336451.png</name>
      <Region>
        <LatLonAltBox>
          <north>45.36951396300744</north>
          <south>45.36903157063918</south>
          <east>-76.05491638183595</east>
          <west>-76.05560302734376</west>
        </LatLonAltBox>
        <Lod>
          <minLodPixels>128</minLodPixels>
          <maxLodPixels>-1</maxLodPixels>
        </Lod>
      </Region>
      <Link>
        <href>../../19/151380/336451.kml</href>
        <viewRefreshMode>onRegion</viewRefreshMode>
        <viewFormat/>
      </Link>
    </NetworkLink>
        
    <NetworkLink>
      <name>19/151381/336451.png</name>
      <Region>
        <LatLonAltBox>
          <north>45.36951396300744</north>
          <south>45.36903157063918</south>
          <east>-76.05422973632814</east>
          <west>-76.05491638183595</west>
        </LatLonAltBox>
        <Lod>
          <minLodPixels>128</minLodPixels>
          <maxLodPixels>-1</maxLodPixels>
        </Lod>
      </Region>
      <Link>
        <href>../../19/151381/336451.kml</href>
        <viewRefreshMode>onRegion</viewRefreshMode>
        <viewFormat/>
      </Link>
    </NetworkLink>
        
    <NetworkLink>
      <name>19/151380/336450.png</name>
      <Region>
        <LatLonAltBox>
          <north>45.36903157063918</north>
          <south>45.36854917415683</south>
          <east>-76.05491638183595</east>
          <west>-76.05560302734376</west>
        </LatLonAltBox>
        <Lod>
          <minLodPixels>128</minLodPixels>
          <maxLodPixels>-1</maxLodPixels>
        </Lod>
      </Region>
      <Link>
        <href>../../19/151380/336450.kml</href>
        <viewRefreshMode>onRegion</viewRefreshMode>
        <viewFormat/>
      </Link>
    </NetworkLink>
        
    <NetworkLink>
      <name>19/151381/336450.png</name>
      <Region>
        <LatLonAltBox>
          <north>45.36903157063918</north>
          <south>45.36854917415683</south>
          <east>-76.05422973632814</east>
          <west>-76.05491638183595</west>
        </LatLonAltBox>
        <Lod>
          <minLodPixels>128</minLodPixels>
          <maxLodPixels>-1</maxLodPixels>
        </Lod>
      </Region>
      <Link>
        <href>../../19/151381/336450.kml</href>
        <viewRefreshMode>onRegion</viewRefreshMode>
        <viewFormat/>
      </Link>
    </NetworkLink>
              </Document>
</kml>
    