<?xml version="1.0" encoding="utf-8"?>
<kml xmlns="http://www.opengis.net/kml/2.2">
  <Document>
    <name>18/75690/98600.kml</name>
    <description></description>
    <Style>
      <ListStyle id="hideChildren">
        <listItemType>checkHideChildren</listItemType>
      </ListStyle>
    </Style>
    <Region>
      <LatLonAltBox>
        <north>45.40786743164062</north>
        <south>45.40649414062500</south>
        <east>-76.05422973632812</east>
        <west>-76.05560302734375</west>
      </LatLonAltBox>
      <Lod>
        <minLodPixels>128</minLodPixels>
        <maxLodPixels>2048</maxLodPixels>
      </Lod>
    </Region>
    <GroundOverlay>
      <drawOrder>36</drawOrder>
      <Icon>
        <href>98600.png</href>
      </Icon>
      <LatLonBox>
        <north>45.40786743164062</north>
        <south>45.40649414062500</south>
        <east>-76.05422973632812</east>
        <west>-76.05560302734375</west>
      </LatLonBox>
    </GroundOverlay>

    <NetworkLink>
      <name>19/151380/197201.png</name>
      <Region>
        <LatLonAltBox>
          <north>45.40786743164062</north>
          <south>45.40718078613281</south>
          <east>-76.05491638183594</east>
          <west>-76.05560302734375</west>
        </LatLonAltBox>
        <Lod>
          <minLodPixels>128</minLodPixels>
          <maxLodPixels>-1</maxLodPixels>
        </Lod>
      </Region>
      <Link>
        <href>https://swmoran.github.io/ch-tiles/tiles/DRAPE_tiles/19/151380/197201.kml</href>
        <viewRefreshMode>onRegion</viewRefreshMode>
        <viewFormat/>
      </Link>
    </NetworkLink>
        
    <NetworkLink>
      <name>19/151381/197201.png</name>
      <Region>
        <LatLonAltBox>
          <north>45.40786743164062</north>
          <south>45.40718078613281</south>
          <east>-76.05422973632812</east>
          <west>-76.05491638183594</west>
        </LatLonAltBox>
        <Lod>
          <minLodPixels>128</minLodPixels>
          <maxLodPixels>-1</maxLodPixels>
        </Lod>
      </Region>
      <Link>
        <href>https://swmoran.github.io/ch-tiles/tiles/DRAPE_tiles/19/151381/197201.kml</href>
        <viewRefreshMode>onRegion</viewRefreshMode>
        <viewFormat/>
      </Link>
    </NetworkLink>
        
    <NetworkLink>
      <name>19/151380/197200.png</name>
      <Region>
        <LatLonAltBox>
          <north>45.40718078613281</north>
          <south>45.40649414062500</south>
          <east>-76.05491638183594</east>
          <west>-76.05560302734375</west>
        </LatLonAltBox>
        <Lod>
          <minLodPixels>128</minLodPixels>
          <maxLodPixels>-1</maxLodPixels>
        </Lod>
      </Region>
      <Link>
        <href>https://swmoran.github.io/ch-tiles/tiles/DRAPE_tiles/19/151380/197200.kml</href>
        <viewRefreshMode>onRegion</viewRefreshMode>
        <viewFormat/>
      </Link>
    </NetworkLink>
        
    <NetworkLink>
      <name>19/151381/197200.png</name>
      <Region>
        <LatLonAltBox>
          <north>45.40718078613281</north>
          <south>45.40649414062500</south>
          <east>-76.05422973632812</east>
          <west>-76.05491638183594</west>
        </LatLonAltBox>
        <Lod>
          <minLodPixels>128</minLodPixels>
          <maxLodPixels>-1</maxLodPixels>
        </Lod>
      </Region>
      <Link>
        <href>https://swmoran.github.io/ch-tiles/tiles/DRAPE_tiles/19/151381/197200.kml</href>
        <viewRefreshMode>onRegion</viewRefreshMode>
        <viewFormat/>
      </Link>
    </NetworkLink>
              </Document>
</kml>
    