<?xml version="1.0" encoding="utf-8"?>
<kml xmlns="http://www.opengis.net/kml/2.2">
  <Document>
    <name>18/75702/168265.kml</name>
    <description></description>
    <Style>
      <ListStyle id="hideChildren">
        <listItemType>checkHideChildren</listItemType>
      </ListStyle>
    </Style>
    <Region>
      <LatLonAltBox>
        <north>45.40809202281228</north>
        <south>45.40712789221431</south>
        <east>-76.03775024414062</east>
        <west>-76.03912353515625</west>
      </LatLonAltBox>
      <Lod>
        <minLodPixels>128</minLodPixels>
        <maxLodPixels>2048</maxLodPixels>
      </Lod>
    </Region>
    <GroundOverlay>
      <drawOrder>36</drawOrder>
      <Icon>
        <href>168265.png</href>
      </Icon>
      <LatLonBox>
        <north>45.40809202281228</north>
        <south>45.40712789221431</south>
        <east>-76.03775024414062</east>
        <west>-76.03912353515625</west>
      </LatLonBox>
    </GroundOverlay>

    <NetworkLink>
      <name>19/151404/336531.png</name>
      <Region>
        <LatLonAltBox>
          <north>45.40809202281228</north>
          <south>45.40760995957031</south>
          <east>-76.03843688964844</east>
          <west>-76.03912353515625</west>
        </LatLonAltBox>
        <Lod>
          <minLodPixels>128</minLodPixels>
          <maxLodPixels>-1</maxLodPixels>
        </Lod>
      </Region>
      <Link>
        <href>../../19/151404/336531.kml</href>
        <viewRefreshMode>onRegion</viewRefreshMode>
        <viewFormat/>
      </Link>
    </NetworkLink>
        
    <NetworkLink>
      <name>19/151405/336531.png</name>
      <Region>
        <LatLonAltBox>
          <north>45.40809202281228</north>
          <south>45.40760995957031</south>
          <east>-76.03775024414062</east>
          <west>-76.03843688964844</west>
        </LatLonAltBox>
        <Lod>
          <minLodPixels>128</minLodPixels>
          <maxLodPixels>-1</maxLodPixels>
        </Lod>
      </Region>
      <Link>
        <href>../../19/151405/336531.kml</href>
        <viewRefreshMode>onRegion</viewRefreshMode>
        <viewFormat/>
      </Link>
    </NetworkLink>
        
    <NetworkLink>
      <name>19/151404/336530.png</name>
      <Region>
        <LatLonAltBox>
          <north>45.40760995957031</north>
          <south>45.40712789221431</south>
          <east>-76.03843688964844</east>
          <west>-76.03912353515625</west>
        </LatLonAltBox>
        <Lod>
          <minLodPixels>128</minLodPixels>
          <maxLodPixels>-1</maxLodPixels>
        </Lod>
      </Region>
      <Link>
        <href>../../19/151404/336530.kml</href>
        <viewRefreshMode>onRegion</viewRefreshMode>
        <viewFormat/>
      </Link>
    </NetworkLink>
        
    <NetworkLink>
      <name>19/151405/336530.png</name>
      <Region>
        <LatLonAltBox>
          <north>45.40760995957031</north>
          <south>45.40712789221431</south>
          <east>-76.03775024414062</east>
          <west>-76.03843688964844</west>
        </LatLonAltBox>
        <Lod>
          <minLodPixels>128</minLodPixels>
          <maxLodPixels>-1</maxLodPixels>
        </Lod>
      </Region>
      <Link>
        <href>../../19/151405/336530.kml</href>
        <viewRefreshMode>onRegion</viewRefreshMode>
        <viewFormat/>
      </Link>
    </NetworkLink>
              </Document>
</kml>
    