<?xml version="1.0" encoding="utf-8"?>
<kml xmlns="http://www.opengis.net/kml/2.2">
  <Document>
    <name>19/151334/197185.kml</name>
    <description></description>
    <Style>
      <ListStyle id="hideChildren">
        <listItemType>checkHideChildren</listItemType>
      </ListStyle>
    </Style>
    <Region>
      <LatLonAltBox>
        <north>134.60380554199219</north>
        <south>134.60311889648438</south>
        <east>-76.08650207519531</east>
        <west>-76.08718872070312</west>
      </LatLonAltBox>
      <Lod>
        <minLodPixels>128</minLodPixels>
        <maxLodPixels>-1</maxLodPixels>
      </Lod>
    </Region>
    <GroundOverlay>
      <drawOrder>38</drawOrder>
      <Icon>
        <href>197185.png</href>
      </Icon>
      <LatLonBox>
        <north>134.60380554199219</north>
        <south>134.60311889648438</south>
        <east>-76.08650207519531</east>
        <west>-76.08718872070312</west>
      </LatLonBox>
    </GroundOverlay>
      </Document>
</kml>
    