<?xml version="1.0" encoding="utf-8"?>
<kml xmlns="http://www.opengis.net/kml/2.2">
  <Document>
    <name>17/37825/49286.kml</name>
    <description></description>
    <Style>
      <ListStyle id="hideChildren">
        <listItemType>checkHideChildren</listItemType>
      </ListStyle>
    </Style>
    <Region>
      <LatLonAltBox>
        <north>45.37078857421875</north>
        <south>45.36804199218750</south>
        <east>-76.10778808593750</east>
        <west>-76.11053466796875</west>
      </LatLonAltBox>
      <Lod>
        <minLodPixels>128</minLodPixels>
        <maxLodPixels>2048</maxLodPixels>
      </Lod>
    </Region>
    <GroundOverlay>
      <drawOrder>34</drawOrder>
      <Icon>
        <href>49286.png</href>
      </Icon>
      <LatLonBox>
        <north>45.37078857421875</north>
        <south>45.36804199218750</south>
        <east>-76.10778808593750</east>
        <west>-76.11053466796875</west>
      </LatLonBox>
    </GroundOverlay>

    <NetworkLink>
      <name>18/75650/98573.png</name>
      <Region>
        <LatLonAltBox>
          <north>45.37078857421875</north>
          <south>45.36941528320312</south>
          <east>-76.10916137695312</east>
          <west>-76.11053466796875</west>
        </LatLonAltBox>
        <Lod>
          <minLodPixels>128</minLodPixels>
          <maxLodPixels>-1</maxLodPixels>
        </Lod>
      </Region>
      <Link>
        <href>https://swmoran.github.io/ch-tiles/tiles/DRAPE_tiles/18/75650/98573.kml</href>
        <viewRefreshMode>onRegion</viewRefreshMode>
        <viewFormat/>
      </Link>
    </NetworkLink>
        
    <NetworkLink>
      <name>18/75651/98573.png</name>
      <Region>
        <LatLonAltBox>
          <north>45.37078857421875</north>
          <south>45.36941528320312</south>
          <east>-76.10778808593750</east>
          <west>-76.10916137695312</west>
        </LatLonAltBox>
        <Lod>
          <minLodPixels>128</minLodPixels>
          <maxLodPixels>-1</maxLodPixels>
        </Lod>
      </Region>
      <Link>
        <href>https://swmoran.github.io/ch-tiles/tiles/DRAPE_tiles/18/75651/98573.kml</href>
        <viewRefreshMode>onRegion</viewRefreshMode>
        <viewFormat/>
      </Link>
    </NetworkLink>
        
    <NetworkLink>
      <name>18/75650/98572.png</name>
      <Region>
        <LatLonAltBox>
          <north>45.36941528320312</north>
          <south>45.36804199218750</south>
          <east>-76.10916137695312</east>
          <west>-76.11053466796875</west>
        </LatLonAltBox>
        <Lod>
          <minLodPixels>128</minLodPixels>
          <maxLodPixels>-1</maxLodPixels>
        </Lod>
      </Region>
      <Link>
        <href>https://swmoran.github.io/ch-tiles/tiles/DRAPE_tiles/18/75650/98572.kml</href>
        <viewRefreshMode>onRegion</viewRefreshMode>
        <viewFormat/>
      </Link>
    </NetworkLink>
        
    <NetworkLink>
      <name>18/75651/98572.png</name>
      <Region>
        <LatLonAltBox>
          <north>45.36941528320312</north>
          <south>45.36804199218750</south>
          <east>-76.10778808593750</east>
          <west>-76.10916137695312</west>
        </LatLonAltBox>
        <Lod>
          <minLodPixels>128</minLodPixels>
          <maxLodPixels>-1</maxLodPixels>
        </Lod>
      </Region>
      <Link>
        <href>https://swmoran.github.io/ch-tiles/tiles/DRAPE_tiles/18/75651/98572.kml</href>
        <viewRefreshMode>onRegion</viewRefreshMode>
        <viewFormat/>
      </Link>
    </NetworkLink>
              </Document>
</kml>
    