<?xml version="1.0" encoding="utf-8"?>
<kml xmlns="http://www.opengis.net/kml/2.2">
  <Document>
    <name>17/37852/81777.kml</name>
    <description></description>
    <Style>
      <ListStyle id="hideChildren">
        <listItemType>checkHideChildren</listItemType>
      </ListStyle>
    </Style>
    <Region>
      <LatLonAltBox>
        <north>45.39276123046875</north>
        <south>45.39001464843750</south>
        <east>-76.03363037109375</east>
        <west>-76.03637695312500</west>
      </LatLonAltBox>
      <Lod>
        <minLodPixels>128</minLodPixels>
        <maxLodPixels>2048</maxLodPixels>
      </Lod>
    </Region>
    <GroundOverlay>
      <drawOrder>34</drawOrder>
      <Icon>
        <href>81777.png</href>
      </Icon>
      <LatLonBox>
        <north>45.39276123046875</north>
        <south>45.39001464843750</south>
        <east>-76.03363037109375</east>
        <west>-76.03637695312500</west>
      </LatLonBox>
    </GroundOverlay>

    <NetworkLink>
      <name>18/75704/163554.png</name>
      <Region>
        <LatLonAltBox>
          <north>45.39276123046875</north>
          <south>45.39138793945312</south>
          <east>-76.03500366210938</east>
          <west>-76.03637695312500</west>
        </LatLonAltBox>
        <Lod>
          <minLodPixels>128</minLodPixels>
          <maxLodPixels>-1</maxLodPixels>
        </Lod>
      </Region>
      <Link>
        <href>../../18/75704/163554.kml</href>
        <viewRefreshMode>onRegion</viewRefreshMode>
        <viewFormat/>
      </Link>
    </NetworkLink>
        
    <NetworkLink>
      <name>18/75705/163554.png</name>
      <Region>
        <LatLonAltBox>
          <north>45.39276123046875</north>
          <south>45.39138793945312</south>
          <east>-76.03363037109375</east>
          <west>-76.03500366210938</west>
        </LatLonAltBox>
        <Lod>
          <minLodPixels>128</minLodPixels>
          <maxLodPixels>-1</maxLodPixels>
        </Lod>
      </Region>
      <Link>
        <href>../../18/75705/163554.kml</href>
        <viewRefreshMode>onRegion</viewRefreshMode>
        <viewFormat/>
      </Link>
    </NetworkLink>
        
    <NetworkLink>
      <name>18/75704/163555.png</name>
      <Region>
        <LatLonAltBox>
          <north>45.39138793945312</north>
          <south>45.39001464843750</south>
          <east>-76.03500366210938</east>
          <west>-76.03637695312500</west>
        </LatLonAltBox>
        <Lod>
          <minLodPixels>128</minLodPixels>
          <maxLodPixels>-1</maxLodPixels>
        </Lod>
      </Region>
      <Link>
        <href>../../18/75704/163555.kml</href>
        <viewRefreshMode>onRegion</viewRefreshMode>
        <viewFormat/>
      </Link>
    </NetworkLink>
        
    <NetworkLink>
      <name>18/75705/163555.png</name>
      <Region>
        <LatLonAltBox>
          <north>45.39138793945312</north>
          <south>45.39001464843750</south>
          <east>-76.03363037109375</east>
          <west>-76.03500366210938</west>
        </LatLonAltBox>
        <Lod>
          <minLodPixels>128</minLodPixels>
          <maxLodPixels>-1</maxLodPixels>
        </Lod>
      </Region>
      <Link>
        <href>../../18/75705/163555.kml</href>
        <viewRefreshMode>onRegion</viewRefreshMode>
        <viewFormat/>
      </Link>
    </NetworkLink>
              </Document>
</kml>
    