<?xml version="1.0" encoding="utf-8"?>
<kml xmlns="http://www.opengis.net/kml/2.2">
  <Document>
    <name>17/37854/81775.kml</name>
    <description></description>
    <Style>
      <ListStyle id="hideChildren">
        <listItemType>checkHideChildren</listItemType>
      </ListStyle>
    </Style>
    <Region>
      <LatLonAltBox>
        <north>45.39825439453125</north>
        <south>45.39550781250000</south>
        <east>-76.02813720703125</east>
        <west>-76.03088378906250</west>
      </LatLonAltBox>
      <Lod>
        <minLodPixels>128</minLodPixels>
        <maxLodPixels>2048</maxLodPixels>
      </Lod>
    </Region>
    <GroundOverlay>
      <drawOrder>34</drawOrder>
      <Icon>
        <href>81775.png</href>
      </Icon>
      <LatLonBox>
        <north>45.39825439453125</north>
        <south>45.39550781250000</south>
        <east>-76.02813720703125</east>
        <west>-76.03088378906250</west>
      </LatLonBox>
    </GroundOverlay>

    <NetworkLink>
      <name>18/75708/163550.png</name>
      <Region>
        <LatLonAltBox>
          <north>45.39825439453125</north>
          <south>45.39688110351562</south>
          <east>-76.02951049804688</east>
          <west>-76.03088378906250</west>
        </LatLonAltBox>
        <Lod>
          <minLodPixels>128</minLodPixels>
          <maxLodPixels>-1</maxLodPixels>
        </Lod>
      </Region>
      <Link>
        <href>../../18/75708/163550.kml</href>
        <viewRefreshMode>onRegion</viewRefreshMode>
        <viewFormat/>
      </Link>
    </NetworkLink>
        
    <NetworkLink>
      <name>18/75709/163550.png</name>
      <Region>
        <LatLonAltBox>
          <north>45.39825439453125</north>
          <south>45.39688110351562</south>
          <east>-76.02813720703125</east>
          <west>-76.02951049804688</west>
        </LatLonAltBox>
        <Lod>
          <minLodPixels>128</minLodPixels>
          <maxLodPixels>-1</maxLodPixels>
        </Lod>
      </Region>
      <Link>
        <href>../../18/75709/163550.kml</href>
        <viewRefreshMode>onRegion</viewRefreshMode>
        <viewFormat/>
      </Link>
    </NetworkLink>
        
    <NetworkLink>
      <name>18/75708/163551.png</name>
      <Region>
        <LatLonAltBox>
          <north>45.39688110351562</north>
          <south>45.39550781250000</south>
          <east>-76.02951049804688</east>
          <west>-76.03088378906250</west>
        </LatLonAltBox>
        <Lod>
          <minLodPixels>128</minLodPixels>
          <maxLodPixels>-1</maxLodPixels>
        </Lod>
      </Region>
      <Link>
        <href>../../18/75708/163551.kml</href>
        <viewRefreshMode>onRegion</viewRefreshMode>
        <viewFormat/>
      </Link>
    </NetworkLink>
        
    <NetworkLink>
      <name>18/75709/163551.png</name>
      <Region>
        <LatLonAltBox>
          <north>45.39688110351562</north>
          <south>45.39550781250000</south>
          <east>-76.02813720703125</east>
          <west>-76.02951049804688</west>
        </LatLonAltBox>
        <Lod>
          <minLodPixels>128</minLodPixels>
          <maxLodPixels>-1</maxLodPixels>
        </Lod>
      </Region>
      <Link>
        <href>../../18/75709/163551.kml</href>
        <viewRefreshMode>onRegion</viewRefreshMode>
        <viewFormat/>
      </Link>
    </NetworkLink>
              </Document>
</kml>
    