<?xml version="1.0" encoding="utf-8"?>
<kml xmlns="http://www.opengis.net/kml/2.2">
  <Document>
    <name>18/75675/168239.kml</name>
    <description></description>
    <Style>
      <ListStyle id="hideChildren">
        <listItemType>checkHideChildren</listItemType>
      </ListStyle>
    </Style>
    <Region>
      <LatLonAltBox>
        <north>45.38301927899063</north>
        <south>45.38205472052984</south>
        <east>-76.07482910156251</east>
        <west>-76.07620239257814</west>
      </LatLonAltBox>
      <Lod>
        <minLodPixels>128</minLodPixels>
        <maxLodPixels>2048</maxLodPixels>
      </Lod>
    </Region>
    <GroundOverlay>
      <drawOrder>36</drawOrder>
      <Icon>
        <href>168239.png</href>
      </Icon>
      <LatLonBox>
        <north>45.38301927899063</north>
        <south>45.38205472052984</south>
        <east>-76.07482910156251</east>
        <west>-76.07620239257814</west>
      </LatLonBox>
    </GroundOverlay>

    <NetworkLink>
      <name>19/151350/336479.png</name>
      <Region>
        <LatLonAltBox>
          <north>45.38301927899063</north>
          <south>45.38253700181728</south>
          <east>-76.07551574707033</east>
          <west>-76.07620239257814</west>
        </LatLonAltBox>
        <Lod>
          <minLodPixels>128</minLodPixels>
          <maxLodPixels>-1</maxLodPixels>
        </Lod>
      </Region>
      <Link>
        <href>../../19/151350/336479.kml</href>
        <viewRefreshMode>onRegion</viewRefreshMode>
        <viewFormat/>
      </Link>
    </NetworkLink>
        
    <NetworkLink>
      <name>19/151351/336479.png</name>
      <Region>
        <LatLonAltBox>
          <north>45.38301927899063</north>
          <south>45.38253700181728</south>
          <east>-76.07482910156251</east>
          <west>-76.07551574707033</west>
        </LatLonAltBox>
        <Lod>
          <minLodPixels>128</minLodPixels>
          <maxLodPixels>-1</maxLodPixels>
        </Lod>
      </Region>
      <Link>
        <href>../../19/151351/336479.kml</href>
        <viewRefreshMode>onRegion</viewRefreshMode>
        <viewFormat/>
      </Link>
    </NetworkLink>
        
    <NetworkLink>
      <name>19/151350/336478.png</name>
      <Region>
        <LatLonAltBox>
          <north>45.38253700181728</north>
          <south>45.38205472052984</south>
          <east>-76.07551574707033</east>
          <west>-76.07620239257814</west>
        </LatLonAltBox>
        <Lod>
          <minLodPixels>128</minLodPixels>
          <maxLodPixels>-1</maxLodPixels>
        </Lod>
      </Region>
      <Link>
        <href>../../19/151350/336478.kml</href>
        <viewRefreshMode>onRegion</viewRefreshMode>
        <viewFormat/>
      </Link>
    </NetworkLink>
        
    <NetworkLink>
      <name>19/151351/336478.png</name>
      <Region>
        <LatLonAltBox>
          <north>45.38253700181728</north>
          <south>45.38205472052984</south>
          <east>-76.07482910156251</east>
          <west>-76.07551574707033</west>
        </LatLonAltBox>
        <Lod>
          <minLodPixels>128</minLodPixels>
          <maxLodPixels>-1</maxLodPixels>
        </Lod>
      </Region>
      <Link>
        <href>../../19/151351/336478.kml</href>
        <viewRefreshMode>onRegion</viewRefreshMode>
        <viewFormat/>
      </Link>
    </NetworkLink>
              </Document>
</kml>
    