<?xml version="1.0" encoding="utf-8"?>
<kml xmlns="http://www.opengis.net/kml/2.2">
  <Document>
    <name>18/75675/168219.kml</name>
    <description></description>
    <Style>
      <ListStyle id="hideChildren">
        <listItemType>checkHideChildren</listItemType>
      </ListStyle>
    </Style>
    <Region>
      <LatLonAltBox>
        <north>45.36372498305681</north>
        <south>45.36276009546730</south>
        <east>-76.07482910156251</east>
        <west>-76.07620239257814</west>
      </LatLonAltBox>
      <Lod>
        <minLodPixels>128</minLodPixels>
        <maxLodPixels>2048</maxLodPixels>
      </Lod>
    </Region>
    <GroundOverlay>
      <drawOrder>36</drawOrder>
      <Icon>
        <href>168219.png</href>
      </Icon>
      <LatLonBox>
        <north>45.36372498305681</north>
        <south>45.36276009546730</south>
        <east>-76.07482910156251</east>
        <west>-76.07620239257814</west>
      </LatLonBox>
    </GroundOverlay>

    <NetworkLink>
      <name>19/151350/336439.png</name>
      <Region>
        <LatLonAltBox>
          <north>45.36372498305681</north>
          <south>45.36324254131913</south>
          <east>-76.07551574707033</east>
          <west>-76.07620239257814</west>
        </LatLonAltBox>
        <Lod>
          <minLodPixels>128</minLodPixels>
          <maxLodPixels>-1</maxLodPixels>
        </Lod>
      </Region>
      <Link>
        <href>../../19/151350/336439.kml</href>
        <viewRefreshMode>onRegion</viewRefreshMode>
        <viewFormat/>
      </Link>
    </NetworkLink>
        
    <NetworkLink>
      <name>19/151351/336439.png</name>
      <Region>
        <LatLonAltBox>
          <north>45.36372498305681</north>
          <south>45.36324254131913</south>
          <east>-76.07482910156251</east>
          <west>-76.07551574707033</west>
        </LatLonAltBox>
        <Lod>
          <minLodPixels>128</minLodPixels>
          <maxLodPixels>-1</maxLodPixels>
        </Lod>
      </Region>
      <Link>
        <href>../../19/151351/336439.kml</href>
        <viewRefreshMode>onRegion</viewRefreshMode>
        <viewFormat/>
      </Link>
    </NetworkLink>
        
    <NetworkLink>
      <name>19/151350/336438.png</name>
      <Region>
        <LatLonAltBox>
          <north>45.36324254131913</north>
          <south>45.36276009546730</south>
          <east>-76.07551574707033</east>
          <west>-76.07620239257814</west>
        </LatLonAltBox>
        <Lod>
          <minLodPixels>128</minLodPixels>
          <maxLodPixels>-1</maxLodPixels>
        </Lod>
      </Region>
      <Link>
        <href>../../19/151350/336438.kml</href>
        <viewRefreshMode>onRegion</viewRefreshMode>
        <viewFormat/>
      </Link>
    </NetworkLink>
        
    <NetworkLink>
      <name>19/151351/336438.png</name>
      <Region>
        <LatLonAltBox>
          <north>45.36324254131913</north>
          <south>45.36276009546730</south>
          <east>-76.07482910156251</east>
          <west>-76.07551574707033</west>
        </LatLonAltBox>
        <Lod>
          <minLodPixels>128</minLodPixels>
          <maxLodPixels>-1</maxLodPixels>
        </Lod>
      </Region>
      <Link>
        <href>../../19/151351/336438.kml</href>
        <viewRefreshMode>onRegion</viewRefreshMode>
        <viewFormat/>
      </Link>
    </NetworkLink>
              </Document>
</kml>
    