<?xml version="1.0" encoding="utf-8"?>
<kml xmlns="http://www.opengis.net/kml/2.2">
  <Document>
    <name>19/151416/336514.kml</name>
    <description></description>
    <Style>
      <ListStyle id="hideChildren">
        <listItemType>checkHideChildren</listItemType>
      </ListStyle>
    </Style>
    <Region>
      <LatLonAltBox>
        <north>45.39989638818863</north>
        <south>45.39941425500787</south>
        <east>-76.03019714355467</east>
        <west>-76.03088378906249</west>
      </LatLonAltBox>
      <Lod>
        <minLodPixels>128</minLodPixels>
        <maxLodPixels>-1</maxLodPixels>
      </Lod>
    </Region>
    <GroundOverlay>
      <drawOrder>38</drawOrder>
      <Icon>
        <href>336514.png</href>
      </Icon>
      <LatLonBox>
        <north>45.39989638818863</north>
        <south>45.39941425500787</south>
        <east>-76.03019714355467</east>
        <west>-76.03088378906249</west>
      </LatLonBox>
    </GroundOverlay>
      </Document>
</kml>
    