<?xml version="1.0" encoding="utf-8"?>
<kml xmlns="http://www.opengis.net/kml/2.2">
  <Document>
    <name>19/151368/336507.kml</name>
    <description></description>
    <Style>
      <ListStyle id="hideChildren">
        <listItemType>checkHideChildren</listItemType>
      </ListStyle>
    </Style>
    <Region>
      <LatLonAltBox>
        <north>45.39652136952787</north>
        <south>45.39603920754866</south>
        <east>-76.06315612792969</east>
        <west>-76.06384277343750</west>
      </LatLonAltBox>
      <Lod>
        <minLodPixels>128</minLodPixels>
        <maxLodPixels>-1</maxLodPixels>
      </Lod>
    </Region>
    <GroundOverlay>
      <drawOrder>38</drawOrder>
      <Icon>
        <href>336507.png</href>
      </Icon>
      <LatLonBox>
        <north>45.39652136952787</north>
        <south>45.39603920754866</south>
        <east>-76.06315612792969</east>
        <west>-76.06384277343750</west>
      </LatLonBox>
    </GroundOverlay>
      </Document>
</kml>
    