<?xml version="1.0" encoding="utf-8"?>
<kml xmlns="http://www.opengis.net/kml/2.2">
  <Document>
    <name>18/75712/98576.kml</name>
    <description></description>
    <Style>
      <ListStyle id="hideChildren">
        <listItemType>checkHideChildren</listItemType>
      </ListStyle>
    </Style>
    <Region>
      <LatLonAltBox>
        <north>45.37490844726562</north>
        <south>45.37353515625000</south>
        <east>-76.02401733398438</east>
        <west>-76.02539062500000</west>
      </LatLonAltBox>
      <Lod>
        <minLodPixels>128</minLodPixels>
        <maxLodPixels>2048</maxLodPixels>
      </Lod>
    </Region>
    <GroundOverlay>
      <drawOrder>36</drawOrder>
      <Icon>
        <href>98576.png</href>
      </Icon>
      <LatLonBox>
        <north>45.37490844726562</north>
        <south>45.37353515625000</south>
        <east>-76.02401733398438</east>
        <west>-76.02539062500000</west>
      </LatLonBox>
    </GroundOverlay>

    <NetworkLink>
      <name>19/151424/197153.png</name>
      <Region>
        <LatLonAltBox>
          <north>45.37490844726562</north>
          <south>45.37422180175781</south>
          <east>-76.02470397949219</east>
          <west>-76.02539062500000</west>
        </LatLonAltBox>
        <Lod>
          <minLodPixels>128</minLodPixels>
          <maxLodPixels>-1</maxLodPixels>
        </Lod>
      </Region>
      <Link>
        <href>https://swmoran.github.io/ch-tiles/tiles_GE/tiles_GE/19/151424/197153.kml</href>
        <viewRefreshMode>onRegion</viewRefreshMode>
        <viewFormat/>
      </Link>
    </NetworkLink>
        
    <NetworkLink>
      <name>19/151425/197153.png</name>
      <Region>
        <LatLonAltBox>
          <north>45.37490844726562</north>
          <south>45.37422180175781</south>
          <east>-76.02401733398438</east>
          <west>-76.02470397949219</west>
        </LatLonAltBox>
        <Lod>
          <minLodPixels>128</minLodPixels>
          <maxLodPixels>-1</maxLodPixels>
        </Lod>
      </Region>
      <Link>
        <href>https://swmoran.github.io/ch-tiles/tiles_GE/tiles_GE/19/151425/197153.kml</href>
        <viewRefreshMode>onRegion</viewRefreshMode>
        <viewFormat/>
      </Link>
    </NetworkLink>
        
    <NetworkLink>
      <name>19/151424/197152.png</name>
      <Region>
        <LatLonAltBox>
          <north>45.37422180175781</north>
          <south>45.37353515625000</south>
          <east>-76.02470397949219</east>
          <west>-76.02539062500000</west>
        </LatLonAltBox>
        <Lod>
          <minLodPixels>128</minLodPixels>
          <maxLodPixels>-1</maxLodPixels>
        </Lod>
      </Region>
      <Link>
        <href>https://swmoran.github.io/ch-tiles/tiles_GE/tiles_GE/19/151424/197152.kml</href>
        <viewRefreshMode>onRegion</viewRefreshMode>
        <viewFormat/>
      </Link>
    </NetworkLink>
        
    <NetworkLink>
      <name>19/151425/197152.png</name>
      <Region>
        <LatLonAltBox>
          <north>45.37422180175781</north>
          <south>45.37353515625000</south>
          <east>-76.02401733398438</east>
          <west>-76.02470397949219</west>
        </LatLonAltBox>
        <Lod>
          <minLodPixels>128</minLodPixels>
          <maxLodPixels>-1</maxLodPixels>
        </Lod>
      </Region>
      <Link>
        <href>https://swmoran.github.io/ch-tiles/tiles_GE/tiles_GE/19/151425/197152.kml</href>
        <viewRefreshMode>onRegion</viewRefreshMode>
        <viewFormat/>
      </Link>
    </NetworkLink>
              </Document>
</kml>
    