<?xml version="1.0" encoding="utf-8"?>
<kml xmlns="http://www.opengis.net/kml/2.2">
  <Document>
    <name>19/151326/197137.kml</name>
    <description></description>
    <Style>
      <ListStyle id="hideChildren">
        <listItemType>checkHideChildren</listItemType>
      </ListStyle>
    </Style>
    <Region>
      <LatLonAltBox>
        <north>45.36392211914062</north>
        <south>45.36323547363281</south>
        <east>-76.09199523925781</east>
        <west>-76.09268188476562</west>
      </LatLonAltBox>
      <Lod>
        <minLodPixels>128</minLodPixels>
        <maxLodPixels>-1</maxLodPixels>
      </Lod>
    </Region>
    <GroundOverlay>
      <drawOrder>38</drawOrder>
      <Icon>
        <href>197137.png</href>
      </Icon>
      <LatLonBox>
        <north>45.36392211914062</north>
        <south>45.36323547363281</south>
        <east>-76.09199523925781</east>
        <west>-76.09268188476562</west>
      </LatLonBox>
    </GroundOverlay>
      </Document>
</kml>
    