<?xml version="1.0" encoding="utf-8"?>
<kml xmlns="http://www.opengis.net/kml/2.2">
  <Document>
    <name>16/18918/24640.kml</name>
    <description></description>
    <Style>
      <ListStyle id="hideChildren">
        <listItemType>checkHideChildren</listItemType>
      </ListStyle>
    </Style>
    <Region>
      <LatLonAltBox>
        <north>45.35705566406250</north>
        <south>45.35156250000000</south>
        <east>-76.07482910156250</east>
        <west>-76.08032226562500</west>
      </LatLonAltBox>
      <Lod>
        <minLodPixels>128</minLodPixels>
        <maxLodPixels>2048</maxLodPixels>
      </Lod>
    </Region>
    <GroundOverlay>
      <drawOrder>32</drawOrder>
      <Icon>
        <href>24640.png</href>
      </Icon>
      <LatLonBox>
        <north>45.35705566406250</north>
        <south>45.35156250000000</south>
        <east>-76.07482910156250</east>
        <west>-76.08032226562500</west>
      </LatLonBox>
    </GroundOverlay>

    <NetworkLink>
      <name>17/37836/49281.png</name>
      <Region>
        <LatLonAltBox>
          <north>45.35705566406250</north>
          <south>45.35430908203125</south>
          <east>-76.07757568359375</east>
          <west>-76.08032226562500</west>
        </LatLonAltBox>
        <Lod>
          <minLodPixels>128</minLodPixels>
          <maxLodPixels>-1</maxLodPixels>
        </Lod>
      </Region>
      <Link>
        <href>https://swmoran.github.io/ch-tiles/tiles_GE/tiles_GE/17/37836/49281.kml</href>
        <viewRefreshMode>onRegion</viewRefreshMode>
        <viewFormat/>
      </Link>
    </NetworkLink>
        
    <NetworkLink>
      <name>17/37837/49281.png</name>
      <Region>
        <LatLonAltBox>
          <north>45.35705566406250</north>
          <south>45.35430908203125</south>
          <east>-76.07482910156250</east>
          <west>-76.07757568359375</west>
        </LatLonAltBox>
        <Lod>
          <minLodPixels>128</minLodPixels>
          <maxLodPixels>-1</maxLodPixels>
        </Lod>
      </Region>
      <Link>
        <href>https://swmoran.github.io/ch-tiles/tiles_GE/tiles_GE/17/37837/49281.kml</href>
        <viewRefreshMode>onRegion</viewRefreshMode>
        <viewFormat/>
      </Link>
    </NetworkLink>
              </Document>
</kml>
    