<?xml version="1.0" encoding="utf-8"?>
<kml xmlns="http://www.opengis.net/kml/2.2">
  <Document>
    <name>16/18918/40890.kml</name>
    <description></description>
    <Style>
      <ListStyle id="hideChildren">
        <listItemType>checkHideChildren</listItemType>
      </ListStyle>
    </Style>
    <Region>
      <LatLonAltBox>
        <north>45.38452148437500</north>
        <south>45.37902832031250</south>
        <east>-76.07482910156250</east>
        <west>-76.08032226562500</west>
      </LatLonAltBox>
      <Lod>
        <minLodPixels>128</minLodPixels>
        <maxLodPixels>2048</maxLodPixels>
      </Lod>
    </Region>
    <GroundOverlay>
      <drawOrder>32</drawOrder>
      <Icon>
        <href>40890.png</href>
      </Icon>
      <LatLonBox>
        <north>45.38452148437500</north>
        <south>45.37902832031250</south>
        <east>-76.07482910156250</east>
        <west>-76.08032226562500</west>
      </LatLonBox>
    </GroundOverlay>

    <NetworkLink>
      <name>17/37836/81780.png</name>
      <Region>
        <LatLonAltBox>
          <north>45.38452148437500</north>
          <south>45.38177490234375</south>
          <east>-76.07757568359375</east>
          <west>-76.08032226562500</west>
        </LatLonAltBox>
        <Lod>
          <minLodPixels>128</minLodPixels>
          <maxLodPixels>-1</maxLodPixels>
        </Lod>
      </Region>
      <Link>
        <href>../../17/37836/81780.kml</href>
        <viewRefreshMode>onRegion</viewRefreshMode>
        <viewFormat/>
      </Link>
    </NetworkLink>
        
    <NetworkLink>
      <name>17/37837/81780.png</name>
      <Region>
        <LatLonAltBox>
          <north>45.38452148437500</north>
          <south>45.38177490234375</south>
          <east>-76.07482910156250</east>
          <west>-76.07757568359375</west>
        </LatLonAltBox>
        <Lod>
          <minLodPixels>128</minLodPixels>
          <maxLodPixels>-1</maxLodPixels>
        </Lod>
      </Region>
      <Link>
        <href>../../17/37837/81780.kml</href>
        <viewRefreshMode>onRegion</viewRefreshMode>
        <viewFormat/>
      </Link>
    </NetworkLink>
        
    <NetworkLink>
      <name>17/37836/81781.png</name>
      <Region>
        <LatLonAltBox>
          <north>45.38177490234375</north>
          <south>45.37902832031250</south>
          <east>-76.07757568359375</east>
          <west>-76.08032226562500</west>
        </LatLonAltBox>
        <Lod>
          <minLodPixels>128</minLodPixels>
          <maxLodPixels>-1</maxLodPixels>
        </Lod>
      </Region>
      <Link>
        <href>../../17/37836/81781.kml</href>
        <viewRefreshMode>onRegion</viewRefreshMode>
        <viewFormat/>
      </Link>
    </NetworkLink>
        
    <NetworkLink>
      <name>17/37837/81781.png</name>
      <Region>
        <LatLonAltBox>
          <north>45.38177490234375</north>
          <south>45.37902832031250</south>
          <east>-76.07482910156250</east>
          <west>-76.07757568359375</west>
        </LatLonAltBox>
        <Lod>
          <minLodPixels>128</minLodPixels>
          <maxLodPixels>-1</maxLodPixels>
        </Lod>
      </Region>
      <Link>
        <href>../../17/37837/81781.kml</href>
        <viewRefreshMode>onRegion</viewRefreshMode>
        <viewFormat/>
      </Link>
    </NetworkLink>
              </Document>
</kml>
    