<?xml version="1.0" encoding="utf-8"?>
<kml xmlns="http://www.opengis.net/kml/2.2">
  <Document>
    <name>18/75705/98582.kml</name>
    <description></description>
    <Style>
      <ListStyle id="hideChildren">
        <listItemType>checkHideChildren</listItemType>
      </ListStyle>
    </Style>
    <Region>
      <LatLonAltBox>
        <north>45.38314819335938</north>
        <south>45.38177490234375</south>
        <east>-76.03363037109375</east>
        <west>-76.03500366210938</west>
      </LatLonAltBox>
      <Lod>
        <minLodPixels>128</minLodPixels>
        <maxLodPixels>2048</maxLodPixels>
      </Lod>
    </Region>
    <GroundOverlay>
      <drawOrder>36</drawOrder>
      <Icon>
        <href>98582.png</href>
      </Icon>
      <LatLonBox>
        <north>45.38314819335938</north>
        <south>45.38177490234375</south>
        <east>-76.03363037109375</east>
        <west>-76.03500366210938</west>
      </LatLonBox>
    </GroundOverlay>

    <NetworkLink>
      <name>19/151410/197165.png</name>
      <Region>
        <LatLonAltBox>
          <north>45.38314819335938</north>
          <south>45.38246154785156</south>
          <east>-76.03431701660156</east>
          <west>-76.03500366210938</west>
        </LatLonAltBox>
        <Lod>
          <minLodPixels>128</minLodPixels>
          <maxLodPixels>-1</maxLodPixels>
        </Lod>
      </Region>
      <Link>
        <href>https://swmoran.github.io/ch-tiles/tiles_GE/tiles_GE/19/151410/197165.kml</href>
        <viewRefreshMode>onRegion</viewRefreshMode>
        <viewFormat/>
      </Link>
    </NetworkLink>
        
    <NetworkLink>
      <name>19/151411/197165.png</name>
      <Region>
        <LatLonAltBox>
          <north>45.38314819335938</north>
          <south>45.38246154785156</south>
          <east>-76.03363037109375</east>
          <west>-76.03431701660156</west>
        </LatLonAltBox>
        <Lod>
          <minLodPixels>128</minLodPixels>
          <maxLodPixels>-1</maxLodPixels>
        </Lod>
      </Region>
      <Link>
        <href>https://swmoran.github.io/ch-tiles/tiles_GE/tiles_GE/19/151411/197165.kml</href>
        <viewRefreshMode>onRegion</viewRefreshMode>
        <viewFormat/>
      </Link>
    </NetworkLink>
        
    <NetworkLink>
      <name>19/151410/197164.png</name>
      <Region>
        <LatLonAltBox>
          <north>45.38246154785156</north>
          <south>45.38177490234375</south>
          <east>-76.03431701660156</east>
          <west>-76.03500366210938</west>
        </LatLonAltBox>
        <Lod>
          <minLodPixels>128</minLodPixels>
          <maxLodPixels>-1</maxLodPixels>
        </Lod>
      </Region>
      <Link>
        <href>https://swmoran.github.io/ch-tiles/tiles_GE/tiles_GE/19/151410/197164.kml</href>
        <viewRefreshMode>onRegion</viewRefreshMode>
        <viewFormat/>
      </Link>
    </NetworkLink>
        
    <NetworkLink>
      <name>19/151411/197164.png</name>
      <Region>
        <LatLonAltBox>
          <north>45.38246154785156</north>
          <south>45.38177490234375</south>
          <east>-76.03363037109375</east>
          <west>-76.03431701660156</west>
        </LatLonAltBox>
        <Lod>
          <minLodPixels>128</minLodPixels>
          <maxLodPixels>-1</maxLodPixels>
        </Lod>
      </Region>
      <Link>
        <href>https://swmoran.github.io/ch-tiles/tiles_GE/tiles_GE/19/151411/197164.kml</href>
        <viewRefreshMode>onRegion</viewRefreshMode>
        <viewFormat/>
      </Link>
    </NetworkLink>
              </Document>
</kml>
    