<?xml version="1.0" encoding="utf-8"?>
<kml xmlns="http://www.opengis.net/kml/2.2">
  <Document>
    <name>19/151396/197150.kml</name>
    <description></description>
    <Style>
      <ListStyle id="hideChildren">
        <listItemType>checkHideChildren</listItemType>
      </ListStyle>
    </Style>
    <Region>
      <LatLonAltBox>
        <north>134.62783813476562</north>
        <south>134.62715148925781</south>
        <east>-76.04393005371094</east>
        <west>-76.04461669921875</west>
      </LatLonAltBox>
      <Lod>
        <minLodPixels>128</minLodPixels>
        <maxLodPixels>-1</maxLodPixels>
      </Lod>
    </Region>
    <GroundOverlay>
      <drawOrder>38</drawOrder>
      <Icon>
        <href>197150.png</href>
      </Icon>
      <LatLonBox>
        <north>134.62783813476562</north>
        <south>134.62715148925781</south>
        <east>-76.04393005371094</east>
        <west>-76.04461669921875</west>
      </LatLonBox>
    </GroundOverlay>
      </Document>
</kml>
    