<?xml version="1.0" encoding="utf-8"?>
<kml xmlns="http://www.opengis.net/kml/2.2">
  <Document>
    <name>18/75709/163542.kml</name>
    <description></description>
    <Style>
      <ListStyle id="hideChildren">
        <listItemType>checkHideChildren</listItemType>
      </ListStyle>
    </Style>
    <Region>
      <LatLonAltBox>
        <north>45.40924072265625</north>
        <south>45.40786743164062</south>
        <east>-76.02813720703125</east>
        <west>-76.02951049804688</west>
      </LatLonAltBox>
      <Lod>
        <minLodPixels>128</minLodPixels>
        <maxLodPixels>2048</maxLodPixels>
      </Lod>
    </Region>
    <GroundOverlay>
      <drawOrder>36</drawOrder>
      <Icon>
        <href>163542.png</href>
      </Icon>
      <LatLonBox>
        <north>45.40924072265625</north>
        <south>45.40786743164062</south>
        <east>-76.02813720703125</east>
        <west>-76.02951049804688</west>
      </LatLonBox>
    </GroundOverlay>

    <NetworkLink>
      <name>19/151418/327084.png</name>
      <Region>
        <LatLonAltBox>
          <north>45.40924072265625</north>
          <south>45.40855407714844</south>
          <east>-76.02882385253906</east>
          <west>-76.02951049804688</west>
        </LatLonAltBox>
        <Lod>
          <minLodPixels>128</minLodPixels>
          <maxLodPixels>-1</maxLodPixels>
        </Lod>
      </Region>
      <Link>
        <href>../../19/151418/327084.kml</href>
        <viewRefreshMode>onRegion</viewRefreshMode>
        <viewFormat/>
      </Link>
    </NetworkLink>
        
    <NetworkLink>
      <name>19/151419/327084.png</name>
      <Region>
        <LatLonAltBox>
          <north>45.40924072265625</north>
          <south>45.40855407714844</south>
          <east>-76.02813720703125</east>
          <west>-76.02882385253906</west>
        </LatLonAltBox>
        <Lod>
          <minLodPixels>128</minLodPixels>
          <maxLodPixels>-1</maxLodPixels>
        </Lod>
      </Region>
      <Link>
        <href>../../19/151419/327084.kml</href>
        <viewRefreshMode>onRegion</viewRefreshMode>
        <viewFormat/>
      </Link>
    </NetworkLink>
        
    <NetworkLink>
      <name>19/151418/327085.png</name>
      <Region>
        <LatLonAltBox>
          <north>45.40855407714844</north>
          <south>45.40786743164062</south>
          <east>-76.02882385253906</east>
          <west>-76.02951049804688</west>
        </LatLonAltBox>
        <Lod>
          <minLodPixels>128</minLodPixels>
          <maxLodPixels>-1</maxLodPixels>
        </Lod>
      </Region>
      <Link>
        <href>../../19/151418/327085.kml</href>
        <viewRefreshMode>onRegion</viewRefreshMode>
        <viewFormat/>
      </Link>
    </NetworkLink>
        
    <NetworkLink>
      <name>19/151419/327085.png</name>
      <Region>
        <LatLonAltBox>
          <north>45.40855407714844</north>
          <south>45.40786743164062</south>
          <east>-76.02813720703125</east>
          <west>-76.02882385253906</west>
        </LatLonAltBox>
        <Lod>
          <minLodPixels>128</minLodPixels>
          <maxLodPixels>-1</maxLodPixels>
        </Lod>
      </Region>
      <Link>
        <href>../../19/151419/327085.kml</href>
        <viewRefreshMode>onRegion</viewRefreshMode>
        <viewFormat/>
      </Link>
    </NetworkLink>
              </Document>
</kml>
    