<?xml version="1.0" encoding="utf-8"?>
<kml xmlns="http://www.opengis.net/kml/2.2">
  <Document>
    <name>19/151300/197170.kml</name>
    <description></description>
    <Style>
      <ListStyle id="hideChildren">
        <listItemType>checkHideChildren</listItemType>
      </ListStyle>
    </Style>
    <Region>
      <LatLonAltBox>
        <north>45.38658142089844</north>
        <south>45.38589477539062</south>
        <east>-76.10984802246094</east>
        <west>-76.11053466796875</west>
      </LatLonAltBox>
      <Lod>
        <minLodPixels>128</minLodPixels>
        <maxLodPixels>-1</maxLodPixels>
      </Lod>
    </Region>
    <GroundOverlay>
      <drawOrder>38</drawOrder>
      <Icon>
        <href>197170.png</href>
      </Icon>
      <LatLonBox>
        <north>45.38658142089844</north>
        <south>45.38589477539062</south>
        <east>-76.10984802246094</east>
        <west>-76.11053466796875</west>
      </LatLonBox>
    </GroundOverlay>
      </Document>
</kml>
    