<?xml version="1.0" encoding="utf-8"?>
<kml xmlns="http://www.opengis.net/kml/2.2">
  <Document>
    <name>18/75670/168243.kml</name>
    <description></description>
    <Style>
      <ListStyle id="hideChildren">
        <listItemType>checkHideChildren</listItemType>
      </ListStyle>
    </Style>
    <Region>
      <LatLonAltBox>
        <north>45.38687734827037</north>
        <south>45.38591285563495</south>
        <east>-76.08169555664062</east>
        <west>-76.08306884765625</west>
      </LatLonAltBox>
      <Lod>
        <minLodPixels>128</minLodPixels>
        <maxLodPixels>2048</maxLodPixels>
      </Lod>
    </Region>
    <GroundOverlay>
      <drawOrder>36</drawOrder>
      <Icon>
        <href>168243.png</href>
      </Icon>
      <LatLonBox>
        <north>45.38687734827037</north>
        <south>45.38591285563495</south>
        <east>-76.08169555664062</east>
        <west>-76.08306884765625</west>
      </LatLonBox>
    </GroundOverlay>

    <NetworkLink>
      <name>19/151340/336487.png</name>
      <Region>
        <LatLonAltBox>
          <north>45.38687734827037</north>
          <south>45.38639510400971</south>
          <east>-76.08238220214844</east>
          <west>-76.08306884765625</west>
        </LatLonAltBox>
        <Lod>
          <minLodPixels>128</minLodPixels>
          <maxLodPixels>-1</maxLodPixels>
        </Lod>
      </Region>
      <Link>
        <href>../../19/151340/336487.kml</href>
        <viewRefreshMode>onRegion</viewRefreshMode>
        <viewFormat/>
      </Link>
    </NetworkLink>
        
    <NetworkLink>
      <name>19/151341/336487.png</name>
      <Region>
        <LatLonAltBox>
          <north>45.38687734827037</north>
          <south>45.38639510400971</south>
          <east>-76.08169555664062</east>
          <west>-76.08238220214844</west>
        </LatLonAltBox>
        <Lod>
          <minLodPixels>128</minLodPixels>
          <maxLodPixels>-1</maxLodPixels>
        </Lod>
      </Region>
      <Link>
        <href>../../19/151341/336487.kml</href>
        <viewRefreshMode>onRegion</viewRefreshMode>
        <viewFormat/>
      </Link>
    </NetworkLink>
        
    <NetworkLink>
      <name>19/151340/336486.png</name>
      <Region>
        <LatLonAltBox>
          <north>45.38639510400971</north>
          <south>45.38591285563495</south>
          <east>-76.08238220214844</east>
          <west>-76.08306884765625</west>
        </LatLonAltBox>
        <Lod>
          <minLodPixels>128</minLodPixels>
          <maxLodPixels>-1</maxLodPixels>
        </Lod>
      </Region>
      <Link>
        <href>../../19/151340/336486.kml</href>
        <viewRefreshMode>onRegion</viewRefreshMode>
        <viewFormat/>
      </Link>
    </NetworkLink>
        
    <NetworkLink>
      <name>19/151341/336486.png</name>
      <Region>
        <LatLonAltBox>
          <north>45.38639510400971</north>
          <south>45.38591285563495</south>
          <east>-76.08169555664062</east>
          <west>-76.08238220214844</west>
        </LatLonAltBox>
        <Lod>
          <minLodPixels>128</minLodPixels>
          <maxLodPixels>-1</maxLodPixels>
        </Lod>
      </Region>
      <Link>
        <href>../../19/151341/336486.kml</href>
        <viewRefreshMode>onRegion</viewRefreshMode>
        <viewFormat/>
      </Link>
    </NetworkLink>
              </Document>
</kml>
    