<?xml version="1.0" encoding="utf-8"?>
<kml xmlns="http://www.opengis.net/kml/2.2">
  <Document>
    <name>19/151331/197152.kml</name>
    <description></description>
    <Style>
      <ListStyle id="hideChildren">
        <listItemType>checkHideChildren</listItemType>
      </ListStyle>
    </Style>
    <Region>
      <LatLonAltBox>
        <north>45.37422180175781</north>
        <south>45.37353515625000</south>
        <east>-76.08856201171875</east>
        <west>-76.08924865722656</west>
      </LatLonAltBox>
      <Lod>
        <minLodPixels>128</minLodPixels>
        <maxLodPixels>-1</maxLodPixels>
      </Lod>
    </Region>
    <GroundOverlay>
      <drawOrder>38</drawOrder>
      <Icon>
        <href>197152.png</href>
      </Icon>
      <LatLonBox>
        <north>45.37422180175781</north>
        <south>45.37353515625000</south>
        <east>-76.08856201171875</east>
        <west>-76.08924865722656</west>
      </LatLonBox>
    </GroundOverlay>
      </Document>
</kml>
    