<?xml version="1.0" encoding="utf-8"?>
<kml xmlns="http://www.opengis.net/kml/2.2">
  <Document>
    <name>19/151396/197187.kml</name>
    <description></description>
    <Style>
      <ListStyle id="hideChildren">
        <listItemType>checkHideChildren</listItemType>
      </ListStyle>
    </Style>
    <Region>
      <LatLonAltBox>
        <north>45.39825439453125</north>
        <south>45.39756774902344</south>
        <east>-76.04393005371094</east>
        <west>-76.04461669921875</west>
      </LatLonAltBox>
      <Lod>
        <minLodPixels>128</minLodPixels>
        <maxLodPixels>-1</maxLodPixels>
      </Lod>
    </Region>
    <GroundOverlay>
      <drawOrder>38</drawOrder>
      <Icon>
        <href>197187.png</href>
      </Icon>
      <LatLonBox>
        <north>45.39825439453125</north>
        <south>45.39756774902344</south>
        <east>-76.04393005371094</east>
        <west>-76.04461669921875</west>
      </LatLonBox>
    </GroundOverlay>
      </Document>
</kml>
    