<?xml version="1.0" encoding="utf-8"?>
<kml xmlns="http://www.opengis.net/kml/2.2">
  <Document>
    <name>19/151333/197194.kml</name>
    <description></description>
    <Style>
      <ListStyle id="hideChildren">
        <listItemType>checkHideChildren</listItemType>
      </ListStyle>
    </Style>
    <Region>
      <LatLonAltBox>
        <north>134.59762573242188</north>
        <south>134.59693908691406</south>
        <east>-76.08718872070312</east>
        <west>-76.08787536621094</west>
      </LatLonAltBox>
      <Lod>
        <minLodPixels>128</minLodPixels>
        <maxLodPixels>-1</maxLodPixels>
      </Lod>
    </Region>
    <GroundOverlay>
      <drawOrder>38</drawOrder>
      <Icon>
        <href>197194.png</href>
      </Icon>
      <LatLonBox>
        <north>134.59762573242188</north>
        <south>134.59693908691406</south>
        <east>-76.08718872070312</east>
        <west>-76.08787536621094</west>
      </LatLonBox>
    </GroundOverlay>
      </Document>
</kml>
    