<?xml version="1.0" encoding="utf-8"?>
<kml xmlns="http://www.opengis.net/kml/2.2">
  <Document>
    <name>18/75673/168217.kml</name>
    <description></description>
    <Style>
      <ListStyle id="hideChildren">
        <listItemType>checkHideChildren</listItemType>
      </ListStyle>
    </Style>
    <Region>
      <LatLonAltBox>
        <north>45.36179519142128</north>
        <south>45.36083027091878</south>
        <east>-76.07757568359376</east>
        <west>-76.07894897460939</west>
      </LatLonAltBox>
      <Lod>
        <minLodPixels>128</minLodPixels>
        <maxLodPixels>2048</maxLodPixels>
      </Lod>
    </Region>
    <GroundOverlay>
      <drawOrder>36</drawOrder>
      <Icon>
        <href>168217.png</href>
      </Icon>
      <LatLonBox>
        <north>45.36179519142128</north>
        <south>45.36083027091878</south>
        <east>-76.07757568359376</east>
        <west>-76.07894897460939</west>
      </LatLonBox>
    </GroundOverlay>

    <NetworkLink>
      <name>19/151346/336435.png</name>
      <Region>
        <LatLonAltBox>
          <north>45.36179519142128</north>
          <south>45.36131273322709</south>
          <east>-76.07826232910158</east>
          <west>-76.07894897460939</west>
        </LatLonAltBox>
        <Lod>
          <minLodPixels>128</minLodPixels>
          <maxLodPixels>-1</maxLodPixels>
        </Lod>
      </Region>
      <Link>
        <href>../../19/151346/336435.kml</href>
        <viewRefreshMode>onRegion</viewRefreshMode>
        <viewFormat/>
      </Link>
    </NetworkLink>
        
    <NetworkLink>
      <name>19/151347/336435.png</name>
      <Region>
        <LatLonAltBox>
          <north>45.36179519142128</north>
          <south>45.36131273322709</south>
          <east>-76.07757568359376</east>
          <west>-76.07826232910158</west>
        </LatLonAltBox>
        <Lod>
          <minLodPixels>128</minLodPixels>
          <maxLodPixels>-1</maxLodPixels>
        </Lod>
      </Region>
      <Link>
        <href>../../19/151347/336435.kml</href>
        <viewRefreshMode>onRegion</viewRefreshMode>
        <viewFormat/>
      </Link>
    </NetworkLink>
        
    <NetworkLink>
      <name>19/151346/336434.png</name>
      <Region>
        <LatLonAltBox>
          <north>45.36131273322709</north>
          <south>45.36083027091878</south>
          <east>-76.07826232910158</east>
          <west>-76.07894897460939</west>
        </LatLonAltBox>
        <Lod>
          <minLodPixels>128</minLodPixels>
          <maxLodPixels>-1</maxLodPixels>
        </Lod>
      </Region>
      <Link>
        <href>../../19/151346/336434.kml</href>
        <viewRefreshMode>onRegion</viewRefreshMode>
        <viewFormat/>
      </Link>
    </NetworkLink>
        
    <NetworkLink>
      <name>19/151347/336434.png</name>
      <Region>
        <LatLonAltBox>
          <north>45.36131273322709</north>
          <south>45.36083027091878</south>
          <east>-76.07757568359376</east>
          <west>-76.07826232910158</west>
        </LatLonAltBox>
        <Lod>
          <minLodPixels>128</minLodPixels>
          <maxLodPixels>-1</maxLodPixels>
        </Lod>
      </Region>
      <Link>
        <href>../../19/151347/336434.kml</href>
        <viewRefreshMode>onRegion</viewRefreshMode>
        <viewFormat/>
      </Link>
    </NetworkLink>
              </Document>
</kml>
    