<?xml version="1.0" encoding="utf-8"?>
<kml xmlns="http://www.opengis.net/kml/2.2">
  <Document>
    <name>18/75710/168230.kml</name>
    <description></description>
    <Style>
      <ListStyle id="hideChildren">
        <listItemType>checkHideChildren</listItemType>
      </ListStyle>
    </Style>
    <Region>
      <LatLonAltBox>
        <north>45.37433766041358</north>
        <south>45.37337295384522</south>
        <east>-76.02676391601562</east>
        <west>-76.02813720703124</west>
      </LatLonAltBox>
      <Lod>
        <minLodPixels>128</minLodPixels>
        <maxLodPixels>2048</maxLodPixels>
      </Lod>
    </Region>
    <GroundOverlay>
      <drawOrder>36</drawOrder>
      <Icon>
        <href>168230.png</href>
      </Icon>
      <LatLonBox>
        <north>45.37433766041358</north>
        <south>45.37337295384522</south>
        <east>-76.02676391601562</east>
        <west>-76.02813720703124</west>
      </LatLonBox>
    </GroundOverlay>

    <NetworkLink>
      <name>19/151420/336461.png</name>
      <Region>
        <LatLonAltBox>
          <north>45.37433766041358</north>
          <south>45.37385530918648</south>
          <east>-76.02745056152344</east>
          <west>-76.02813720703124</west>
        </LatLonAltBox>
        <Lod>
          <minLodPixels>128</minLodPixels>
          <maxLodPixels>-1</maxLodPixels>
        </Lod>
      </Region>
      <Link>
        <href>../../19/151420/336461.kml</href>
        <viewRefreshMode>onRegion</viewRefreshMode>
        <viewFormat/>
      </Link>
    </NetworkLink>
        
    <NetworkLink>
      <name>19/151421/336461.png</name>
      <Region>
        <LatLonAltBox>
          <north>45.37433766041358</north>
          <south>45.37385530918648</south>
          <east>-76.02676391601562</east>
          <west>-76.02745056152344</west>
        </LatLonAltBox>
        <Lod>
          <minLodPixels>128</minLodPixels>
          <maxLodPixels>-1</maxLodPixels>
        </Lod>
      </Region>
      <Link>
        <href>../../19/151421/336461.kml</href>
        <viewRefreshMode>onRegion</viewRefreshMode>
        <viewFormat/>
      </Link>
    </NetworkLink>
        
    <NetworkLink>
      <name>19/151420/336460.png</name>
      <Region>
        <LatLonAltBox>
          <north>45.37385530918648</north>
          <south>45.37337295384522</south>
          <east>-76.02745056152344</east>
          <west>-76.02813720703124</west>
        </LatLonAltBox>
        <Lod>
          <minLodPixels>128</minLodPixels>
          <maxLodPixels>-1</maxLodPixels>
        </Lod>
      </Region>
      <Link>
        <href>../../19/151420/336460.kml</href>
        <viewRefreshMode>onRegion</viewRefreshMode>
        <viewFormat/>
      </Link>
    </NetworkLink>
        
    <NetworkLink>
      <name>19/151421/336460.png</name>
      <Region>
        <LatLonAltBox>
          <north>45.37385530918648</north>
          <south>45.37337295384522</south>
          <east>-76.02676391601562</east>
          <west>-76.02745056152344</west>
        </LatLonAltBox>
        <Lod>
          <minLodPixels>128</minLodPixels>
          <maxLodPixels>-1</maxLodPixels>
        </Lod>
      </Region>
      <Link>
        <href>../../19/151421/336460.kml</href>
        <viewRefreshMode>onRegion</viewRefreshMode>
        <viewFormat/>
      </Link>
    </NetworkLink>
              </Document>
</kml>
    