<?xml version="1.0" encoding="utf-8"?>
<kml xmlns="http://www.opengis.net/kml/2.2">
  <Document>
    <name>18/75673/98590.kml</name>
    <description></description>
    <Style>
      <ListStyle id="hideChildren">
        <listItemType>checkHideChildren</listItemType>
      </ListStyle>
    </Style>
    <Region>
      <LatLonAltBox>
        <north>45.39413452148438</north>
        <south>45.39276123046875</south>
        <east>-76.07757568359375</east>
        <west>-76.07894897460938</west>
      </LatLonAltBox>
      <Lod>
        <minLodPixels>128</minLodPixels>
        <maxLodPixels>2048</maxLodPixels>
      </Lod>
    </Region>
    <GroundOverlay>
      <drawOrder>36</drawOrder>
      <Icon>
        <href>98590.png</href>
      </Icon>
      <LatLonBox>
        <north>45.39413452148438</north>
        <south>45.39276123046875</south>
        <east>-76.07757568359375</east>
        <west>-76.07894897460938</west>
      </LatLonBox>
    </GroundOverlay>

    <NetworkLink>
      <name>19/151346/197181.png</name>
      <Region>
        <LatLonAltBox>
          <north>45.39413452148438</north>
          <south>45.39344787597656</south>
          <east>-76.07826232910156</east>
          <west>-76.07894897460938</west>
        </LatLonAltBox>
        <Lod>
          <minLodPixels>128</minLodPixels>
          <maxLodPixels>-1</maxLodPixels>
        </Lod>
      </Region>
      <Link>
        <href>https://swmoran.github.io/ch-tiles/tiles/DRAPE_Tiles/19/151346/197181.kml</href>
        <viewRefreshMode>onRegion</viewRefreshMode>
        <viewFormat/>
      </Link>
    </NetworkLink>
        
    <NetworkLink>
      <name>19/151347/197181.png</name>
      <Region>
        <LatLonAltBox>
          <north>45.39413452148438</north>
          <south>45.39344787597656</south>
          <east>-76.07757568359375</east>
          <west>-76.07826232910156</west>
        </LatLonAltBox>
        <Lod>
          <minLodPixels>128</minLodPixels>
          <maxLodPixels>-1</maxLodPixels>
        </Lod>
      </Region>
      <Link>
        <href>https://swmoran.github.io/ch-tiles/tiles/DRAPE_Tiles/19/151347/197181.kml</href>
        <viewRefreshMode>onRegion</viewRefreshMode>
        <viewFormat/>
      </Link>
    </NetworkLink>
        
    <NetworkLink>
      <name>19/151346/197180.png</name>
      <Region>
        <LatLonAltBox>
          <north>45.39344787597656</north>
          <south>45.39276123046875</south>
          <east>-76.07826232910156</east>
          <west>-76.07894897460938</west>
        </LatLonAltBox>
        <Lod>
          <minLodPixels>128</minLodPixels>
          <maxLodPixels>-1</maxLodPixels>
        </Lod>
      </Region>
      <Link>
        <href>https://swmoran.github.io/ch-tiles/tiles/DRAPE_Tiles/19/151346/197180.kml</href>
        <viewRefreshMode>onRegion</viewRefreshMode>
        <viewFormat/>
      </Link>
    </NetworkLink>
        
    <NetworkLink>
      <name>19/151347/197180.png</name>
      <Region>
        <LatLonAltBox>
          <north>45.39344787597656</north>
          <south>45.39276123046875</south>
          <east>-76.07757568359375</east>
          <west>-76.07826232910156</west>
        </LatLonAltBox>
        <Lod>
          <minLodPixels>128</minLodPixels>
          <maxLodPixels>-1</maxLodPixels>
        </Lod>
      </Region>
      <Link>
        <href>https://swmoran.github.io/ch-tiles/tiles/DRAPE_Tiles/19/151347/197180.kml</href>
        <viewRefreshMode>onRegion</viewRefreshMode>
        <viewFormat/>
      </Link>
    </NetworkLink>
              </Document>
</kml>
    