<?xml version="1.0" encoding="utf-8"?>
<kml xmlns="http://www.opengis.net/kml/2.2">
  <Document>
    <name>17/37851/81774.kml</name>
    <description></description>
    <Style>
      <ListStyle id="hideChildren">
        <listItemType>checkHideChildren</listItemType>
      </ListStyle>
    </Style>
    <Region>
      <LatLonAltBox>
        <north>45.40100097656250</north>
        <south>45.39825439453125</south>
        <east>-76.03637695312500</east>
        <west>-76.03912353515625</west>
      </LatLonAltBox>
      <Lod>
        <minLodPixels>128</minLodPixels>
        <maxLodPixels>2048</maxLodPixels>
      </Lod>
    </Region>
    <GroundOverlay>
      <drawOrder>34</drawOrder>
      <Icon>
        <href>81774.png</href>
      </Icon>
      <LatLonBox>
        <north>45.40100097656250</north>
        <south>45.39825439453125</south>
        <east>-76.03637695312500</east>
        <west>-76.03912353515625</west>
      </LatLonBox>
    </GroundOverlay>

    <NetworkLink>
      <name>18/75702/163548.png</name>
      <Region>
        <LatLonAltBox>
          <north>45.40100097656250</north>
          <south>45.39962768554688</south>
          <east>-76.03775024414062</east>
          <west>-76.03912353515625</west>
        </LatLonAltBox>
        <Lod>
          <minLodPixels>128</minLodPixels>
          <maxLodPixels>-1</maxLodPixels>
        </Lod>
      </Region>
      <Link>
        <href>../../18/75702/163548.kml</href>
        <viewRefreshMode>onRegion</viewRefreshMode>
        <viewFormat/>
      </Link>
    </NetworkLink>
        
    <NetworkLink>
      <name>18/75703/163548.png</name>
      <Region>
        <LatLonAltBox>
          <north>45.40100097656250</north>
          <south>45.39962768554688</south>
          <east>-76.03637695312500</east>
          <west>-76.03775024414062</west>
        </LatLonAltBox>
        <Lod>
          <minLodPixels>128</minLodPixels>
          <maxLodPixels>-1</maxLodPixels>
        </Lod>
      </Region>
      <Link>
        <href>../../18/75703/163548.kml</href>
        <viewRefreshMode>onRegion</viewRefreshMode>
        <viewFormat/>
      </Link>
    </NetworkLink>
        
    <NetworkLink>
      <name>18/75702/163549.png</name>
      <Region>
        <LatLonAltBox>
          <north>45.39962768554688</north>
          <south>45.39825439453125</south>
          <east>-76.03775024414062</east>
          <west>-76.03912353515625</west>
        </LatLonAltBox>
        <Lod>
          <minLodPixels>128</minLodPixels>
          <maxLodPixels>-1</maxLodPixels>
        </Lod>
      </Region>
      <Link>
        <href>../../18/75702/163549.kml</href>
        <viewRefreshMode>onRegion</viewRefreshMode>
        <viewFormat/>
      </Link>
    </NetworkLink>
        
    <NetworkLink>
      <name>18/75703/163549.png</name>
      <Region>
        <LatLonAltBox>
          <north>45.39962768554688</north>
          <south>45.39825439453125</south>
          <east>-76.03637695312500</east>
          <west>-76.03775024414062</west>
        </LatLonAltBox>
        <Lod>
          <minLodPixels>128</minLodPixels>
          <maxLodPixels>-1</maxLodPixels>
        </Lod>
      </Region>
      <Link>
        <href>../../18/75703/163549.kml</href>
        <viewRefreshMode>onRegion</viewRefreshMode>
        <viewFormat/>
      </Link>
    </NetworkLink>
              </Document>
</kml>
    