<?xml version="1.0" encoding="utf-8"?>
<kml xmlns="http://www.opengis.net/kml/2.2">
  <Document>
    <name>18/75693/168226.kml</name>
    <description></description>
    <Style>
      <ListStyle id="hideChildren">
        <listItemType>checkHideChildren</listItemType>
      </ListStyle>
    </Style>
    <Region>
      <LatLonAltBox>
        <north>45.37047873540156</north>
        <south>45.36951396300744</south>
        <east>-76.05010986328124</east>
        <west>-76.05148315429686</west>
      </LatLonAltBox>
      <Lod>
        <minLodPixels>128</minLodPixels>
        <maxLodPixels>2048</maxLodPixels>
      </Lod>
    </Region>
    <GroundOverlay>
      <drawOrder>36</drawOrder>
      <Icon>
        <href>168226.png</href>
      </Icon>
      <LatLonBox>
        <north>45.37047873540156</north>
        <south>45.36951396300744</south>
        <east>-76.05010986328124</east>
        <west>-76.05148315429686</west>
      </LatLonBox>
    </GroundOverlay>

    <NetworkLink>
      <name>19/151386/336453.png</name>
      <Region>
        <LatLonAltBox>
          <north>45.37047873540156</north>
          <south>45.36999635126154</south>
          <east>-76.05079650878905</east>
          <west>-76.05148315429686</west>
        </LatLonAltBox>
        <Lod>
          <minLodPixels>128</minLodPixels>
          <maxLodPixels>-1</maxLodPixels>
        </Lod>
      </Region>
      <Link>
        <href>../../19/151386/336453.kml</href>
        <viewRefreshMode>onRegion</viewRefreshMode>
        <viewFormat/>
      </Link>
    </NetworkLink>
        
    <NetworkLink>
      <name>19/151387/336453.png</name>
      <Region>
        <LatLonAltBox>
          <north>45.37047873540156</north>
          <south>45.36999635126154</south>
          <east>-76.05010986328124</east>
          <west>-76.05079650878905</west>
        </LatLonAltBox>
        <Lod>
          <minLodPixels>128</minLodPixels>
          <maxLodPixels>-1</maxLodPixels>
        </Lod>
      </Region>
      <Link>
        <href>../../19/151387/336453.kml</href>
        <viewRefreshMode>onRegion</viewRefreshMode>
        <viewFormat/>
      </Link>
    </NetworkLink>
        
    <NetworkLink>
      <name>19/151386/336452.png</name>
      <Region>
        <LatLonAltBox>
          <north>45.36999635126154</north>
          <south>45.36951396300744</south>
          <east>-76.05079650878905</east>
          <west>-76.05148315429686</west>
        </LatLonAltBox>
        <Lod>
          <minLodPixels>128</minLodPixels>
          <maxLodPixels>-1</maxLodPixels>
        </Lod>
      </Region>
      <Link>
        <href>../../19/151386/336452.kml</href>
        <viewRefreshMode>onRegion</viewRefreshMode>
        <viewFormat/>
      </Link>
    </NetworkLink>
        
    <NetworkLink>
      <name>19/151387/336452.png</name>
      <Region>
        <LatLonAltBox>
          <north>45.36999635126154</north>
          <south>45.36951396300744</south>
          <east>-76.05010986328124</east>
          <west>-76.05079650878905</west>
        </LatLonAltBox>
        <Lod>
          <minLodPixels>128</minLodPixels>
          <maxLodPixels>-1</maxLodPixels>
        </Lod>
      </Region>
      <Link>
        <href>../../19/151387/336452.kml</href>
        <viewRefreshMode>onRegion</viewRefreshMode>
        <viewFormat/>
      </Link>
    </NetworkLink>
              </Document>
</kml>
    