<?xml version="1.0" encoding="utf-8"?>
<kml xmlns="http://www.opengis.net/kml/2.2">
  <Document>
    <name>18/75657/98584.kml</name>
    <description></description>
    <Style>
      <ListStyle id="hideChildren">
        <listItemType>checkHideChildren</listItemType>
      </ListStyle>
    </Style>
    <Region>
      <LatLonAltBox>
        <north>45.38589477539062</north>
        <south>45.38452148437500</south>
        <east>-76.09954833984375</east>
        <west>-76.10092163085938</west>
      </LatLonAltBox>
      <Lod>
        <minLodPixels>128</minLodPixels>
        <maxLodPixels>2048</maxLodPixels>
      </Lod>
    </Region>
    <GroundOverlay>
      <drawOrder>36</drawOrder>
      <Icon>
        <href>98584.png</href>
      </Icon>
      <LatLonBox>
        <north>45.38589477539062</north>
        <south>45.38452148437500</south>
        <east>-76.09954833984375</east>
        <west>-76.10092163085938</west>
      </LatLonBox>
    </GroundOverlay>

    <NetworkLink>
      <name>19/151314/197169.png</name>
      <Region>
        <LatLonAltBox>
          <north>45.38589477539062</north>
          <south>45.38520812988281</south>
          <east>-76.10023498535156</east>
          <west>-76.10092163085938</west>
        </LatLonAltBox>
        <Lod>
          <minLodPixels>128</minLodPixels>
          <maxLodPixels>-1</maxLodPixels>
        </Lod>
      </Region>
      <Link>
        <href>../../19/151314/197169.kml</href>
        <viewRefreshMode>onRegion</viewRefreshMode>
        <viewFormat/>
      </Link>
    </NetworkLink>
        
    <NetworkLink>
      <name>19/151315/197169.png</name>
      <Region>
        <LatLonAltBox>
          <north>45.38589477539062</north>
          <south>45.38520812988281</south>
          <east>-76.09954833984375</east>
          <west>-76.10023498535156</west>
        </LatLonAltBox>
        <Lod>
          <minLodPixels>128</minLodPixels>
          <maxLodPixels>-1</maxLodPixels>
        </Lod>
      </Region>
      <Link>
        <href>../../19/151315/197169.kml</href>
        <viewRefreshMode>onRegion</viewRefreshMode>
        <viewFormat/>
      </Link>
    </NetworkLink>
        
    <NetworkLink>
      <name>19/151314/197168.png</name>
      <Region>
        <LatLonAltBox>
          <north>45.38520812988281</north>
          <south>45.38452148437500</south>
          <east>-76.10023498535156</east>
          <west>-76.10092163085938</west>
        </LatLonAltBox>
        <Lod>
          <minLodPixels>128</minLodPixels>
          <maxLodPixels>-1</maxLodPixels>
        </Lod>
      </Region>
      <Link>
        <href>../../19/151314/197168.kml</href>
        <viewRefreshMode>onRegion</viewRefreshMode>
        <viewFormat/>
      </Link>
    </NetworkLink>
        
    <NetworkLink>
      <name>19/151315/197168.png</name>
      <Region>
        <LatLonAltBox>
          <north>45.38520812988281</north>
          <south>45.38452148437500</south>
          <east>-76.09954833984375</east>
          <west>-76.10023498535156</west>
        </LatLonAltBox>
        <Lod>
          <minLodPixels>128</minLodPixels>
          <maxLodPixels>-1</maxLodPixels>
        </Lod>
      </Region>
      <Link>
        <href>../../19/151315/197168.kml</href>
        <viewRefreshMode>onRegion</viewRefreshMode>
        <viewFormat/>
      </Link>
    </NetworkLink>
              </Document>
</kml>
    