<?xml version="1.0" encoding="utf-8"?>
<kml xmlns="http://www.opengis.net/kml/2.2">
  <Document>
    <name>16/18916/24650.kml</name>
    <description></description>
    <Style>
      <ListStyle id="hideChildren">
        <listItemType>checkHideChildren</listItemType>
      </ListStyle>
    </Style>
    <Region>
      <LatLonAltBox>
        <north>45.41198730468750</north>
        <south>45.40649414062500</south>
        <east>-76.08581542968750</east>
        <west>-76.09130859375000</west>
      </LatLonAltBox>
      <Lod>
        <minLodPixels>128</minLodPixels>
        <maxLodPixels>2048</maxLodPixels>
      </Lod>
    </Region>
    <GroundOverlay>
      <drawOrder>32</drawOrder>
      <Icon>
        <href>24650.png</href>
      </Icon>
      <LatLonBox>
        <north>45.41198730468750</north>
        <south>45.40649414062500</south>
        <east>-76.08581542968750</east>
        <west>-76.09130859375000</west>
      </LatLonBox>
    </GroundOverlay>

    <NetworkLink>
      <name>17/37832/49301.png</name>
      <Region>
        <LatLonAltBox>
          <north>45.41198730468750</north>
          <south>45.40924072265625</south>
          <east>-76.08856201171875</east>
          <west>-76.09130859375000</west>
        </LatLonAltBox>
        <Lod>
          <minLodPixels>128</minLodPixels>
          <maxLodPixels>-1</maxLodPixels>
        </Lod>
      </Region>
      <Link>
        <href>https://swmoran.github.io/ch-tiles/tiles_GE/tiles_GE/17/37832/49301.kml</href>
        <viewRefreshMode>onRegion</viewRefreshMode>
        <viewFormat/>
      </Link>
    </NetworkLink>
        
    <NetworkLink>
      <name>17/37833/49301.png</name>
      <Region>
        <LatLonAltBox>
          <north>45.41198730468750</north>
          <south>45.40924072265625</south>
          <east>-76.08581542968750</east>
          <west>-76.08856201171875</west>
        </LatLonAltBox>
        <Lod>
          <minLodPixels>128</minLodPixels>
          <maxLodPixels>-1</maxLodPixels>
        </Lod>
      </Region>
      <Link>
        <href>https://swmoran.github.io/ch-tiles/tiles_GE/tiles_GE/17/37833/49301.kml</href>
        <viewRefreshMode>onRegion</viewRefreshMode>
        <viewFormat/>
      </Link>
    </NetworkLink>
        
    <NetworkLink>
      <name>17/37832/49300.png</name>
      <Region>
        <LatLonAltBox>
          <north>45.40924072265625</north>
          <south>45.40649414062500</south>
          <east>-76.08856201171875</east>
          <west>-76.09130859375000</west>
        </LatLonAltBox>
        <Lod>
          <minLodPixels>128</minLodPixels>
          <maxLodPixels>-1</maxLodPixels>
        </Lod>
      </Region>
      <Link>
        <href>https://swmoran.github.io/ch-tiles/tiles_GE/tiles_GE/17/37832/49300.kml</href>
        <viewRefreshMode>onRegion</viewRefreshMode>
        <viewFormat/>
      </Link>
    </NetworkLink>
        
    <NetworkLink>
      <name>17/37833/49300.png</name>
      <Region>
        <LatLonAltBox>
          <north>45.40924072265625</north>
          <south>45.40649414062500</south>
          <east>-76.08581542968750</east>
          <west>-76.08856201171875</west>
        </LatLonAltBox>
        <Lod>
          <minLodPixels>128</minLodPixels>
          <maxLodPixels>-1</maxLodPixels>
        </Lod>
      </Region>
      <Link>
        <href>https://swmoran.github.io/ch-tiles/tiles_GE/tiles_GE/17/37833/49300.kml</href>
        <viewRefreshMode>onRegion</viewRefreshMode>
        <viewFormat/>
      </Link>
    </NetworkLink>
              </Document>
</kml>
    