<?xml version="1.0" encoding="utf-8"?>
<kml xmlns="http://www.opengis.net/kml/2.2">
  <Document>
    <name>16/18915/40892.kml</name>
    <description></description>
    <Style>
      <ListStyle id="hideChildren">
        <listItemType>checkHideChildren</listItemType>
      </ListStyle>
    </Style>
    <Region>
      <LatLonAltBox>
        <north>45.37353515625000</north>
        <south>45.36804199218750</south>
        <east>-76.09130859375000</east>
        <west>-76.09680175781250</west>
      </LatLonAltBox>
      <Lod>
        <minLodPixels>128</minLodPixels>
        <maxLodPixels>2048</maxLodPixels>
      </Lod>
    </Region>
    <GroundOverlay>
      <drawOrder>32</drawOrder>
      <Icon>
        <href>40892.png</href>
      </Icon>
      <LatLonBox>
        <north>45.37353515625000</north>
        <south>45.36804199218750</south>
        <east>-76.09130859375000</east>
        <west>-76.09680175781250</west>
      </LatLonBox>
    </GroundOverlay>

    <NetworkLink>
      <name>17/37830/81784.png</name>
      <Region>
        <LatLonAltBox>
          <north>45.37353515625000</north>
          <south>45.37078857421875</south>
          <east>-76.09405517578125</east>
          <west>-76.09680175781250</west>
        </LatLonAltBox>
        <Lod>
          <minLodPixels>128</minLodPixels>
          <maxLodPixels>-1</maxLodPixels>
        </Lod>
      </Region>
      <Link>
        <href>../../17/37830/81784.kml</href>
        <viewRefreshMode>onRegion</viewRefreshMode>
        <viewFormat/>
      </Link>
    </NetworkLink>
        
    <NetworkLink>
      <name>17/37831/81784.png</name>
      <Region>
        <LatLonAltBox>
          <north>45.37353515625000</north>
          <south>45.37078857421875</south>
          <east>-76.09130859375000</east>
          <west>-76.09405517578125</west>
        </LatLonAltBox>
        <Lod>
          <minLodPixels>128</minLodPixels>
          <maxLodPixels>-1</maxLodPixels>
        </Lod>
      </Region>
      <Link>
        <href>../../17/37831/81784.kml</href>
        <viewRefreshMode>onRegion</viewRefreshMode>
        <viewFormat/>
      </Link>
    </NetworkLink>
        
    <NetworkLink>
      <name>17/37830/81785.png</name>
      <Region>
        <LatLonAltBox>
          <north>45.37078857421875</north>
          <south>45.36804199218750</south>
          <east>-76.09405517578125</east>
          <west>-76.09680175781250</west>
        </LatLonAltBox>
        <Lod>
          <minLodPixels>128</minLodPixels>
          <maxLodPixels>-1</maxLodPixels>
        </Lod>
      </Region>
      <Link>
        <href>../../17/37830/81785.kml</href>
        <viewRefreshMode>onRegion</viewRefreshMode>
        <viewFormat/>
      </Link>
    </NetworkLink>
        
    <NetworkLink>
      <name>17/37831/81785.png</name>
      <Region>
        <LatLonAltBox>
          <north>45.37078857421875</north>
          <south>45.36804199218750</south>
          <east>-76.09130859375000</east>
          <west>-76.09405517578125</west>
        </LatLonAltBox>
        <Lod>
          <minLodPixels>128</minLodPixels>
          <maxLodPixels>-1</maxLodPixels>
        </Lod>
      </Region>
      <Link>
        <href>../../17/37831/81785.kml</href>
        <viewRefreshMode>onRegion</viewRefreshMode>
        <viewFormat/>
      </Link>
    </NetworkLink>
              </Document>
</kml>
    