<?xml version="1.0" encoding="utf-8"?>
<kml xmlns="http://www.opengis.net/kml/2.2">
  <Document>
    <name>17/37850/49296.kml</name>
    <description></description>
    <Style>
      <ListStyle id="hideChildren">
        <listItemType>checkHideChildren</listItemType>
      </ListStyle>
    </Style>
    <Region>
      <LatLonAltBox>
        <north>45.39825439453125</north>
        <south>45.39550781250000</south>
        <east>-76.03912353515625</east>
        <west>-76.04187011718750</west>
      </LatLonAltBox>
      <Lod>
        <minLodPixels>128</minLodPixels>
        <maxLodPixels>2048</maxLodPixels>
      </Lod>
    </Region>
    <GroundOverlay>
      <drawOrder>34</drawOrder>
      <Icon>
        <href>49296.png</href>
      </Icon>
      <LatLonBox>
        <north>45.39825439453125</north>
        <south>45.39550781250000</south>
        <east>-76.03912353515625</east>
        <west>-76.04187011718750</west>
      </LatLonBox>
    </GroundOverlay>

    <NetworkLink>
      <name>18/75700/98593.png</name>
      <Region>
        <LatLonAltBox>
          <north>45.39825439453125</north>
          <south>45.39688110351562</south>
          <east>-76.04049682617188</east>
          <west>-76.04187011718750</west>
        </LatLonAltBox>
        <Lod>
          <minLodPixels>128</minLodPixels>
          <maxLodPixels>-1</maxLodPixels>
        </Lod>
      </Region>
      <Link>
        <href>../../18/75700/98593.kml</href>
        <viewRefreshMode>onRegion</viewRefreshMode>
        <viewFormat/>
      </Link>
    </NetworkLink>
        
    <NetworkLink>
      <name>18/75701/98593.png</name>
      <Region>
        <LatLonAltBox>
          <north>45.39825439453125</north>
          <south>45.39688110351562</south>
          <east>-76.03912353515625</east>
          <west>-76.04049682617188</west>
        </LatLonAltBox>
        <Lod>
          <minLodPixels>128</minLodPixels>
          <maxLodPixels>-1</maxLodPixels>
        </Lod>
      </Region>
      <Link>
        <href>../../18/75701/98593.kml</href>
        <viewRefreshMode>onRegion</viewRefreshMode>
        <viewFormat/>
      </Link>
    </NetworkLink>
        
    <NetworkLink>
      <name>18/75700/98592.png</name>
      <Region>
        <LatLonAltBox>
          <north>45.39688110351562</north>
          <south>45.39550781250000</south>
          <east>-76.04049682617188</east>
          <west>-76.04187011718750</west>
        </LatLonAltBox>
        <Lod>
          <minLodPixels>128</minLodPixels>
          <maxLodPixels>-1</maxLodPixels>
        </Lod>
      </Region>
      <Link>
        <href>../../18/75700/98592.kml</href>
        <viewRefreshMode>onRegion</viewRefreshMode>
        <viewFormat/>
      </Link>
    </NetworkLink>
        
    <NetworkLink>
      <name>18/75701/98592.png</name>
      <Region>
        <LatLonAltBox>
          <north>45.39688110351562</north>
          <south>45.39550781250000</south>
          <east>-76.03912353515625</east>
          <west>-76.04049682617188</west>
        </LatLonAltBox>
        <Lod>
          <minLodPixels>128</minLodPixels>
          <maxLodPixels>-1</maxLodPixels>
        </Lod>
      </Region>
      <Link>
        <href>../../18/75701/98592.kml</href>
        <viewRefreshMode>onRegion</viewRefreshMode>
        <viewFormat/>
      </Link>
    </NetworkLink>
              </Document>
</kml>
    