<?xml version="1.0" encoding="utf-8"?>
<kml xmlns="http://www.opengis.net/kml/2.2">
  <Document>
    <name>16/18914/24645.kml</name>
    <description></description>
    <Style>
      <ListStyle id="hideChildren">
        <listItemType>checkHideChildren</listItemType>
      </ListStyle>
    </Style>
    <Region>
      <LatLonAltBox>
        <north>45.38452148437500</north>
        <south>45.37902832031250</south>
        <east>-76.09680175781250</east>
        <west>-76.10229492187500</west>
      </LatLonAltBox>
      <Lod>
        <minLodPixels>128</minLodPixels>
        <maxLodPixels>2048</maxLodPixels>
      </Lod>
    </Region>
    <GroundOverlay>
      <drawOrder>32</drawOrder>
      <Icon>
        <href>24645.png</href>
      </Icon>
      <LatLonBox>
        <north>45.38452148437500</north>
        <south>45.37902832031250</south>
        <east>-76.09680175781250</east>
        <west>-76.10229492187500</west>
      </LatLonBox>
    </GroundOverlay>

    <NetworkLink>
      <name>17/37828/49291.png</name>
      <Region>
        <LatLonAltBox>
          <north>45.38452148437500</north>
          <south>45.38177490234375</south>
          <east>-76.09954833984375</east>
          <west>-76.10229492187500</west>
        </LatLonAltBox>
        <Lod>
          <minLodPixels>128</minLodPixels>
          <maxLodPixels>-1</maxLodPixels>
        </Lod>
      </Region>
      <Link>
        <href>https://swmoran.github.io/ch-tiles/tiles/DRAPE_tiles/17/37828/49291.kml</href>
        <viewRefreshMode>onRegion</viewRefreshMode>
        <viewFormat/>
      </Link>
    </NetworkLink>
        
    <NetworkLink>
      <name>17/37829/49291.png</name>
      <Region>
        <LatLonAltBox>
          <north>45.38452148437500</north>
          <south>45.38177490234375</south>
          <east>-76.09680175781250</east>
          <west>-76.09954833984375</west>
        </LatLonAltBox>
        <Lod>
          <minLodPixels>128</minLodPixels>
          <maxLodPixels>-1</maxLodPixels>
        </Lod>
      </Region>
      <Link>
        <href>https://swmoran.github.io/ch-tiles/tiles/DRAPE_tiles/17/37829/49291.kml</href>
        <viewRefreshMode>onRegion</viewRefreshMode>
        <viewFormat/>
      </Link>
    </NetworkLink>
        
    <NetworkLink>
      <name>17/37828/49290.png</name>
      <Region>
        <LatLonAltBox>
          <north>45.38177490234375</north>
          <south>45.37902832031250</south>
          <east>-76.09954833984375</east>
          <west>-76.10229492187500</west>
        </LatLonAltBox>
        <Lod>
          <minLodPixels>128</minLodPixels>
          <maxLodPixels>-1</maxLodPixels>
        </Lod>
      </Region>
      <Link>
        <href>https://swmoran.github.io/ch-tiles/tiles/DRAPE_tiles/17/37828/49290.kml</href>
        <viewRefreshMode>onRegion</viewRefreshMode>
        <viewFormat/>
      </Link>
    </NetworkLink>
        
    <NetworkLink>
      <name>17/37829/49290.png</name>
      <Region>
        <LatLonAltBox>
          <north>45.38177490234375</north>
          <south>45.37902832031250</south>
          <east>-76.09680175781250</east>
          <west>-76.09954833984375</west>
        </LatLonAltBox>
        <Lod>
          <minLodPixels>128</minLodPixels>
          <maxLodPixels>-1</maxLodPixels>
        </Lod>
      </Region>
      <Link>
        <href>https://swmoran.github.io/ch-tiles/tiles/DRAPE_tiles/17/37829/49290.kml</href>
        <viewRefreshMode>onRegion</viewRefreshMode>
        <viewFormat/>
      </Link>
    </NetworkLink>
              </Document>
</kml>
    