<?xml version="1.0" encoding="utf-8"?>
<kml xmlns="http://www.opengis.net/kml/2.2">
  <Document>
    <name>18/75682/168223.kml</name>
    <description></description>
    <Style>
      <ListStyle id="hideChildren">
        <listItemType>checkHideChildren</listItemType>
      </ListStyle>
    </Style>
    <Region>
      <LatLonAltBox>
        <north>45.36758436884980</north>
        <south>45.36661954708626</south>
        <east>-76.06521606445312</east>
        <west>-76.06658935546875</west>
      </LatLonAltBox>
      <Lod>
        <minLodPixels>128</minLodPixels>
        <maxLodPixels>2048</maxLodPixels>
      </Lod>
    </Region>
    <GroundOverlay>
      <drawOrder>36</drawOrder>
      <Icon>
        <href>168223.png</href>
      </Icon>
      <LatLonBox>
        <north>45.36758436884980</north>
        <south>45.36661954708626</south>
        <east>-76.06521606445312</east>
        <west>-76.06658935546875</west>
      </LatLonBox>
    </GroundOverlay>

    <NetworkLink>
      <name>19/151364/336447.png</name>
      <Region>
        <LatLonAltBox>
          <north>45.36758436884980</north>
          <south>45.36710196002507</south>
          <east>-76.06590270996094</east>
          <west>-76.06658935546875</west>
        </LatLonAltBox>
        <Lod>
          <minLodPixels>128</minLodPixels>
          <maxLodPixels>-1</maxLodPixels>
        </Lod>
      </Region>
      <Link>
        <href>../../19/151364/336447.kml</href>
        <viewRefreshMode>onRegion</viewRefreshMode>
        <viewFormat/>
      </Link>
    </NetworkLink>
        
    <NetworkLink>
      <name>19/151365/336447.png</name>
      <Region>
        <LatLonAltBox>
          <north>45.36758436884980</north>
          <south>45.36710196002507</south>
          <east>-76.06521606445312</east>
          <west>-76.06590270996094</west>
        </LatLonAltBox>
        <Lod>
          <minLodPixels>128</minLodPixels>
          <maxLodPixels>-1</maxLodPixels>
        </Lod>
      </Region>
      <Link>
        <href>../../19/151365/336447.kml</href>
        <viewRefreshMode>onRegion</viewRefreshMode>
        <viewFormat/>
      </Link>
    </NetworkLink>
        
    <NetworkLink>
      <name>19/151364/336446.png</name>
      <Region>
        <LatLonAltBox>
          <north>45.36710196002507</north>
          <south>45.36661954708626</south>
          <east>-76.06590270996094</east>
          <west>-76.06658935546875</west>
        </LatLonAltBox>
        <Lod>
          <minLodPixels>128</minLodPixels>
          <maxLodPixels>-1</maxLodPixels>
        </Lod>
      </Region>
      <Link>
        <href>../../19/151364/336446.kml</href>
        <viewRefreshMode>onRegion</viewRefreshMode>
        <viewFormat/>
      </Link>
    </NetworkLink>
        
    <NetworkLink>
      <name>19/151365/336446.png</name>
      <Region>
        <LatLonAltBox>
          <north>45.36710196002507</north>
          <south>45.36661954708626</south>
          <east>-76.06521606445312</east>
          <west>-76.06590270996094</west>
        </LatLonAltBox>
        <Lod>
          <minLodPixels>128</minLodPixels>
          <maxLodPixels>-1</maxLodPixels>
        </Lod>
      </Region>
      <Link>
        <href>../../19/151365/336446.kml</href>
        <viewRefreshMode>onRegion</viewRefreshMode>
        <viewFormat/>
      </Link>
    </NetworkLink>
              </Document>
</kml>
    