<?xml version="1.0" encoding="utf-8"?>
<kml xmlns="http://www.opengis.net/kml/2.2">
  <Document>
    <name>17/37852/49299.kml</name>
    <description></description>
    <Style>
      <ListStyle id="hideChildren">
        <listItemType>checkHideChildren</listItemType>
      </ListStyle>
    </Style>
    <Region>
      <LatLonAltBox>
        <north>45.40649414062500</north>
        <south>45.40374755859375</south>
        <east>-76.03363037109375</east>
        <west>-76.03637695312500</west>
      </LatLonAltBox>
      <Lod>
        <minLodPixels>128</minLodPixels>
        <maxLodPixels>2048</maxLodPixels>
      </Lod>
    </Region>
    <GroundOverlay>
      <drawOrder>34</drawOrder>
      <Icon>
        <href>49299.png</href>
      </Icon>
      <LatLonBox>
        <north>45.40649414062500</north>
        <south>45.40374755859375</south>
        <east>-76.03363037109375</east>
        <west>-76.03637695312500</west>
      </LatLonBox>
    </GroundOverlay>

    <NetworkLink>
      <name>18/75704/98599.png</name>
      <Region>
        <LatLonAltBox>
          <north>45.40649414062500</north>
          <south>45.40512084960938</south>
          <east>-76.03500366210938</east>
          <west>-76.03637695312500</west>
        </LatLonAltBox>
        <Lod>
          <minLodPixels>128</minLodPixels>
          <maxLodPixels>-1</maxLodPixels>
        </Lod>
      </Region>
      <Link>
        <href>https://swmoran.github.io/ch-tiles/tiles/DRAPE_tiles/18/75704/98599.kml</href>
        <viewRefreshMode>onRegion</viewRefreshMode>
        <viewFormat/>
      </Link>
    </NetworkLink>
        
    <NetworkLink>
      <name>18/75705/98599.png</name>
      <Region>
        <LatLonAltBox>
          <north>45.40649414062500</north>
          <south>45.40512084960938</south>
          <east>-76.03363037109375</east>
          <west>-76.03500366210938</west>
        </LatLonAltBox>
        <Lod>
          <minLodPixels>128</minLodPixels>
          <maxLodPixels>-1</maxLodPixels>
        </Lod>
      </Region>
      <Link>
        <href>https://swmoran.github.io/ch-tiles/tiles/DRAPE_tiles/18/75705/98599.kml</href>
        <viewRefreshMode>onRegion</viewRefreshMode>
        <viewFormat/>
      </Link>
    </NetworkLink>
        
    <NetworkLink>
      <name>18/75704/98598.png</name>
      <Region>
        <LatLonAltBox>
          <north>45.40512084960938</north>
          <south>45.40374755859375</south>
          <east>-76.03500366210938</east>
          <west>-76.03637695312500</west>
        </LatLonAltBox>
        <Lod>
          <minLodPixels>128</minLodPixels>
          <maxLodPixels>-1</maxLodPixels>
        </Lod>
      </Region>
      <Link>
        <href>https://swmoran.github.io/ch-tiles/tiles/DRAPE_tiles/18/75704/98598.kml</href>
        <viewRefreshMode>onRegion</viewRefreshMode>
        <viewFormat/>
      </Link>
    </NetworkLink>
        
    <NetworkLink>
      <name>18/75705/98598.png</name>
      <Region>
        <LatLonAltBox>
          <north>45.40512084960938</north>
          <south>45.40374755859375</south>
          <east>-76.03363037109375</east>
          <west>-76.03500366210938</west>
        </LatLonAltBox>
        <Lod>
          <minLodPixels>128</minLodPixels>
          <maxLodPixels>-1</maxLodPixels>
        </Lod>
      </Region>
      <Link>
        <href>https://swmoran.github.io/ch-tiles/tiles/DRAPE_tiles/18/75705/98598.kml</href>
        <viewRefreshMode>onRegion</viewRefreshMode>
        <viewFormat/>
      </Link>
    </NetworkLink>
              </Document>
</kml>
    