<?xml version="1.0" encoding="utf-8"?>
<kml xmlns="http://www.opengis.net/kml/2.2">
  <Document>
    <name>17/37847/84107.kml</name>
    <description></description>
    <Style>
      <ListStyle id="hideChildren">
        <listItemType>checkHideChildren</listItemType>
      </ListStyle>
    </Style>
    <Region>
      <LatLonAltBox>
        <north>45.35986533395975</north>
        <south>45.35793541067206</south>
        <east>-76.04736328125000</east>
        <west>-76.05010986328124</west>
      </LatLonAltBox>
      <Lod>
        <minLodPixels>128</minLodPixels>
        <maxLodPixels>2048</maxLodPixels>
      </Lod>
    </Region>
    <GroundOverlay>
      <drawOrder>34</drawOrder>
      <Icon>
        <href>84107.png</href>
      </Icon>
      <LatLonBox>
        <north>45.35986533395975</north>
        <south>45.35793541067206</south>
        <east>-76.04736328125000</east>
        <west>-76.05010986328124</west>
      </LatLonBox>
    </GroundOverlay>

    <NetworkLink>
      <name>18/75694/168215.png</name>
      <Region>
        <LatLonAltBox>
          <north>45.35986533395975</north>
          <south>45.35890038054416</south>
          <east>-76.04873657226562</east>
          <west>-76.05010986328124</west>
        </LatLonAltBox>
        <Lod>
          <minLodPixels>128</minLodPixels>
          <maxLodPixels>-1</maxLodPixels>
        </Lod>
      </Region>
      <Link>
        <href>../../18/75694/168215.kml</href>
        <viewRefreshMode>onRegion</viewRefreshMode>
        <viewFormat/>
      </Link>
    </NetworkLink>
        
    <NetworkLink>
      <name>18/75695/168215.png</name>
      <Region>
        <LatLonAltBox>
          <north>45.35986533395975</north>
          <south>45.35890038054416</south>
          <east>-76.04736328125000</east>
          <west>-76.04873657226562</west>
        </LatLonAltBox>
        <Lod>
          <minLodPixels>128</minLodPixels>
          <maxLodPixels>-1</maxLodPixels>
        </Lod>
      </Region>
      <Link>
        <href>../../18/75695/168215.kml</href>
        <viewRefreshMode>onRegion</viewRefreshMode>
        <viewFormat/>
      </Link>
    </NetworkLink>
        
    <NetworkLink>
      <name>18/75694/168214.png</name>
      <Region>
        <LatLonAltBox>
          <north>45.35890038054416</north>
          <south>45.35793541067206</south>
          <east>-76.04873657226562</east>
          <west>-76.05010986328124</west>
        </LatLonAltBox>
        <Lod>
          <minLodPixels>128</minLodPixels>
          <maxLodPixels>-1</maxLodPixels>
        </Lod>
      </Region>
      <Link>
        <href>../../18/75694/168214.kml</href>
        <viewRefreshMode>onRegion</viewRefreshMode>
        <viewFormat/>
      </Link>
    </NetworkLink>
        
    <NetworkLink>
      <name>18/75695/168214.png</name>
      <Region>
        <LatLonAltBox>
          <north>45.35890038054416</north>
          <south>45.35793541067206</south>
          <east>-76.04736328125000</east>
          <west>-76.04873657226562</west>
        </LatLonAltBox>
        <Lod>
          <minLodPixels>128</minLodPixels>
          <maxLodPixels>-1</maxLodPixels>
        </Lod>
      </Region>
      <Link>
        <href>../../18/75695/168214.kml</href>
        <viewRefreshMode>onRegion</viewRefreshMode>
        <viewFormat/>
      </Link>
    </NetworkLink>
              </Document>
</kml>
    