<?xml version="1.0" encoding="utf-8"?>
<kml xmlns="http://www.opengis.net/kml/2.2">
  <Document>
    <name>18/75671/168213.kml</name>
    <description></description>
    <Style>
      <ListStyle id="hideChildren">
        <listItemType>checkHideChildren</listItemType>
      </ListStyle>
    </Style>
    <Region>
      <LatLonAltBox>
        <north>45.35793541067206</north>
        <south>45.35697042434340</south>
        <east>-76.08032226562500</east>
        <west>-76.08169555664062</west>
      </LatLonAltBox>
      <Lod>
        <minLodPixels>128</minLodPixels>
        <maxLodPixels>2048</maxLodPixels>
      </Lod>
    </Region>
    <GroundOverlay>
      <drawOrder>36</drawOrder>
      <Icon>
        <href>168213.png</href>
      </Icon>
      <LatLonBox>
        <north>45.35793541067206</north>
        <south>45.35697042434340</south>
        <east>-76.08032226562500</east>
        <west>-76.08169555664062</west>
      </LatLonBox>
    </GroundOverlay>

    <NetworkLink>
      <name>19/151342/336427.png</name>
      <Region>
        <LatLonAltBox>
          <north>45.35793541067206</north>
          <south>45.35745291956482</south>
          <east>-76.08100891113281</east>
          <west>-76.08169555664062</west>
        </LatLonAltBox>
        <Lod>
          <minLodPixels>128</minLodPixels>
          <maxLodPixels>-1</maxLodPixels>
        </Lod>
      </Region>
      <Link>
        <href>../../19/151342/336427.kml</href>
        <viewRefreshMode>onRegion</viewRefreshMode>
        <viewFormat/>
      </Link>
    </NetworkLink>
        
    <NetworkLink>
      <name>19/151343/336427.png</name>
      <Region>
        <LatLonAltBox>
          <north>45.35793541067206</north>
          <south>45.35745291956482</south>
          <east>-76.08032226562500</east>
          <west>-76.08100891113281</west>
        </LatLonAltBox>
        <Lod>
          <minLodPixels>128</minLodPixels>
          <maxLodPixels>-1</maxLodPixels>
        </Lod>
      </Region>
      <Link>
        <href>../../19/151343/336427.kml</href>
        <viewRefreshMode>onRegion</viewRefreshMode>
        <viewFormat/>
      </Link>
    </NetworkLink>
        
    <NetworkLink>
      <name>19/151342/336426.png</name>
      <Region>
        <LatLonAltBox>
          <north>45.35745291956482</north>
          <south>45.35697042434340</south>
          <east>-76.08100891113281</east>
          <west>-76.08169555664062</west>
        </LatLonAltBox>
        <Lod>
          <minLodPixels>128</minLodPixels>
          <maxLodPixels>-1</maxLodPixels>
        </Lod>
      </Region>
      <Link>
        <href>../../19/151342/336426.kml</href>
        <viewRefreshMode>onRegion</viewRefreshMode>
        <viewFormat/>
      </Link>
    </NetworkLink>
        
    <NetworkLink>
      <name>19/151343/336426.png</name>
      <Region>
        <LatLonAltBox>
          <north>45.35745291956482</north>
          <south>45.35697042434340</south>
          <east>-76.08032226562500</east>
          <west>-76.08100891113281</west>
        </LatLonAltBox>
        <Lod>
          <minLodPixels>128</minLodPixels>
          <maxLodPixels>-1</maxLodPixels>
        </Lod>
      </Region>
      <Link>
        <href>../../19/151343/336426.kml</href>
        <viewRefreshMode>onRegion</viewRefreshMode>
        <viewFormat/>
      </Link>
    </NetworkLink>
              </Document>
</kml>
    