<?xml version="1.0" encoding="utf-8"?>
<kml xmlns="http://www.opengis.net/kml/2.2">
  <Document>
    <name>17/37846/49290.kml</name>
    <description></description>
    <Style>
      <ListStyle id="hideChildren">
        <listItemType>checkHideChildren</listItemType>
      </ListStyle>
    </Style>
    <Region>
      <LatLonAltBox>
        <north>45.38177490234375</north>
        <south>45.37902832031250</south>
        <east>-76.05010986328125</east>
        <west>-76.05285644531250</west>
      </LatLonAltBox>
      <Lod>
        <minLodPixels>128</minLodPixels>
        <maxLodPixels>2048</maxLodPixels>
      </Lod>
    </Region>
    <GroundOverlay>
      <drawOrder>34</drawOrder>
      <Icon>
        <href>49290.png</href>
      </Icon>
      <LatLonBox>
        <north>45.38177490234375</north>
        <south>45.37902832031250</south>
        <east>-76.05010986328125</east>
        <west>-76.05285644531250</west>
      </LatLonBox>
    </GroundOverlay>

    <NetworkLink>
      <name>18/75692/98581.png</name>
      <Region>
        <LatLonAltBox>
          <north>45.38177490234375</north>
          <south>45.38040161132812</south>
          <east>-76.05148315429688</east>
          <west>-76.05285644531250</west>
        </LatLonAltBox>
        <Lod>
          <minLodPixels>128</minLodPixels>
          <maxLodPixels>-1</maxLodPixels>
        </Lod>
      </Region>
      <Link>
        <href>https://swmoran.github.io/ch-tiles/tiles/DRAPE_Tiles/18/75692/98581.kml</href>
        <viewRefreshMode>onRegion</viewRefreshMode>
        <viewFormat/>
      </Link>
    </NetworkLink>
        
    <NetworkLink>
      <name>18/75693/98581.png</name>
      <Region>
        <LatLonAltBox>
          <north>45.38177490234375</north>
          <south>45.38040161132812</south>
          <east>-76.05010986328125</east>
          <west>-76.05148315429688</west>
        </LatLonAltBox>
        <Lod>
          <minLodPixels>128</minLodPixels>
          <maxLodPixels>-1</maxLodPixels>
        </Lod>
      </Region>
      <Link>
        <href>https://swmoran.github.io/ch-tiles/tiles/DRAPE_Tiles/18/75693/98581.kml</href>
        <viewRefreshMode>onRegion</viewRefreshMode>
        <viewFormat/>
      </Link>
    </NetworkLink>
        
    <NetworkLink>
      <name>18/75692/98580.png</name>
      <Region>
        <LatLonAltBox>
          <north>45.38040161132812</north>
          <south>45.37902832031250</south>
          <east>-76.05148315429688</east>
          <west>-76.05285644531250</west>
        </LatLonAltBox>
        <Lod>
          <minLodPixels>128</minLodPixels>
          <maxLodPixels>-1</maxLodPixels>
        </Lod>
      </Region>
      <Link>
        <href>https://swmoran.github.io/ch-tiles/tiles/DRAPE_Tiles/18/75692/98580.kml</href>
        <viewRefreshMode>onRegion</viewRefreshMode>
        <viewFormat/>
      </Link>
    </NetworkLink>
        
    <NetworkLink>
      <name>18/75693/98580.png</name>
      <Region>
        <LatLonAltBox>
          <north>45.38040161132812</north>
          <south>45.37902832031250</south>
          <east>-76.05010986328125</east>
          <west>-76.05148315429688</west>
        </LatLonAltBox>
        <Lod>
          <minLodPixels>128</minLodPixels>
          <maxLodPixels>-1</maxLodPixels>
        </Lod>
      </Region>
      <Link>
        <href>https://swmoran.github.io/ch-tiles/tiles/DRAPE_Tiles/18/75693/98580.kml</href>
        <viewRefreshMode>onRegion</viewRefreshMode>
        <viewFormat/>
      </Link>
    </NetworkLink>
              </Document>
</kml>
    