<?xml version="1.0" encoding="utf-8"?>
<kml xmlns="http://www.opengis.net/kml/2.2">
  <Document>
    <name>17/37832/84120.kml</name>
    <description></description>
    <Style>
      <ListStyle id="hideChildren">
        <listItemType>checkHideChildren</listItemType>
      </ListStyle>
    </Style>
    <Region>
      <LatLonAltBox>
        <north>45.38494834654319</north>
        <south>45.38301927899063</south>
        <east>-76.08856201171875</east>
        <west>-76.09130859375000</west>
      </LatLonAltBox>
      <Lod>
        <minLodPixels>128</minLodPixels>
        <maxLodPixels>2048</maxLodPixels>
      </Lod>
    </Region>
    <GroundOverlay>
      <drawOrder>34</drawOrder>
      <Icon>
        <href>84120.png</href>
      </Icon>
      <LatLonBox>
        <north>45.38494834654319</north>
        <south>45.38301927899063</south>
        <east>-76.08856201171875</east>
        <west>-76.09130859375000</west>
      </LatLonBox>
    </GroundOverlay>

    <NetworkLink>
      <name>18/75664/168241.png</name>
      <Region>
        <LatLonAltBox>
          <north>45.38494834654319</north>
          <south>45.38398382099511</south>
          <east>-76.08993530273438</east>
          <west>-76.09130859375000</west>
        </LatLonAltBox>
        <Lod>
          <minLodPixels>128</minLodPixels>
          <maxLodPixels>-1</maxLodPixels>
        </Lod>
      </Region>
      <Link>
        <href>../../18/75664/168241.kml</href>
        <viewRefreshMode>onRegion</viewRefreshMode>
        <viewFormat/>
      </Link>
    </NetworkLink>
        
    <NetworkLink>
      <name>18/75665/168241.png</name>
      <Region>
        <LatLonAltBox>
          <north>45.38494834654319</north>
          <south>45.38398382099511</south>
          <east>-76.08856201171875</east>
          <west>-76.08993530273438</west>
        </LatLonAltBox>
        <Lod>
          <minLodPixels>128</minLodPixels>
          <maxLodPixels>-1</maxLodPixels>
        </Lod>
      </Region>
      <Link>
        <href>../../18/75665/168241.kml</href>
        <viewRefreshMode>onRegion</viewRefreshMode>
        <viewFormat/>
      </Link>
    </NetworkLink>
        
    <NetworkLink>
      <name>18/75664/168240.png</name>
      <Region>
        <LatLonAltBox>
          <north>45.38398382099511</north>
          <south>45.38301927899063</south>
          <east>-76.08993530273438</east>
          <west>-76.09130859375000</west>
        </LatLonAltBox>
        <Lod>
          <minLodPixels>128</minLodPixels>
          <maxLodPixels>-1</maxLodPixels>
        </Lod>
      </Region>
      <Link>
        <href>../../18/75664/168240.kml</href>
        <viewRefreshMode>onRegion</viewRefreshMode>
        <viewFormat/>
      </Link>
    </NetworkLink>
        
    <NetworkLink>
      <name>18/75665/168240.png</name>
      <Region>
        <LatLonAltBox>
          <north>45.38398382099511</north>
          <south>45.38301927899063</south>
          <east>-76.08856201171875</east>
          <west>-76.08993530273438</west>
        </LatLonAltBox>
        <Lod>
          <minLodPixels>128</minLodPixels>
          <maxLodPixels>-1</maxLodPixels>
        </Lod>
      </Region>
      <Link>
        <href>../../18/75665/168240.kml</href>
        <viewRefreshMode>onRegion</viewRefreshMode>
        <viewFormat/>
      </Link>
    </NetworkLink>
              </Document>
</kml>
    