<?xml version="1.0" encoding="utf-8"?>
<kml xmlns="http://www.opengis.net/kml/2.2">
  <Document>
    <name>19/151404/197200.kml</name>
    <description></description>
    <Style>
      <ListStyle id="hideChildren">
        <listItemType>checkHideChildren</listItemType>
      </ListStyle>
    </Style>
    <Region>
      <LatLonAltBox>
        <north>45.40718078613281</north>
        <south>45.40649414062500</south>
        <east>-76.03843688964844</east>
        <west>-76.03912353515625</west>
      </LatLonAltBox>
      <Lod>
        <minLodPixels>128</minLodPixels>
        <maxLodPixels>-1</maxLodPixels>
      </Lod>
    </Region>
    <GroundOverlay>
      <drawOrder>38</drawOrder>
      <Icon>
        <href>197200.png</href>
      </Icon>
      <LatLonBox>
        <north>45.40718078613281</north>
        <south>45.40649414062500</south>
        <east>-76.03843688964844</east>
        <west>-76.03912353515625</west>
      </LatLonBox>
    </GroundOverlay>
      </Document>
</kml>
    