<?xml version="1.0" encoding="utf-8"?>
<kml xmlns="http://www.opengis.net/kml/2.2">
  <Document>
    <name>18/75702/98587.kml</name>
    <description></description>
    <Style>
      <ListStyle id="hideChildren">
        <listItemType>checkHideChildren</listItemType>
      </ListStyle>
    </Style>
    <Region>
      <LatLonAltBox>
        <north>45.39001464843750</north>
        <south>45.38864135742188</south>
        <east>-76.03775024414062</east>
        <west>-76.03912353515625</west>
      </LatLonAltBox>
      <Lod>
        <minLodPixels>128</minLodPixels>
        <maxLodPixels>2048</maxLodPixels>
      </Lod>
    </Region>
    <GroundOverlay>
      <drawOrder>36</drawOrder>
      <Icon>
        <href>98587.png</href>
      </Icon>
      <LatLonBox>
        <north>45.39001464843750</north>
        <south>45.38864135742188</south>
        <east>-76.03775024414062</east>
        <west>-76.03912353515625</west>
      </LatLonBox>
    </GroundOverlay>

    <NetworkLink>
      <name>19/151404/197175.png</name>
      <Region>
        <LatLonAltBox>
          <north>45.39001464843750</north>
          <south>45.38932800292969</south>
          <east>-76.03843688964844</east>
          <west>-76.03912353515625</west>
        </LatLonAltBox>
        <Lod>
          <minLodPixels>128</minLodPixels>
          <maxLodPixels>-1</maxLodPixels>
        </Lod>
      </Region>
      <Link>
        <href>https://swmoran.github.io/ch-tiles/tiles_GE/tiles_GE/19/151404/197175.kml</href>
        <viewRefreshMode>onRegion</viewRefreshMode>
        <viewFormat/>
      </Link>
    </NetworkLink>
        
    <NetworkLink>
      <name>19/151405/197175.png</name>
      <Region>
        <LatLonAltBox>
          <north>45.39001464843750</north>
          <south>45.38932800292969</south>
          <east>-76.03775024414062</east>
          <west>-76.03843688964844</west>
        </LatLonAltBox>
        <Lod>
          <minLodPixels>128</minLodPixels>
          <maxLodPixels>-1</maxLodPixels>
        </Lod>
      </Region>
      <Link>
        <href>https://swmoran.github.io/ch-tiles/tiles_GE/tiles_GE/19/151405/197175.kml</href>
        <viewRefreshMode>onRegion</viewRefreshMode>
        <viewFormat/>
      </Link>
    </NetworkLink>
        
    <NetworkLink>
      <name>19/151404/197174.png</name>
      <Region>
        <LatLonAltBox>
          <north>45.38932800292969</north>
          <south>45.38864135742188</south>
          <east>-76.03843688964844</east>
          <west>-76.03912353515625</west>
        </LatLonAltBox>
        <Lod>
          <minLodPixels>128</minLodPixels>
          <maxLodPixels>-1</maxLodPixels>
        </Lod>
      </Region>
      <Link>
        <href>https://swmoran.github.io/ch-tiles/tiles_GE/tiles_GE/19/151404/197174.kml</href>
        <viewRefreshMode>onRegion</viewRefreshMode>
        <viewFormat/>
      </Link>
    </NetworkLink>
        
    <NetworkLink>
      <name>19/151405/197174.png</name>
      <Region>
        <LatLonAltBox>
          <north>45.38932800292969</north>
          <south>45.38864135742188</south>
          <east>-76.03775024414062</east>
          <west>-76.03843688964844</west>
        </LatLonAltBox>
        <Lod>
          <minLodPixels>128</minLodPixels>
          <maxLodPixels>-1</maxLodPixels>
        </Lod>
      </Region>
      <Link>
        <href>https://swmoran.github.io/ch-tiles/tiles_GE/tiles_GE/19/151405/197174.kml</href>
        <viewRefreshMode>onRegion</viewRefreshMode>
        <viewFormat/>
      </Link>
    </NetworkLink>
              </Document>
</kml>
    