<?xml version="1.0" encoding="utf-8"?>
<kml xmlns="http://www.opengis.net/kml/2.2">
  <Document>
    <name>18/75684/98586.kml</name>
    <description></description>
    <Style>
      <ListStyle id="hideChildren">
        <listItemType>checkHideChildren</listItemType>
      </ListStyle>
    </Style>
    <Region>
      <LatLonAltBox>
        <north>45.38864135742188</north>
        <south>45.38726806640625</south>
        <east>-76.06246948242188</east>
        <west>-76.06384277343750</west>
      </LatLonAltBox>
      <Lod>
        <minLodPixels>128</minLodPixels>
        <maxLodPixels>2048</maxLodPixels>
      </Lod>
    </Region>
    <GroundOverlay>
      <drawOrder>36</drawOrder>
      <Icon>
        <href>98586.png</href>
      </Icon>
      <LatLonBox>
        <north>45.38864135742188</north>
        <south>45.38726806640625</south>
        <east>-76.06246948242188</east>
        <west>-76.06384277343750</west>
      </LatLonBox>
    </GroundOverlay>

    <NetworkLink>
      <name>19/151368/197173.png</name>
      <Region>
        <LatLonAltBox>
          <north>45.38864135742188</north>
          <south>45.38795471191406</south>
          <east>-76.06315612792969</east>
          <west>-76.06384277343750</west>
        </LatLonAltBox>
        <Lod>
          <minLodPixels>128</minLodPixels>
          <maxLodPixels>-1</maxLodPixels>
        </Lod>
      </Region>
      <Link>
        <href>https://swmoran.github.io/ch-tiles/tiles/DRAPE_Tiles/19/151368/197173.kml</href>
        <viewRefreshMode>onRegion</viewRefreshMode>
        <viewFormat/>
      </Link>
    </NetworkLink>
        
    <NetworkLink>
      <name>19/151369/197173.png</name>
      <Region>
        <LatLonAltBox>
          <north>45.38864135742188</north>
          <south>45.38795471191406</south>
          <east>-76.06246948242188</east>
          <west>-76.06315612792969</west>
        </LatLonAltBox>
        <Lod>
          <minLodPixels>128</minLodPixels>
          <maxLodPixels>-1</maxLodPixels>
        </Lod>
      </Region>
      <Link>
        <href>https://swmoran.github.io/ch-tiles/tiles/DRAPE_Tiles/19/151369/197173.kml</href>
        <viewRefreshMode>onRegion</viewRefreshMode>
        <viewFormat/>
      </Link>
    </NetworkLink>
        
    <NetworkLink>
      <name>19/151368/197172.png</name>
      <Region>
        <LatLonAltBox>
          <north>45.38795471191406</north>
          <south>45.38726806640625</south>
          <east>-76.06315612792969</east>
          <west>-76.06384277343750</west>
        </LatLonAltBox>
        <Lod>
          <minLodPixels>128</minLodPixels>
          <maxLodPixels>-1</maxLodPixels>
        </Lod>
      </Region>
      <Link>
        <href>https://swmoran.github.io/ch-tiles/tiles/DRAPE_Tiles/19/151368/197172.kml</href>
        <viewRefreshMode>onRegion</viewRefreshMode>
        <viewFormat/>
      </Link>
    </NetworkLink>
        
    <NetworkLink>
      <name>19/151369/197172.png</name>
      <Region>
        <LatLonAltBox>
          <north>45.38795471191406</north>
          <south>45.38726806640625</south>
          <east>-76.06246948242188</east>
          <west>-76.06315612792969</west>
        </LatLonAltBox>
        <Lod>
          <minLodPixels>128</minLodPixels>
          <maxLodPixels>-1</maxLodPixels>
        </Lod>
      </Region>
      <Link>
        <href>https://swmoran.github.io/ch-tiles/tiles/DRAPE_Tiles/19/151369/197172.kml</href>
        <viewRefreshMode>onRegion</viewRefreshMode>
        <viewFormat/>
      </Link>
    </NetworkLink>
              </Document>
</kml>
    