<?xml version="1.0" encoding="utf-8"?>
<kml xmlns="http://www.opengis.net/kml/2.2">
  <Document>
    <name>18/75699/98563.kml</name>
    <description></description>
    <Style>
      <ListStyle id="hideChildren">
        <listItemType>checkHideChildren</listItemType>
      </ListStyle>
    </Style>
    <Region>
      <LatLonAltBox>
        <north>45.35705566406250</north>
        <south>45.35568237304688</south>
        <east>-76.04187011718750</east>
        <west>-76.04324340820312</west>
      </LatLonAltBox>
      <Lod>
        <minLodPixels>128</minLodPixels>
        <maxLodPixels>2048</maxLodPixels>
      </Lod>
    </Region>
    <GroundOverlay>
      <drawOrder>36</drawOrder>
      <Icon>
        <href>98563.png</href>
      </Icon>
      <LatLonBox>
        <north>45.35705566406250</north>
        <south>45.35568237304688</south>
        <east>-76.04187011718750</east>
        <west>-76.04324340820312</west>
      </LatLonBox>
    </GroundOverlay>

    <NetworkLink>
      <name>19/151398/197127.png</name>
      <Region>
        <LatLonAltBox>
          <north>45.35705566406250</north>
          <south>45.35636901855469</south>
          <east>-76.04255676269531</east>
          <west>-76.04324340820312</west>
        </LatLonAltBox>
        <Lod>
          <minLodPixels>128</minLodPixels>
          <maxLodPixels>-1</maxLodPixels>
        </Lod>
      </Region>
      <Link>
        <href>https://swmoran.github.io/ch-tiles/tiles/DRAPE_Tiles/19/151398/197127.kml</href>
        <viewRefreshMode>onRegion</viewRefreshMode>
        <viewFormat/>
      </Link>
    </NetworkLink>
        
    <NetworkLink>
      <name>19/151399/197127.png</name>
      <Region>
        <LatLonAltBox>
          <north>45.35705566406250</north>
          <south>45.35636901855469</south>
          <east>-76.04187011718750</east>
          <west>-76.04255676269531</west>
        </LatLonAltBox>
        <Lod>
          <minLodPixels>128</minLodPixels>
          <maxLodPixels>-1</maxLodPixels>
        </Lod>
      </Region>
      <Link>
        <href>https://swmoran.github.io/ch-tiles/tiles/DRAPE_Tiles/19/151399/197127.kml</href>
        <viewRefreshMode>onRegion</viewRefreshMode>
        <viewFormat/>
      </Link>
    </NetworkLink>
        
    <NetworkLink>
      <name>19/151398/197126.png</name>
      <Region>
        <LatLonAltBox>
          <north>45.35636901855469</north>
          <south>45.35568237304688</south>
          <east>-76.04255676269531</east>
          <west>-76.04324340820312</west>
        </LatLonAltBox>
        <Lod>
          <minLodPixels>128</minLodPixels>
          <maxLodPixels>-1</maxLodPixels>
        </Lod>
      </Region>
      <Link>
        <href>https://swmoran.github.io/ch-tiles/tiles/DRAPE_Tiles/19/151398/197126.kml</href>
        <viewRefreshMode>onRegion</viewRefreshMode>
        <viewFormat/>
      </Link>
    </NetworkLink>
        
    <NetworkLink>
      <name>19/151399/197126.png</name>
      <Region>
        <LatLonAltBox>
          <north>45.35636901855469</north>
          <south>45.35568237304688</south>
          <east>-76.04187011718750</east>
          <west>-76.04255676269531</west>
        </LatLonAltBox>
        <Lod>
          <minLodPixels>128</minLodPixels>
          <maxLodPixels>-1</maxLodPixels>
        </Lod>
      </Region>
      <Link>
        <href>https://swmoran.github.io/ch-tiles/tiles/DRAPE_Tiles/19/151399/197126.kml</href>
        <viewRefreshMode>onRegion</viewRefreshMode>
        <viewFormat/>
      </Link>
    </NetworkLink>
              </Document>
</kml>
    