<?xml version="1.0" encoding="utf-8"?>
<kml xmlns="http://www.opengis.net/kml/2.2">
  <Document>
    <name>17/37829/81780.kml</name>
    <description></description>
    <Style>
      <ListStyle id="hideChildren">
        <listItemType>checkHideChildren</listItemType>
      </ListStyle>
    </Style>
    <Region>
      <LatLonAltBox>
        <north>45.38452148437500</north>
        <south>45.38177490234375</south>
        <east>-76.09680175781250</east>
        <west>-76.09954833984375</west>
      </LatLonAltBox>
      <Lod>
        <minLodPixels>128</minLodPixels>
        <maxLodPixels>2048</maxLodPixels>
      </Lod>
    </Region>
    <GroundOverlay>
      <drawOrder>34</drawOrder>
      <Icon>
        <href>81780.png</href>
      </Icon>
      <LatLonBox>
        <north>45.38452148437500</north>
        <south>45.38177490234375</south>
        <east>-76.09680175781250</east>
        <west>-76.09954833984375</west>
      </LatLonBox>
    </GroundOverlay>

    <NetworkLink>
      <name>18/75658/163560.png</name>
      <Region>
        <LatLonAltBox>
          <north>45.38452148437500</north>
          <south>45.38314819335938</south>
          <east>-76.09817504882812</east>
          <west>-76.09954833984375</west>
        </LatLonAltBox>
        <Lod>
          <minLodPixels>128</minLodPixels>
          <maxLodPixels>-1</maxLodPixels>
        </Lod>
      </Region>
      <Link>
        <href>../../18/75658/163560.kml</href>
        <viewRefreshMode>onRegion</viewRefreshMode>
        <viewFormat/>
      </Link>
    </NetworkLink>
        
    <NetworkLink>
      <name>18/75659/163560.png</name>
      <Region>
        <LatLonAltBox>
          <north>45.38452148437500</north>
          <south>45.38314819335938</south>
          <east>-76.09680175781250</east>
          <west>-76.09817504882812</west>
        </LatLonAltBox>
        <Lod>
          <minLodPixels>128</minLodPixels>
          <maxLodPixels>-1</maxLodPixels>
        </Lod>
      </Region>
      <Link>
        <href>../../18/75659/163560.kml</href>
        <viewRefreshMode>onRegion</viewRefreshMode>
        <viewFormat/>
      </Link>
    </NetworkLink>
        
    <NetworkLink>
      <name>18/75658/163561.png</name>
      <Region>
        <LatLonAltBox>
          <north>45.38314819335938</north>
          <south>45.38177490234375</south>
          <east>-76.09817504882812</east>
          <west>-76.09954833984375</west>
        </LatLonAltBox>
        <Lod>
          <minLodPixels>128</minLodPixels>
          <maxLodPixels>-1</maxLodPixels>
        </Lod>
      </Region>
      <Link>
        <href>../../18/75658/163561.kml</href>
        <viewRefreshMode>onRegion</viewRefreshMode>
        <viewFormat/>
      </Link>
    </NetworkLink>
        
    <NetworkLink>
      <name>18/75659/163561.png</name>
      <Region>
        <LatLonAltBox>
          <north>45.38314819335938</north>
          <south>45.38177490234375</south>
          <east>-76.09680175781250</east>
          <west>-76.09817504882812</west>
        </LatLonAltBox>
        <Lod>
          <minLodPixels>128</minLodPixels>
          <maxLodPixels>-1</maxLodPixels>
        </Lod>
      </Region>
      <Link>
        <href>../../18/75659/163561.kml</href>
        <viewRefreshMode>onRegion</viewRefreshMode>
        <viewFormat/>
      </Link>
    </NetworkLink>
              </Document>
</kml>
    