<?xml version="1.0" encoding="utf-8"?>
<kml xmlns="http://www.opengis.net/kml/2.2">
  <Document>
    <name>19/151385/336439.kml</name>
    <description></description>
    <Style>
      <ListStyle id="hideChildren">
        <listItemType>checkHideChildren</listItemType>
      </ListStyle>
    </Style>
    <Region>
      <LatLonAltBox>
        <north>45.36372498305681</north>
        <south>45.36324254131913</south>
        <east>-76.05148315429686</east>
        <west>-76.05216979980467</west>
      </LatLonAltBox>
      <Lod>
        <minLodPixels>128</minLodPixels>
        <maxLodPixels>-1</maxLodPixels>
      </Lod>
    </Region>
    <GroundOverlay>
      <drawOrder>38</drawOrder>
      <Icon>
        <href>336439.png</href>
      </Icon>
      <LatLonBox>
        <north>45.36372498305681</north>
        <south>45.36324254131913</south>
        <east>-76.05148315429686</east>
        <west>-76.05216979980467</west>
      </LatLonBox>
    </GroundOverlay>
      </Document>
</kml>
    