<?xml version="1.0" encoding="utf-8"?>
<kml xmlns="http://www.opengis.net/kml/2.2">
  <Document>
    <name>18/75685/98588.kml</name>
    <description></description>
    <Style>
      <ListStyle id="hideChildren">
        <listItemType>checkHideChildren</listItemType>
      </ListStyle>
    </Style>
    <Region>
      <LatLonAltBox>
        <north>45.39138793945312</north>
        <south>45.39001464843750</south>
        <east>-76.06109619140625</east>
        <west>-76.06246948242188</west>
      </LatLonAltBox>
      <Lod>
        <minLodPixels>128</minLodPixels>
        <maxLodPixels>2048</maxLodPixels>
      </Lod>
    </Region>
    <GroundOverlay>
      <drawOrder>36</drawOrder>
      <Icon>
        <href>98588.png</href>
      </Icon>
      <LatLonBox>
        <north>45.39138793945312</north>
        <south>45.39001464843750</south>
        <east>-76.06109619140625</east>
        <west>-76.06246948242188</west>
      </LatLonBox>
    </GroundOverlay>

    <NetworkLink>
      <name>19/151370/197177.png</name>
      <Region>
        <LatLonAltBox>
          <north>45.39138793945312</north>
          <south>45.39070129394531</south>
          <east>-76.06178283691406</east>
          <west>-76.06246948242188</west>
        </LatLonAltBox>
        <Lod>
          <minLodPixels>128</minLodPixels>
          <maxLodPixels>-1</maxLodPixels>
        </Lod>
      </Region>
      <Link>
        <href>https://swmoran.github.io/ch-tiles/tiles_GE/tiles_GE/19/151370/197177.kml</href>
        <viewRefreshMode>onRegion</viewRefreshMode>
        <viewFormat/>
      </Link>
    </NetworkLink>
        
    <NetworkLink>
      <name>19/151371/197177.png</name>
      <Region>
        <LatLonAltBox>
          <north>45.39138793945312</north>
          <south>45.39070129394531</south>
          <east>-76.06109619140625</east>
          <west>-76.06178283691406</west>
        </LatLonAltBox>
        <Lod>
          <minLodPixels>128</minLodPixels>
          <maxLodPixels>-1</maxLodPixels>
        </Lod>
      </Region>
      <Link>
        <href>https://swmoran.github.io/ch-tiles/tiles_GE/tiles_GE/19/151371/197177.kml</href>
        <viewRefreshMode>onRegion</viewRefreshMode>
        <viewFormat/>
      </Link>
    </NetworkLink>
        
    <NetworkLink>
      <name>19/151370/197176.png</name>
      <Region>
        <LatLonAltBox>
          <north>45.39070129394531</north>
          <south>45.39001464843750</south>
          <east>-76.06178283691406</east>
          <west>-76.06246948242188</west>
        </LatLonAltBox>
        <Lod>
          <minLodPixels>128</minLodPixels>
          <maxLodPixels>-1</maxLodPixels>
        </Lod>
      </Region>
      <Link>
        <href>https://swmoran.github.io/ch-tiles/tiles_GE/tiles_GE/19/151370/197176.kml</href>
        <viewRefreshMode>onRegion</viewRefreshMode>
        <viewFormat/>
      </Link>
    </NetworkLink>
        
    <NetworkLink>
      <name>19/151371/197176.png</name>
      <Region>
        <LatLonAltBox>
          <north>45.39070129394531</north>
          <south>45.39001464843750</south>
          <east>-76.06109619140625</east>
          <west>-76.06178283691406</west>
        </LatLonAltBox>
        <Lod>
          <minLodPixels>128</minLodPixels>
          <maxLodPixels>-1</maxLodPixels>
        </Lod>
      </Region>
      <Link>
        <href>https://swmoran.github.io/ch-tiles/tiles_GE/tiles_GE/19/151371/197176.kml</href>
        <viewRefreshMode>onRegion</viewRefreshMode>
        <viewFormat/>
      </Link>
    </NetworkLink>
              </Document>
</kml>
    