<?xml version="1.0" encoding="utf-8"?>
<kml xmlns="http://www.opengis.net/kml/2.2">
  <Document>
    <name>18/75685/98599.kml</name>
    <description></description>
    <Style>
      <ListStyle id="hideChildren">
        <listItemType>checkHideChildren</listItemType>
      </ListStyle>
    </Style>
    <Region>
      <LatLonAltBox>
        <north>45.40649414062500</north>
        <south>45.40512084960938</south>
        <east>-76.06109619140625</east>
        <west>-76.06246948242188</west>
      </LatLonAltBox>
      <Lod>
        <minLodPixels>128</minLodPixels>
        <maxLodPixels>2048</maxLodPixels>
      </Lod>
    </Region>
    <GroundOverlay>
      <drawOrder>36</drawOrder>
      <Icon>
        <href>98599.png</href>
      </Icon>
      <LatLonBox>
        <north>45.40649414062500</north>
        <south>45.40512084960938</south>
        <east>-76.06109619140625</east>
        <west>-76.06246948242188</west>
      </LatLonBox>
    </GroundOverlay>

    <NetworkLink>
      <name>19/151370/197199.png</name>
      <Region>
        <LatLonAltBox>
          <north>45.40649414062500</north>
          <south>45.40580749511719</south>
          <east>-76.06178283691406</east>
          <west>-76.06246948242188</west>
        </LatLonAltBox>
        <Lod>
          <minLodPixels>128</minLodPixels>
          <maxLodPixels>-1</maxLodPixels>
        </Lod>
      </Region>
      <Link>
        <href>https://swmoran.github.io/ch-tiles/tiles_GE/tiles_GE/19/151370/197199.kml</href>
        <viewRefreshMode>onRegion</viewRefreshMode>
        <viewFormat/>
      </Link>
    </NetworkLink>
        
    <NetworkLink>
      <name>19/151371/197199.png</name>
      <Region>
        <LatLonAltBox>
          <north>45.40649414062500</north>
          <south>45.40580749511719</south>
          <east>-76.06109619140625</east>
          <west>-76.06178283691406</west>
        </LatLonAltBox>
        <Lod>
          <minLodPixels>128</minLodPixels>
          <maxLodPixels>-1</maxLodPixels>
        </Lod>
      </Region>
      <Link>
        <href>https://swmoran.github.io/ch-tiles/tiles_GE/tiles_GE/19/151371/197199.kml</href>
        <viewRefreshMode>onRegion</viewRefreshMode>
        <viewFormat/>
      </Link>
    </NetworkLink>
        
    <NetworkLink>
      <name>19/151370/197198.png</name>
      <Region>
        <LatLonAltBox>
          <north>45.40580749511719</north>
          <south>45.40512084960938</south>
          <east>-76.06178283691406</east>
          <west>-76.06246948242188</west>
        </LatLonAltBox>
        <Lod>
          <minLodPixels>128</minLodPixels>
          <maxLodPixels>-1</maxLodPixels>
        </Lod>
      </Region>
      <Link>
        <href>https://swmoran.github.io/ch-tiles/tiles_GE/tiles_GE/19/151370/197198.kml</href>
        <viewRefreshMode>onRegion</viewRefreshMode>
        <viewFormat/>
      </Link>
    </NetworkLink>
        
    <NetworkLink>
      <name>19/151371/197198.png</name>
      <Region>
        <LatLonAltBox>
          <north>45.40580749511719</north>
          <south>45.40512084960938</south>
          <east>-76.06109619140625</east>
          <west>-76.06178283691406</west>
        </LatLonAltBox>
        <Lod>
          <minLodPixels>128</minLodPixels>
          <maxLodPixels>-1</maxLodPixels>
        </Lod>
      </Region>
      <Link>
        <href>https://swmoran.github.io/ch-tiles/tiles_GE/tiles_GE/19/151371/197198.kml</href>
        <viewRefreshMode>onRegion</viewRefreshMode>
        <viewFormat/>
      </Link>
    </NetworkLink>
              </Document>
</kml>
    