<?xml version="1.0" encoding="utf-8"?>
<kml xmlns="http://www.opengis.net/kml/2.2">
  <Document>
    <name>19/151323/336486.kml</name>
    <description></description>
    <Style>
      <ListStyle id="hideChildren">
        <listItemType>checkHideChildren</listItemType>
      </ListStyle>
    </Style>
    <Region>
      <LatLonAltBox>
        <north>45.38639510400971</north>
        <south>45.38591285563495</south>
        <east>-76.09405517578124</east>
        <west>-76.09474182128905</west>
      </LatLonAltBox>
      <Lod>
        <minLodPixels>128</minLodPixels>
        <maxLodPixels>-1</maxLodPixels>
      </Lod>
    </Region>
    <GroundOverlay>
      <drawOrder>38</drawOrder>
      <Icon>
        <href>336486.png</href>
      </Icon>
      <LatLonBox>
        <north>45.38639510400971</north>
        <south>45.38591285563495</south>
        <east>-76.09405517578124</east>
        <west>-76.09474182128905</west>
      </LatLonBox>
    </GroundOverlay>
      </Document>
</kml>
    