<?xml version="1.0" encoding="utf-8"?>
<kml xmlns="http://www.opengis.net/kml/2.2">
  <Document>
    <name>16/18919/40887.kml</name>
    <description></description>
    <Style>
      <ListStyle id="hideChildren">
        <listItemType>checkHideChildren</listItemType>
      </ListStyle>
    </Style>
    <Region>
      <LatLonAltBox>
        <north>45.40100097656250</north>
        <south>45.39550781250000</south>
        <east>-76.06933593750000</east>
        <west>-76.07482910156250</west>
      </LatLonAltBox>
      <Lod>
        <minLodPixels>128</minLodPixels>
        <maxLodPixels>2048</maxLodPixels>
      </Lod>
    </Region>
    <GroundOverlay>
      <drawOrder>32</drawOrder>
      <Icon>
        <href>40887.png</href>
      </Icon>
      <LatLonBox>
        <north>45.40100097656250</north>
        <south>45.39550781250000</south>
        <east>-76.06933593750000</east>
        <west>-76.07482910156250</west>
      </LatLonBox>
    </GroundOverlay>

    <NetworkLink>
      <name>17/37838/81774.png</name>
      <Region>
        <LatLonAltBox>
          <north>45.40100097656250</north>
          <south>45.39825439453125</south>
          <east>-76.07208251953125</east>
          <west>-76.07482910156250</west>
        </LatLonAltBox>
        <Lod>
          <minLodPixels>128</minLodPixels>
          <maxLodPixels>-1</maxLodPixels>
        </Lod>
      </Region>
      <Link>
        <href>../../17/37838/81774.kml</href>
        <viewRefreshMode>onRegion</viewRefreshMode>
        <viewFormat/>
      </Link>
    </NetworkLink>
        
    <NetworkLink>
      <name>17/37839/81774.png</name>
      <Region>
        <LatLonAltBox>
          <north>45.40100097656250</north>
          <south>45.39825439453125</south>
          <east>-76.06933593750000</east>
          <west>-76.07208251953125</west>
        </LatLonAltBox>
        <Lod>
          <minLodPixels>128</minLodPixels>
          <maxLodPixels>-1</maxLodPixels>
        </Lod>
      </Region>
      <Link>
        <href>../../17/37839/81774.kml</href>
        <viewRefreshMode>onRegion</viewRefreshMode>
        <viewFormat/>
      </Link>
    </NetworkLink>
        
    <NetworkLink>
      <name>17/37838/81775.png</name>
      <Region>
        <LatLonAltBox>
          <north>45.39825439453125</north>
          <south>45.39550781250000</south>
          <east>-76.07208251953125</east>
          <west>-76.07482910156250</west>
        </LatLonAltBox>
        <Lod>
          <minLodPixels>128</minLodPixels>
          <maxLodPixels>-1</maxLodPixels>
        </Lod>
      </Region>
      <Link>
        <href>../../17/37838/81775.kml</href>
        <viewRefreshMode>onRegion</viewRefreshMode>
        <viewFormat/>
      </Link>
    </NetworkLink>
        
    <NetworkLink>
      <name>17/37839/81775.png</name>
      <Region>
        <LatLonAltBox>
          <north>45.39825439453125</north>
          <south>45.39550781250000</south>
          <east>-76.06933593750000</east>
          <west>-76.07208251953125</west>
        </LatLonAltBox>
        <Lod>
          <minLodPixels>128</minLodPixels>
          <maxLodPixels>-1</maxLodPixels>
        </Lod>
      </Region>
      <Link>
        <href>../../17/37839/81775.kml</href>
        <viewRefreshMode>onRegion</viewRefreshMode>
        <viewFormat/>
      </Link>
    </NetworkLink>
              </Document>
</kml>
    