<?xml version="1.0" encoding="utf-8"?>
<kml xmlns="http://www.opengis.net/kml/2.2">
  <Document>
    <name>16/18917/42065.kml</name>
    <description></description>
    <Style>
      <ListStyle id="hideChildren">
        <listItemType>checkHideChildren</listItemType>
      </ListStyle>
    </Style>
    <Region>
      <LatLonAltBox>
        <north>45.40616374516014</north>
        <south>45.40230699238177</south>
        <east>-76.08032226562500</east>
        <west>-76.08581542968750</west>
      </LatLonAltBox>
      <Lod>
        <minLodPixels>128</minLodPixels>
        <maxLodPixels>2048</maxLodPixels>
      </Lod>
    </Region>
    <GroundOverlay>
      <drawOrder>32</drawOrder>
      <Icon>
        <href>42065.png</href>
      </Icon>
      <LatLonBox>
        <north>45.40616374516014</north>
        <south>45.40230699238177</south>
        <east>-76.08032226562500</east>
        <west>-76.08581542968750</west>
      </LatLonBox>
    </GroundOverlay>

    <NetworkLink>
      <name>17/37834/84131.png</name>
      <Region>
        <LatLonAltBox>
          <north>45.40616374516014</north>
          <south>45.40423540168334</south>
          <east>-76.08306884765625</east>
          <west>-76.08581542968750</west>
        </LatLonAltBox>
        <Lod>
          <minLodPixels>128</minLodPixels>
          <maxLodPixels>-1</maxLodPixels>
        </Lod>
      </Region>
      <Link>
        <href>../../17/37834/84131.kml</href>
        <viewRefreshMode>onRegion</viewRefreshMode>
        <viewFormat/>
      </Link>
    </NetworkLink>
        
    <NetworkLink>
      <name>17/37835/84131.png</name>
      <Region>
        <LatLonAltBox>
          <north>45.40616374516014</north>
          <south>45.40423540168334</south>
          <east>-76.08032226562500</east>
          <west>-76.08306884765625</west>
        </LatLonAltBox>
        <Lod>
          <minLodPixels>128</minLodPixels>
          <maxLodPixels>-1</maxLodPixels>
        </Lod>
      </Region>
      <Link>
        <href>../../17/37835/84131.kml</href>
        <viewRefreshMode>onRegion</viewRefreshMode>
        <viewFormat/>
      </Link>
    </NetworkLink>
        
    <NetworkLink>
      <name>17/37834/84130.png</name>
      <Region>
        <LatLonAltBox>
          <north>45.40423540168334</north>
          <south>45.40230699238177</south>
          <east>-76.08306884765625</east>
          <west>-76.08581542968750</west>
        </LatLonAltBox>
        <Lod>
          <minLodPixels>128</minLodPixels>
          <maxLodPixels>-1</maxLodPixels>
        </Lod>
      </Region>
      <Link>
        <href>../../17/37834/84130.kml</href>
        <viewRefreshMode>onRegion</viewRefreshMode>
        <viewFormat/>
      </Link>
    </NetworkLink>
        
    <NetworkLink>
      <name>17/37835/84130.png</name>
      <Region>
        <LatLonAltBox>
          <north>45.40423540168334</north>
          <south>45.40230699238177</south>
          <east>-76.08032226562500</east>
          <west>-76.08306884765625</west>
        </LatLonAltBox>
        <Lod>
          <minLodPixels>128</minLodPixels>
          <maxLodPixels>-1</maxLodPixels>
        </Lod>
      </Region>
      <Link>
        <href>../../17/37835/84130.kml</href>
        <viewRefreshMode>onRegion</viewRefreshMode>
        <viewFormat/>
      </Link>
    </NetworkLink>
              </Document>
</kml>
    