<?xml version="1.0" encoding="utf-8"?>
<kml xmlns="http://www.opengis.net/kml/2.2">
  <Document>
    <name>19/151408/336510.kml</name>
    <description></description>
    <Style>
      <ListStyle id="hideChildren">
        <listItemType>checkHideChildren</listItemType>
      </ListStyle>
    </Style>
    <Region>
      <LatLonAltBox>
        <north>45.39796783078114</north>
        <south>45.39748568114411</south>
        <east>-76.03569030761720</east>
        <west>-76.03637695312501</west>
      </LatLonAltBox>
      <Lod>
        <minLodPixels>128</minLodPixels>
        <maxLodPixels>-1</maxLodPixels>
      </Lod>
    </Region>
    <GroundOverlay>
      <drawOrder>38</drawOrder>
      <Icon>
        <href>336510.png</href>
      </Icon>
      <LatLonBox>
        <north>45.39796783078114</north>
        <south>45.39748568114411</south>
        <east>-76.03569030761720</east>
        <west>-76.03637695312501</west>
      </LatLonBox>
    </GroundOverlay>
      </Document>
</kml>
    