<?xml version="1.0" encoding="utf-8"?>
<kml xmlns="http://www.opengis.net/kml/2.2">
  <Document>
    <name>16/18919/42057.kml</name>
    <description></description>
    <Style>
      <ListStyle id="hideChildren">
        <listItemType>checkHideChildren</listItemType>
      </ListStyle>
    </Style>
    <Region>
      <LatLonAltBox>
        <north>45.37530235052552</north>
        <south>45.37144349133922</south>
        <east>-76.06933593750000</east>
        <west>-76.07482910156251</west>
      </LatLonAltBox>
      <Lod>
        <minLodPixels>128</minLodPixels>
        <maxLodPixels>2048</maxLodPixels>
      </Lod>
    </Region>
    <GroundOverlay>
      <drawOrder>32</drawOrder>
      <Icon>
        <href>42057.png</href>
      </Icon>
      <LatLonBox>
        <north>45.37530235052552</north>
        <south>45.37144349133922</south>
        <east>-76.06933593750000</east>
        <west>-76.07482910156251</west>
      </LatLonBox>
    </GroundOverlay>

    <NetworkLink>
      <name>17/37838/84115.png</name>
      <Region>
        <LatLonAltBox>
          <north>45.37530235052552</north>
          <south>45.37337295384522</south>
          <east>-76.07208251953124</east>
          <west>-76.07482910156251</west>
        </LatLonAltBox>
        <Lod>
          <minLodPixels>128</minLodPixels>
          <maxLodPixels>-1</maxLodPixels>
        </Lod>
      </Region>
      <Link>
        <href>../../17/37838/84115.kml</href>
        <viewRefreshMode>onRegion</viewRefreshMode>
        <viewFormat/>
      </Link>
    </NetworkLink>
        
    <NetworkLink>
      <name>17/37839/84115.png</name>
      <Region>
        <LatLonAltBox>
          <north>45.37530235052552</north>
          <south>45.37337295384522</south>
          <east>-76.06933593750000</east>
          <west>-76.07208251953124</west>
        </LatLonAltBox>
        <Lod>
          <minLodPixels>128</minLodPixels>
          <maxLodPixels>-1</maxLodPixels>
        </Lod>
      </Region>
      <Link>
        <href>../../17/37839/84115.kml</href>
        <viewRefreshMode>onRegion</viewRefreshMode>
        <viewFormat/>
      </Link>
    </NetworkLink>
        
    <NetworkLink>
      <name>17/37838/84114.png</name>
      <Region>
        <LatLonAltBox>
          <north>45.37337295384522</north>
          <south>45.37144349133922</south>
          <east>-76.07208251953124</east>
          <west>-76.07482910156251</west>
        </LatLonAltBox>
        <Lod>
          <minLodPixels>128</minLodPixels>
          <maxLodPixels>-1</maxLodPixels>
        </Lod>
      </Region>
      <Link>
        <href>../../17/37838/84114.kml</href>
        <viewRefreshMode>onRegion</viewRefreshMode>
        <viewFormat/>
      </Link>
    </NetworkLink>
        
    <NetworkLink>
      <name>17/37839/84114.png</name>
      <Region>
        <LatLonAltBox>
          <north>45.37337295384522</north>
          <south>45.37144349133922</south>
          <east>-76.06933593750000</east>
          <west>-76.07208251953124</west>
        </LatLonAltBox>
        <Lod>
          <minLodPixels>128</minLodPixels>
          <maxLodPixels>-1</maxLodPixels>
        </Lod>
      </Region>
      <Link>
        <href>../../17/37839/84114.kml</href>
        <viewRefreshMode>onRegion</viewRefreshMode>
        <viewFormat/>
      </Link>
    </NetworkLink>
              </Document>
</kml>
    