<?xml version="1.0" encoding="utf-8"?>
<kml xmlns="http://www.opengis.net/kml/2.2">
  <Document>
    <name>16/18919/42059.kml</name>
    <description></description>
    <Style>
      <ListStyle id="hideChildren">
        <listItemType>checkHideChildren</listItemType>
      </ListStyle>
    </Style>
    <Region>
      <LatLonAltBox>
        <north>45.38301927899063</north>
        <south>45.37916094640917</south>
        <east>-76.06933593750000</east>
        <west>-76.07482910156251</west>
      </LatLonAltBox>
      <Lod>
        <minLodPixels>128</minLodPixels>
        <maxLodPixels>2048</maxLodPixels>
      </Lod>
    </Region>
    <GroundOverlay>
      <drawOrder>32</drawOrder>
      <Icon>
        <href>42059.png</href>
      </Icon>
      <LatLonBox>
        <north>45.38301927899063</north>
        <south>45.37916094640917</south>
        <east>-76.06933593750000</east>
        <west>-76.07482910156251</west>
      </LatLonBox>
    </GroundOverlay>

    <NetworkLink>
      <name>17/37838/84119.png</name>
      <Region>
        <LatLonAltBox>
          <north>45.38301927899063</north>
          <south>45.38109014561265</south>
          <east>-76.07208251953124</east>
          <west>-76.07482910156251</west>
        </LatLonAltBox>
        <Lod>
          <minLodPixels>128</minLodPixels>
          <maxLodPixels>-1</maxLodPixels>
        </Lod>
      </Region>
      <Link>
        <href>../../17/37838/84119.kml</href>
        <viewRefreshMode>onRegion</viewRefreshMode>
        <viewFormat/>
      </Link>
    </NetworkLink>
        
    <NetworkLink>
      <name>17/37839/84119.png</name>
      <Region>
        <LatLonAltBox>
          <north>45.38301927899063</north>
          <south>45.38109014561265</south>
          <east>-76.06933593750000</east>
          <west>-76.07208251953124</west>
        </LatLonAltBox>
        <Lod>
          <minLodPixels>128</minLodPixels>
          <maxLodPixels>-1</maxLodPixels>
        </Lod>
      </Region>
      <Link>
        <href>../../17/37839/84119.kml</href>
        <viewRefreshMode>onRegion</viewRefreshMode>
        <viewFormat/>
      </Link>
    </NetworkLink>
        
    <NetworkLink>
      <name>17/37838/84118.png</name>
      <Region>
        <LatLonAltBox>
          <north>45.38109014561265</north>
          <south>45.37916094640917</south>
          <east>-76.07208251953124</east>
          <west>-76.07482910156251</west>
        </LatLonAltBox>
        <Lod>
          <minLodPixels>128</minLodPixels>
          <maxLodPixels>-1</maxLodPixels>
        </Lod>
      </Region>
      <Link>
        <href>../../17/37838/84118.kml</href>
        <viewRefreshMode>onRegion</viewRefreshMode>
        <viewFormat/>
      </Link>
    </NetworkLink>
        
    <NetworkLink>
      <name>17/37839/84118.png</name>
      <Region>
        <LatLonAltBox>
          <north>45.38109014561265</north>
          <south>45.37916094640917</south>
          <east>-76.06933593750000</east>
          <west>-76.07208251953124</west>
        </LatLonAltBox>
        <Lod>
          <minLodPixels>128</minLodPixels>
          <maxLodPixels>-1</maxLodPixels>
        </Lod>
      </Region>
      <Link>
        <href>../../17/37839/84118.kml</href>
        <viewRefreshMode>onRegion</viewRefreshMode>
        <viewFormat/>
      </Link>
    </NetworkLink>
              </Document>
</kml>
    