<?xml version="1.0" encoding="utf-8"?>
<kml xmlns="http://www.opengis.net/kml/2.2">
  <Document>
    <name>18/75684/98577.kml</name>
    <description></description>
    <Style>
      <ListStyle id="hideChildren">
        <listItemType>checkHideChildren</listItemType>
      </ListStyle>
    </Style>
    <Region>
      <LatLonAltBox>
        <north>45.37628173828125</north>
        <south>45.37490844726562</south>
        <east>-76.06246948242188</east>
        <west>-76.06384277343750</west>
      </LatLonAltBox>
      <Lod>
        <minLodPixels>128</minLodPixels>
        <maxLodPixels>2048</maxLodPixels>
      </Lod>
    </Region>
    <GroundOverlay>
      <drawOrder>36</drawOrder>
      <Icon>
        <href>98577.png</href>
      </Icon>
      <LatLonBox>
        <north>45.37628173828125</north>
        <south>45.37490844726562</south>
        <east>-76.06246948242188</east>
        <west>-76.06384277343750</west>
      </LatLonBox>
    </GroundOverlay>

    <NetworkLink>
      <name>19/151368/197155.png</name>
      <Region>
        <LatLonAltBox>
          <north>45.37628173828125</north>
          <south>45.37559509277344</south>
          <east>-76.06315612792969</east>
          <west>-76.06384277343750</west>
        </LatLonAltBox>
        <Lod>
          <minLodPixels>128</minLodPixels>
          <maxLodPixels>-1</maxLodPixels>
        </Lod>
      </Region>
      <Link>
        <href>../../19/151368/197155.kml</href>
        <viewRefreshMode>onRegion</viewRefreshMode>
        <viewFormat/>
      </Link>
    </NetworkLink>
        
    <NetworkLink>
      <name>19/151369/197155.png</name>
      <Region>
        <LatLonAltBox>
          <north>45.37628173828125</north>
          <south>45.37559509277344</south>
          <east>-76.06246948242188</east>
          <west>-76.06315612792969</west>
        </LatLonAltBox>
        <Lod>
          <minLodPixels>128</minLodPixels>
          <maxLodPixels>-1</maxLodPixels>
        </Lod>
      </Region>
      <Link>
        <href>../../19/151369/197155.kml</href>
        <viewRefreshMode>onRegion</viewRefreshMode>
        <viewFormat/>
      </Link>
    </NetworkLink>
        
    <NetworkLink>
      <name>19/151368/197154.png</name>
      <Region>
        <LatLonAltBox>
          <north>45.37559509277344</north>
          <south>45.37490844726562</south>
          <east>-76.06315612792969</east>
          <west>-76.06384277343750</west>
        </LatLonAltBox>
        <Lod>
          <minLodPixels>128</minLodPixels>
          <maxLodPixels>-1</maxLodPixels>
        </Lod>
      </Region>
      <Link>
        <href>../../19/151368/197154.kml</href>
        <viewRefreshMode>onRegion</viewRefreshMode>
        <viewFormat/>
      </Link>
    </NetworkLink>
        
    <NetworkLink>
      <name>19/151369/197154.png</name>
      <Region>
        <LatLonAltBox>
          <north>45.37559509277344</north>
          <south>45.37490844726562</south>
          <east>-76.06246948242188</east>
          <west>-76.06315612792969</west>
        </LatLonAltBox>
        <Lod>
          <minLodPixels>128</minLodPixels>
          <maxLodPixels>-1</maxLodPixels>
        </Lod>
      </Region>
      <Link>
        <href>../../19/151369/197154.kml</href>
        <viewRefreshMode>onRegion</viewRefreshMode>
        <viewFormat/>
      </Link>
    </NetworkLink>
              </Document>
</kml>
    