<?xml version="1.0" encoding="utf-8"?>
<kml xmlns="http://www.opengis.net/kml/2.2">
  <Document>
    <name>15/9463/21029.kml</name>
    <description></description>
    <Style>
      <ListStyle id="hideChildren">
        <listItemType>checkHideChildren</listItemType>
      </ListStyle>
    </Style>
    <Region>
      <LatLonAltBox>
        <north>45.38301927899063</north>
        <south>45.37530235052552</south>
        <east>-76.02539062500000</east>
        <west>-76.03637695312501</west>
      </LatLonAltBox>
      <Lod>
        <minLodPixels>128</minLodPixels>
        <maxLodPixels>2048</maxLodPixels>
      </Lod>
    </Region>
    <GroundOverlay>
      <drawOrder>30</drawOrder>
      <Icon>
        <href>21029.png</href>
      </Icon>
      <LatLonBox>
        <north>45.38301927899063</north>
        <south>45.37530235052552</south>
        <east>-76.02539062500000</east>
        <west>-76.03637695312501</west>
      </LatLonBox>
    </GroundOverlay>

    <NetworkLink>
      <name>16/18926/42059.png</name>
      <Region>
        <LatLonAltBox>
          <north>45.38301927899063</north>
          <south>45.37916094640917</south>
          <east>-76.03088378906249</east>
          <west>-76.03637695312501</west>
        </LatLonAltBox>
        <Lod>
          <minLodPixels>128</minLodPixels>
          <maxLodPixels>-1</maxLodPixels>
        </Lod>
      </Region>
      <Link>
        <href>../../16/18926/42059.kml</href>
        <viewRefreshMode>onRegion</viewRefreshMode>
        <viewFormat/>
      </Link>
    </NetworkLink>
        
    <NetworkLink>
      <name>16/18927/42059.png</name>
      <Region>
        <LatLonAltBox>
          <north>45.38301927899063</north>
          <south>45.37916094640917</south>
          <east>-76.02539062500000</east>
          <west>-76.03088378906249</west>
        </LatLonAltBox>
        <Lod>
          <minLodPixels>128</minLodPixels>
          <maxLodPixels>-1</maxLodPixels>
        </Lod>
      </Region>
      <Link>
        <href>../../16/18927/42059.kml</href>
        <viewRefreshMode>onRegion</viewRefreshMode>
        <viewFormat/>
      </Link>
    </NetworkLink>
        
    <NetworkLink>
      <name>16/18926/42058.png</name>
      <Region>
        <LatLonAltBox>
          <north>45.37916094640917</north>
          <south>45.37530235052552</south>
          <east>-76.03088378906249</east>
          <west>-76.03637695312501</west>
        </LatLonAltBox>
        <Lod>
          <minLodPixels>128</minLodPixels>
          <maxLodPixels>-1</maxLodPixels>
        </Lod>
      </Region>
      <Link>
        <href>../../16/18926/42058.kml</href>
        <viewRefreshMode>onRegion</viewRefreshMode>
        <viewFormat/>
      </Link>
    </NetworkLink>
        
    <NetworkLink>
      <name>16/18927/42058.png</name>
      <Region>
        <LatLonAltBox>
          <north>45.37916094640917</north>
          <south>45.37530235052552</south>
          <east>-76.02539062500000</east>
          <west>-76.03088378906249</west>
        </LatLonAltBox>
        <Lod>
          <minLodPixels>128</minLodPixels>
          <maxLodPixels>-1</maxLodPixels>
        </Lod>
      </Region>
      <Link>
        <href>../../16/18927/42058.kml</href>
        <viewRefreshMode>onRegion</viewRefreshMode>
        <viewFormat/>
      </Link>
    </NetworkLink>
              </Document>
</kml>
    