<?xml version="1.0" encoding="utf-8"?>
<kml xmlns="http://www.opengis.net/kml/2.2">
  <Document>
    <name>18/75694/163541.kml</name>
    <description></description>
    <Style>
      <ListStyle id="hideChildren">
        <listItemType>checkHideChildren</listItemType>
      </ListStyle>
    </Style>
    <Region>
      <LatLonAltBox>
        <north>45.41061401367188</north>
        <south>45.40924072265625</south>
        <east>-76.04873657226562</east>
        <west>-76.05010986328125</west>
      </LatLonAltBox>
      <Lod>
        <minLodPixels>128</minLodPixels>
        <maxLodPixels>2048</maxLodPixels>
      </Lod>
    </Region>
    <GroundOverlay>
      <drawOrder>36</drawOrder>
      <Icon>
        <href>163541.png</href>
      </Icon>
      <LatLonBox>
        <north>45.41061401367188</north>
        <south>45.40924072265625</south>
        <east>-76.04873657226562</east>
        <west>-76.05010986328125</west>
      </LatLonBox>
    </GroundOverlay>

    <NetworkLink>
      <name>19/151388/327082.png</name>
      <Region>
        <LatLonAltBox>
          <north>45.41061401367188</north>
          <south>45.40992736816406</south>
          <east>-76.04942321777344</east>
          <west>-76.05010986328125</west>
        </LatLonAltBox>
        <Lod>
          <minLodPixels>128</minLodPixels>
          <maxLodPixels>-1</maxLodPixels>
        </Lod>
      </Region>
      <Link>
        <href>../../19/151388/327082.kml</href>
        <viewRefreshMode>onRegion</viewRefreshMode>
        <viewFormat/>
      </Link>
    </NetworkLink>
        
    <NetworkLink>
      <name>19/151389/327082.png</name>
      <Region>
        <LatLonAltBox>
          <north>45.41061401367188</north>
          <south>45.40992736816406</south>
          <east>-76.04873657226562</east>
          <west>-76.04942321777344</west>
        </LatLonAltBox>
        <Lod>
          <minLodPixels>128</minLodPixels>
          <maxLodPixels>-1</maxLodPixels>
        </Lod>
      </Region>
      <Link>
        <href>../../19/151389/327082.kml</href>
        <viewRefreshMode>onRegion</viewRefreshMode>
        <viewFormat/>
      </Link>
    </NetworkLink>
        
    <NetworkLink>
      <name>19/151388/327083.png</name>
      <Region>
        <LatLonAltBox>
          <north>45.40992736816406</north>
          <south>45.40924072265625</south>
          <east>-76.04942321777344</east>
          <west>-76.05010986328125</west>
        </LatLonAltBox>
        <Lod>
          <minLodPixels>128</minLodPixels>
          <maxLodPixels>-1</maxLodPixels>
        </Lod>
      </Region>
      <Link>
        <href>../../19/151388/327083.kml</href>
        <viewRefreshMode>onRegion</viewRefreshMode>
        <viewFormat/>
      </Link>
    </NetworkLink>
        
    <NetworkLink>
      <name>19/151389/327083.png</name>
      <Region>
        <LatLonAltBox>
          <north>45.40992736816406</north>
          <south>45.40924072265625</south>
          <east>-76.04873657226562</east>
          <west>-76.04942321777344</west>
        </LatLonAltBox>
        <Lod>
          <minLodPixels>128</minLodPixels>
          <maxLodPixels>-1</maxLodPixels>
        </Lod>
      </Region>
      <Link>
        <href>../../19/151389/327083.kml</href>
        <viewRefreshMode>onRegion</viewRefreshMode>
        <viewFormat/>
      </Link>
    </NetworkLink>
              </Document>
</kml>
    