<?xml version="1.0" encoding="utf-8"?>
<kml xmlns="http://www.opengis.net/kml/2.2">
  <Document>
    <name>18/75694/98585.kml</name>
    <description></description>
    <Style>
      <ListStyle id="hideChildren">
        <listItemType>checkHideChildren</listItemType>
      </ListStyle>
    </Style>
    <Region>
      <LatLonAltBox>
        <north>45.38726806640625</north>
        <south>45.38589477539062</south>
        <east>-76.04873657226562</east>
        <west>-76.05010986328125</west>
      </LatLonAltBox>
      <Lod>
        <minLodPixels>128</minLodPixels>
        <maxLodPixels>2048</maxLodPixels>
      </Lod>
    </Region>
    <GroundOverlay>
      <drawOrder>36</drawOrder>
      <Icon>
        <href>98585.png</href>
      </Icon>
      <LatLonBox>
        <north>45.38726806640625</north>
        <south>45.38589477539062</south>
        <east>-76.04873657226562</east>
        <west>-76.05010986328125</west>
      </LatLonBox>
    </GroundOverlay>

    <NetworkLink>
      <name>19/151388/197171.png</name>
      <Region>
        <LatLonAltBox>
          <north>45.38726806640625</north>
          <south>45.38658142089844</south>
          <east>-76.04942321777344</east>
          <west>-76.05010986328125</west>
        </LatLonAltBox>
        <Lod>
          <minLodPixels>128</minLodPixels>
          <maxLodPixels>-1</maxLodPixels>
        </Lod>
      </Region>
      <Link>
        <href>https://swmoran.github.io/ch-tiles/tiles_GE/tiles_GE/19/151388/197171.kml</href>
        <viewRefreshMode>onRegion</viewRefreshMode>
        <viewFormat/>
      </Link>
    </NetworkLink>
        
    <NetworkLink>
      <name>19/151389/197171.png</name>
      <Region>
        <LatLonAltBox>
          <north>45.38726806640625</north>
          <south>45.38658142089844</south>
          <east>-76.04873657226562</east>
          <west>-76.04942321777344</west>
        </LatLonAltBox>
        <Lod>
          <minLodPixels>128</minLodPixels>
          <maxLodPixels>-1</maxLodPixels>
        </Lod>
      </Region>
      <Link>
        <href>https://swmoran.github.io/ch-tiles/tiles_GE/tiles_GE/19/151389/197171.kml</href>
        <viewRefreshMode>onRegion</viewRefreshMode>
        <viewFormat/>
      </Link>
    </NetworkLink>
        
    <NetworkLink>
      <name>19/151388/197170.png</name>
      <Region>
        <LatLonAltBox>
          <north>45.38658142089844</north>
          <south>45.38589477539062</south>
          <east>-76.04942321777344</east>
          <west>-76.05010986328125</west>
        </LatLonAltBox>
        <Lod>
          <minLodPixels>128</minLodPixels>
          <maxLodPixels>-1</maxLodPixels>
        </Lod>
      </Region>
      <Link>
        <href>https://swmoran.github.io/ch-tiles/tiles_GE/tiles_GE/19/151388/197170.kml</href>
        <viewRefreshMode>onRegion</viewRefreshMode>
        <viewFormat/>
      </Link>
    </NetworkLink>
        
    <NetworkLink>
      <name>19/151389/197170.png</name>
      <Region>
        <LatLonAltBox>
          <north>45.38658142089844</north>
          <south>45.38589477539062</south>
          <east>-76.04873657226562</east>
          <west>-76.04942321777344</west>
        </LatLonAltBox>
        <Lod>
          <minLodPixels>128</minLodPixels>
          <maxLodPixels>-1</maxLodPixels>
        </Lod>
      </Region>
      <Link>
        <href>https://swmoran.github.io/ch-tiles/tiles_GE/tiles_GE/19/151389/197170.kml</href>
        <viewRefreshMode>onRegion</viewRefreshMode>
        <viewFormat/>
      </Link>
    </NetworkLink>
              </Document>
</kml>
    