<?xml version="1.0" encoding="utf-8"?>
<kml xmlns="http://www.opengis.net/kml/2.2">
  <Document>
    <name>17/37827/49281.kml</name>
    <description></description>
    <Style>
      <ListStyle id="hideChildren">
        <listItemType>checkHideChildren</listItemType>
      </ListStyle>
    </Style>
    <Region>
      <LatLonAltBox>
        <north>45.35705566406250</north>
        <south>45.35430908203125</south>
        <east>-76.10229492187500</east>
        <west>-76.10504150390625</west>
      </LatLonAltBox>
      <Lod>
        <minLodPixels>128</minLodPixels>
        <maxLodPixels>2048</maxLodPixels>
      </Lod>
    </Region>
    <GroundOverlay>
      <drawOrder>34</drawOrder>
      <Icon>
        <href>49281.png</href>
      </Icon>
      <LatLonBox>
        <north>45.35705566406250</north>
        <south>45.35430908203125</south>
        <east>-76.10229492187500</east>
        <west>-76.10504150390625</west>
      </LatLonBox>
    </GroundOverlay>

    <NetworkLink>
      <name>18/75654/98563.png</name>
      <Region>
        <LatLonAltBox>
          <north>45.35705566406250</north>
          <south>45.35568237304688</south>
          <east>-76.10366821289062</east>
          <west>-76.10504150390625</west>
        </LatLonAltBox>
        <Lod>
          <minLodPixels>128</minLodPixels>
          <maxLodPixels>-1</maxLodPixels>
        </Lod>
      </Region>
      <Link>
        <href>https://swmoran.github.io/ch-tiles/tiles/DRAPE_Tiles/18/75654/98563.kml</href>
        <viewRefreshMode>onRegion</viewRefreshMode>
        <viewFormat/>
      </Link>
    </NetworkLink>
        
    <NetworkLink>
      <name>18/75655/98563.png</name>
      <Region>
        <LatLonAltBox>
          <north>45.35705566406250</north>
          <south>45.35568237304688</south>
          <east>-76.10229492187500</east>
          <west>-76.10366821289062</west>
        </LatLonAltBox>
        <Lod>
          <minLodPixels>128</minLodPixels>
          <maxLodPixels>-1</maxLodPixels>
        </Lod>
      </Region>
      <Link>
        <href>https://swmoran.github.io/ch-tiles/tiles/DRAPE_Tiles/18/75655/98563.kml</href>
        <viewRefreshMode>onRegion</viewRefreshMode>
        <viewFormat/>
      </Link>
    </NetworkLink>
        
    <NetworkLink>
      <name>18/75654/98562.png</name>
      <Region>
        <LatLonAltBox>
          <north>45.35568237304688</north>
          <south>45.35430908203125</south>
          <east>-76.10366821289062</east>
          <west>-76.10504150390625</west>
        </LatLonAltBox>
        <Lod>
          <minLodPixels>128</minLodPixels>
          <maxLodPixels>-1</maxLodPixels>
        </Lod>
      </Region>
      <Link>
        <href>https://swmoran.github.io/ch-tiles/tiles/DRAPE_Tiles/18/75654/98562.kml</href>
        <viewRefreshMode>onRegion</viewRefreshMode>
        <viewFormat/>
      </Link>
    </NetworkLink>
        
    <NetworkLink>
      <name>18/75655/98562.png</name>
      <Region>
        <LatLonAltBox>
          <north>45.35568237304688</north>
          <south>45.35430908203125</south>
          <east>-76.10229492187500</east>
          <west>-76.10366821289062</west>
        </LatLonAltBox>
        <Lod>
          <minLodPixels>128</minLodPixels>
          <maxLodPixels>-1</maxLodPixels>
        </Lod>
      </Region>
      <Link>
        <href>https://swmoran.github.io/ch-tiles/tiles/DRAPE_Tiles/18/75655/98562.kml</href>
        <viewRefreshMode>onRegion</viewRefreshMode>
        <viewFormat/>
      </Link>
    </NetworkLink>
              </Document>
</kml>
    