<?xml version="1.0" encoding="utf-8"?>
<kml xmlns="http://www.opengis.net/kml/2.2">
  <Document>
    <name>19/151312/336487.kml</name>
    <description></description>
    <Style>
      <ListStyle id="hideChildren">
        <listItemType>checkHideChildren</listItemType>
      </ListStyle>
    </Style>
    <Region>
      <LatLonAltBox>
        <north>45.38687734827037</north>
        <south>45.38639510400971</south>
        <east>-76.10160827636719</east>
        <west>-76.10229492187500</west>
      </LatLonAltBox>
      <Lod>
        <minLodPixels>128</minLodPixels>
        <maxLodPixels>-1</maxLodPixels>
      </Lod>
    </Region>
    <GroundOverlay>
      <drawOrder>38</drawOrder>
      <Icon>
        <href>336487.png</href>
      </Icon>
      <LatLonBox>
        <north>45.38687734827037</north>
        <south>45.38639510400971</south>
        <east>-76.10160827636719</east>
        <west>-76.10229492187500</west>
      </LatLonBox>
    </GroundOverlay>
      </Document>
</kml>
    