<?xml version="1.0" encoding="utf-8"?>
<kml xmlns="http://www.opengis.net/kml/2.2">
  <Document>
    <name>16/18913/24643.kml</name>
    <description></description>
    <Style>
      <ListStyle id="hideChildren">
        <listItemType>checkHideChildren</listItemType>
      </ListStyle>
    </Style>
    <Region>
      <LatLonAltBox>
        <north>45.37353515625000</north>
        <south>45.36804199218750</south>
        <east>-76.10229492187500</east>
        <west>-76.10778808593750</west>
      </LatLonAltBox>
      <Lod>
        <minLodPixels>128</minLodPixels>
        <maxLodPixels>2048</maxLodPixels>
      </Lod>
    </Region>
    <GroundOverlay>
      <drawOrder>32</drawOrder>
      <Icon>
        <href>24643.png</href>
      </Icon>
      <LatLonBox>
        <north>45.37353515625000</north>
        <south>45.36804199218750</south>
        <east>-76.10229492187500</east>
        <west>-76.10778808593750</west>
      </LatLonBox>
    </GroundOverlay>

    <NetworkLink>
      <name>17/37826/49287.png</name>
      <Region>
        <LatLonAltBox>
          <north>45.37353515625000</north>
          <south>45.37078857421875</south>
          <east>-76.10504150390625</east>
          <west>-76.10778808593750</west>
        </LatLonAltBox>
        <Lod>
          <minLodPixels>128</minLodPixels>
          <maxLodPixels>-1</maxLodPixels>
        </Lod>
      </Region>
      <Link>
        <href>https://swmoran.github.io/ch-tiles/tiles_GE/tiles_GE/17/37826/49287.kml</href>
        <viewRefreshMode>onRegion</viewRefreshMode>
        <viewFormat/>
      </Link>
    </NetworkLink>
        
    <NetworkLink>
      <name>17/37827/49287.png</name>
      <Region>
        <LatLonAltBox>
          <north>45.37353515625000</north>
          <south>45.37078857421875</south>
          <east>-76.10229492187500</east>
          <west>-76.10504150390625</west>
        </LatLonAltBox>
        <Lod>
          <minLodPixels>128</minLodPixels>
          <maxLodPixels>-1</maxLodPixels>
        </Lod>
      </Region>
      <Link>
        <href>https://swmoran.github.io/ch-tiles/tiles_GE/tiles_GE/17/37827/49287.kml</href>
        <viewRefreshMode>onRegion</viewRefreshMode>
        <viewFormat/>
      </Link>
    </NetworkLink>
        
    <NetworkLink>
      <name>17/37826/49286.png</name>
      <Region>
        <LatLonAltBox>
          <north>45.37078857421875</north>
          <south>45.36804199218750</south>
          <east>-76.10504150390625</east>
          <west>-76.10778808593750</west>
        </LatLonAltBox>
        <Lod>
          <minLodPixels>128</minLodPixels>
          <maxLodPixels>-1</maxLodPixels>
        </Lod>
      </Region>
      <Link>
        <href>https://swmoran.github.io/ch-tiles/tiles_GE/tiles_GE/17/37826/49286.kml</href>
        <viewRefreshMode>onRegion</viewRefreshMode>
        <viewFormat/>
      </Link>
    </NetworkLink>
        
    <NetworkLink>
      <name>17/37827/49286.png</name>
      <Region>
        <LatLonAltBox>
          <north>45.37078857421875</north>
          <south>45.36804199218750</south>
          <east>-76.10229492187500</east>
          <west>-76.10504150390625</west>
        </LatLonAltBox>
        <Lod>
          <minLodPixels>128</minLodPixels>
          <maxLodPixels>-1</maxLodPixels>
        </Lod>
      </Region>
      <Link>
        <href>https://swmoran.github.io/ch-tiles/tiles_GE/tiles_GE/17/37827/49286.kml</href>
        <viewRefreshMode>onRegion</viewRefreshMode>
        <viewFormat/>
      </Link>
    </NetworkLink>
              </Document>
</kml>
    