<?xml version="1.0" encoding="utf-8"?>
<kml xmlns="http://www.opengis.net/kml/2.2">
  <Document>
    <name>19/151378/197127.kml</name>
    <description></description>
    <Style>
      <ListStyle id="hideChildren">
        <listItemType>checkHideChildren</listItemType>
      </ListStyle>
    </Style>
    <Region>
      <LatLonAltBox>
        <north>134.64363098144531</north>
        <south>134.64294433593750</south>
        <east>-76.05628967285156</east>
        <west>-76.05697631835938</west>
      </LatLonAltBox>
      <Lod>
        <minLodPixels>128</minLodPixels>
        <maxLodPixels>-1</maxLodPixels>
      </Lod>
    </Region>
    <GroundOverlay>
      <drawOrder>38</drawOrder>
      <Icon>
        <href>197127.png</href>
      </Icon>
      <LatLonBox>
        <north>134.64363098144531</north>
        <south>134.64294433593750</south>
        <east>-76.05628967285156</east>
        <west>-76.05697631835938</west>
      </LatLonBox>
    </GroundOverlay>
      </Document>
</kml>
    