<?xml version="1.0" encoding="utf-8"?>
<kml xmlns="http://www.opengis.net/kml/2.2">
  <Document>
    <name>19/151330/197133.kml</name>
    <description></description>
    <Style>
      <ListStyle id="hideChildren">
        <listItemType>checkHideChildren</listItemType>
      </ListStyle>
    </Style>
    <Region>
      <LatLonAltBox>
        <north>45.36117553710938</north>
        <south>45.36048889160156</south>
        <east>-76.08924865722656</east>
        <west>-76.08993530273438</west>
      </LatLonAltBox>
      <Lod>
        <minLodPixels>128</minLodPixels>
        <maxLodPixels>-1</maxLodPixels>
      </Lod>
    </Region>
    <GroundOverlay>
      <drawOrder>38</drawOrder>
      <Icon>
        <href>197133.png</href>
      </Icon>
      <LatLonBox>
        <north>45.36117553710938</north>
        <south>45.36048889160156</south>
        <east>-76.08924865722656</east>
        <west>-76.08993530273438</west>
      </LatLonBox>
    </GroundOverlay>
      </Document>
</kml>
    