<?xml version="1.0" encoding="utf-8"?>
<kml xmlns="http://www.opengis.net/kml/2.2">
  <Document>
    <name>19/151320/336472.kml</name>
    <description></description>
    <Style>
      <ListStyle id="hideChildren">
        <listItemType>checkHideChildren</listItemType>
      </ListStyle>
    </Style>
    <Region>
      <LatLonAltBox>
        <north>45.37964325238120</north>
        <south>45.37916094640917</south>
        <east>-76.09611511230470</east>
        <west>-76.09680175781251</west>
      </LatLonAltBox>
      <Lod>
        <minLodPixels>128</minLodPixels>
        <maxLodPixels>-1</maxLodPixels>
      </Lod>
    </Region>
    <GroundOverlay>
      <drawOrder>38</drawOrder>
      <Icon>
        <href>336472.png</href>
      </Icon>
      <LatLonBox>
        <north>45.37964325238120</north>
        <south>45.37916094640917</south>
        <east>-76.09611511230470</east>
        <west>-76.09680175781251</west>
      </LatLonBox>
    </GroundOverlay>
      </Document>
</kml>
    