<?xml version="1.0" encoding="utf-8"?>
<kml xmlns="http://www.opengis.net/kml/2.2">
  <Document>
    <name>19/151395/336422.kml</name>
    <description></description>
    <Style>
      <ListStyle id="hideChildren">
        <listItemType>checkHideChildren</listItemType>
      </ListStyle>
    </Style>
    <Region>
      <LatLonAltBox>
        <north>45.35552291399440</north>
        <south>45.35504040231646</south>
        <east>-76.04461669921875</east>
        <west>-76.04530334472656</west>
      </LatLonAltBox>
      <Lod>
        <minLodPixels>128</minLodPixels>
        <maxLodPixels>-1</maxLodPixels>
      </Lod>
    </Region>
    <GroundOverlay>
      <drawOrder>38</drawOrder>
      <Icon>
        <href>336422.png</href>
      </Icon>
      <LatLonBox>
        <north>45.35552291399440</north>
        <south>45.35504040231646</south>
        <east>-76.04461669921875</east>
        <west>-76.04530334472656</west>
      </LatLonBox>
    </GroundOverlay>
      </Document>
</kml>
    