<?xml version="1.0" encoding="utf-8"?>
<kml xmlns="http://www.opengis.net/kml/2.2">
  <Document>
    <name>18/75692/168244.kml</name>
    <description></description>
    <Style>
      <ListStyle id="hideChildren">
        <listItemType>checkHideChildren</listItemType>
      </ListStyle>
    </Style>
    <Region>
      <LatLonAltBox>
        <north>45.38784182444948</north>
        <south>45.38687734827037</south>
        <east>-76.05148315429686</east>
        <west>-76.05285644531249</west>
      </LatLonAltBox>
      <Lod>
        <minLodPixels>128</minLodPixels>
        <maxLodPixels>2048</maxLodPixels>
      </Lod>
    </Region>
    <GroundOverlay>
      <drawOrder>36</drawOrder>
      <Icon>
        <href>168244.png</href>
      </Icon>
      <LatLonBox>
        <north>45.38784182444948</north>
        <south>45.38687734827037</south>
        <east>-76.05148315429686</east>
        <west>-76.05285644531249</west>
      </LatLonBox>
    </GroundOverlay>

    <NetworkLink>
      <name>19/151384/336489.png</name>
      <Region>
        <LatLonAltBox>
          <north>45.38784182444948</north>
          <south>45.38735958841696</south>
          <east>-76.05216979980467</east>
          <west>-76.05285644531249</west>
        </LatLonAltBox>
        <Lod>
          <minLodPixels>128</minLodPixels>
          <maxLodPixels>-1</maxLodPixels>
        </Lod>
      </Region>
      <Link>
        <href>../../19/151384/336489.kml</href>
        <viewRefreshMode>onRegion</viewRefreshMode>
        <viewFormat/>
      </Link>
    </NetworkLink>
        
    <NetworkLink>
      <name>19/151385/336489.png</name>
      <Region>
        <LatLonAltBox>
          <north>45.38784182444948</north>
          <south>45.38735958841696</south>
          <east>-76.05148315429686</east>
          <west>-76.05216979980467</west>
        </LatLonAltBox>
        <Lod>
          <minLodPixels>128</minLodPixels>
          <maxLodPixels>-1</maxLodPixels>
        </Lod>
      </Region>
      <Link>
        <href>../../19/151385/336489.kml</href>
        <viewRefreshMode>onRegion</viewRefreshMode>
        <viewFormat/>
      </Link>
    </NetworkLink>
        
    <NetworkLink>
      <name>19/151384/336488.png</name>
      <Region>
        <LatLonAltBox>
          <north>45.38735958841696</north>
          <south>45.38687734827037</south>
          <east>-76.05216979980467</east>
          <west>-76.05285644531249</west>
        </LatLonAltBox>
        <Lod>
          <minLodPixels>128</minLodPixels>
          <maxLodPixels>-1</maxLodPixels>
        </Lod>
      </Region>
      <Link>
        <href>../../19/151384/336488.kml</href>
        <viewRefreshMode>onRegion</viewRefreshMode>
        <viewFormat/>
      </Link>
    </NetworkLink>
        
    <NetworkLink>
      <name>19/151385/336488.png</name>
      <Region>
        <LatLonAltBox>
          <north>45.38735958841696</north>
          <south>45.38687734827037</south>
          <east>-76.05148315429686</east>
          <west>-76.05216979980467</west>
        </LatLonAltBox>
        <Lod>
          <minLodPixels>128</minLodPixels>
          <maxLodPixels>-1</maxLodPixels>
        </Lod>
      </Region>
      <Link>
        <href>../../19/151385/336488.kml</href>
        <viewRefreshMode>onRegion</viewRefreshMode>
        <viewFormat/>
      </Link>
    </NetworkLink>
              </Document>
</kml>
    