<?xml version="1.0" encoding="utf-8"?>
<kml xmlns="http://www.opengis.net/kml/2.2">
  <Document>
    <name>19/151425/197155.kml</name>
    <description></description>
    <Style>
      <ListStyle id="hideChildren">
        <listItemType>checkHideChildren</listItemType>
      </ListStyle>
    </Style>
    <Region>
      <LatLonAltBox>
        <north>134.62440490722656</north>
        <south>134.62371826171875</south>
        <east>-76.02401733398438</east>
        <west>-76.02470397949219</west>
      </LatLonAltBox>
      <Lod>
        <minLodPixels>128</minLodPixels>
        <maxLodPixels>-1</maxLodPixels>
      </Lod>
    </Region>
    <GroundOverlay>
      <drawOrder>38</drawOrder>
      <Icon>
        <href>197155.png</href>
      </Icon>
      <LatLonBox>
        <north>134.62440490722656</north>
        <south>134.62371826171875</south>
        <east>-76.02401733398438</east>
        <west>-76.02470397949219</west>
      </LatLonBox>
    </GroundOverlay>
      </Document>
</kml>
    