<?xml version="1.0" encoding="utf-8"?>
<kml xmlns="http://www.opengis.net/kml/2.2">
  <Document>
    <name>18/75714/98572.kml</name>
    <description></description>
    <Style>
      <ListStyle id="hideChildren">
        <listItemType>checkHideChildren</listItemType>
      </ListStyle>
    </Style>
    <Region>
      <LatLonAltBox>
        <north>45.36941528320312</north>
        <south>45.36804199218750</south>
        <east>-76.02127075195312</east>
        <west>-76.02264404296875</west>
      </LatLonAltBox>
      <Lod>
        <minLodPixels>128</minLodPixels>
        <maxLodPixels>2048</maxLodPixels>
      </Lod>
    </Region>
    <GroundOverlay>
      <drawOrder>36</drawOrder>
      <Icon>
        <href>98572.png</href>
      </Icon>
      <LatLonBox>
        <north>45.36941528320312</north>
        <south>45.36804199218750</south>
        <east>-76.02127075195312</east>
        <west>-76.02264404296875</west>
      </LatLonBox>
    </GroundOverlay>

    <NetworkLink>
      <name>19/151428/197145.png</name>
      <Region>
        <LatLonAltBox>
          <north>45.36941528320312</north>
          <south>45.36872863769531</south>
          <east>-76.02195739746094</east>
          <west>-76.02264404296875</west>
        </LatLonAltBox>
        <Lod>
          <minLodPixels>128</minLodPixels>
          <maxLodPixels>-1</maxLodPixels>
        </Lod>
      </Region>
      <Link>
        <href>https://swmoran.github.io/ch-tiles/tiles/DRAPE_tiles/19/151428/197145.kml</href>
        <viewRefreshMode>onRegion</viewRefreshMode>
        <viewFormat/>
      </Link>
    </NetworkLink>
        
    <NetworkLink>
      <name>19/151429/197145.png</name>
      <Region>
        <LatLonAltBox>
          <north>45.36941528320312</north>
          <south>45.36872863769531</south>
          <east>-76.02127075195312</east>
          <west>-76.02195739746094</west>
        </LatLonAltBox>
        <Lod>
          <minLodPixels>128</minLodPixels>
          <maxLodPixels>-1</maxLodPixels>
        </Lod>
      </Region>
      <Link>
        <href>https://swmoran.github.io/ch-tiles/tiles/DRAPE_tiles/19/151429/197145.kml</href>
        <viewRefreshMode>onRegion</viewRefreshMode>
        <viewFormat/>
      </Link>
    </NetworkLink>
        
    <NetworkLink>
      <name>19/151428/197144.png</name>
      <Region>
        <LatLonAltBox>
          <north>45.36872863769531</north>
          <south>45.36804199218750</south>
          <east>-76.02195739746094</east>
          <west>-76.02264404296875</west>
        </LatLonAltBox>
        <Lod>
          <minLodPixels>128</minLodPixels>
          <maxLodPixels>-1</maxLodPixels>
        </Lod>
      </Region>
      <Link>
        <href>https://swmoran.github.io/ch-tiles/tiles/DRAPE_tiles/19/151428/197144.kml</href>
        <viewRefreshMode>onRegion</viewRefreshMode>
        <viewFormat/>
      </Link>
    </NetworkLink>
        
    <NetworkLink>
      <name>19/151429/197144.png</name>
      <Region>
        <LatLonAltBox>
          <north>45.36872863769531</north>
          <south>45.36804199218750</south>
          <east>-76.02127075195312</east>
          <west>-76.02195739746094</west>
        </LatLonAltBox>
        <Lod>
          <minLodPixels>128</minLodPixels>
          <maxLodPixels>-1</maxLodPixels>
        </Lod>
      </Region>
      <Link>
        <href>https://swmoran.github.io/ch-tiles/tiles/DRAPE_tiles/19/151429/197144.kml</href>
        <viewRefreshMode>onRegion</viewRefreshMode>
        <viewFormat/>
      </Link>
    </NetworkLink>
              </Document>
</kml>
    