<?xml version="1.0" encoding="utf-8"?>
<kml xmlns="http://www.opengis.net/kml/2.2">
  <Document>
    <name>18/75678/163569.kml</name>
    <description></description>
    <Style>
      <ListStyle id="hideChildren">
        <listItemType>checkHideChildren</listItemType>
      </ListStyle>
    </Style>
    <Region>
      <LatLonAltBox>
        <north>45.37216186523438</north>
        <south>45.37078857421875</south>
        <east>-76.07070922851562</east>
        <west>-76.07208251953125</west>
      </LatLonAltBox>
      <Lod>
        <minLodPixels>128</minLodPixels>
        <maxLodPixels>2048</maxLodPixels>
      </Lod>
    </Region>
    <GroundOverlay>
      <drawOrder>36</drawOrder>
      <Icon>
        <href>163569.png</href>
      </Icon>
      <LatLonBox>
        <north>45.37216186523438</north>
        <south>45.37078857421875</south>
        <east>-76.07070922851562</east>
        <west>-76.07208251953125</west>
      </LatLonBox>
    </GroundOverlay>

    <NetworkLink>
      <name>19/151356/327138.png</name>
      <Region>
        <LatLonAltBox>
          <north>45.37216186523438</north>
          <south>45.37147521972656</south>
          <east>-76.07139587402344</east>
          <west>-76.07208251953125</west>
        </LatLonAltBox>
        <Lod>
          <minLodPixels>128</minLodPixels>
          <maxLodPixels>-1</maxLodPixels>
        </Lod>
      </Region>
      <Link>
        <href>../../19/151356/327138.kml</href>
        <viewRefreshMode>onRegion</viewRefreshMode>
        <viewFormat/>
      </Link>
    </NetworkLink>
        
    <NetworkLink>
      <name>19/151357/327138.png</name>
      <Region>
        <LatLonAltBox>
          <north>45.37216186523438</north>
          <south>45.37147521972656</south>
          <east>-76.07070922851562</east>
          <west>-76.07139587402344</west>
        </LatLonAltBox>
        <Lod>
          <minLodPixels>128</minLodPixels>
          <maxLodPixels>-1</maxLodPixels>
        </Lod>
      </Region>
      <Link>
        <href>../../19/151357/327138.kml</href>
        <viewRefreshMode>onRegion</viewRefreshMode>
        <viewFormat/>
      </Link>
    </NetworkLink>
        
    <NetworkLink>
      <name>19/151356/327139.png</name>
      <Region>
        <LatLonAltBox>
          <north>45.37147521972656</north>
          <south>45.37078857421875</south>
          <east>-76.07139587402344</east>
          <west>-76.07208251953125</west>
        </LatLonAltBox>
        <Lod>
          <minLodPixels>128</minLodPixels>
          <maxLodPixels>-1</maxLodPixels>
        </Lod>
      </Region>
      <Link>
        <href>../../19/151356/327139.kml</href>
        <viewRefreshMode>onRegion</viewRefreshMode>
        <viewFormat/>
      </Link>
    </NetworkLink>
        
    <NetworkLink>
      <name>19/151357/327139.png</name>
      <Region>
        <LatLonAltBox>
          <north>45.37147521972656</north>
          <south>45.37078857421875</south>
          <east>-76.07070922851562</east>
          <west>-76.07139587402344</west>
        </LatLonAltBox>
        <Lod>
          <minLodPixels>128</minLodPixels>
          <maxLodPixels>-1</maxLodPixels>
        </Lod>
      </Region>
      <Link>
        <href>../../19/151357/327139.kml</href>
        <viewRefreshMode>onRegion</viewRefreshMode>
        <viewFormat/>
      </Link>
    </NetworkLink>
              </Document>
</kml>
    