<?xml version="1.0" encoding="utf-8"?>
<kml xmlns="http://www.opengis.net/kml/2.2">
  <Document>
    <name>19/151388/336524.kml</name>
    <description></description>
    <Style>
      <ListStyle id="hideChildren">
        <listItemType>checkHideChildren</listItemType>
      </ListStyle>
    </Style>
    <Region>
      <LatLonAltBox>
        <north>45.40471749372361</north>
        <south>45.40423540168334</south>
        <east>-76.04942321777342</east>
        <west>-76.05010986328124</west>
      </LatLonAltBox>
      <Lod>
        <minLodPixels>128</minLodPixels>
        <maxLodPixels>-1</maxLodPixels>
      </Lod>
    </Region>
    <GroundOverlay>
      <drawOrder>38</drawOrder>
      <Icon>
        <href>336524.png</href>
      </Icon>
      <LatLonBox>
        <north>45.40471749372361</north>
        <south>45.40423540168334</south>
        <east>-76.04942321777342</east>
        <west>-76.05010986328124</west>
      </LatLonBox>
    </GroundOverlay>
      </Document>
</kml>
    