<?xml version="1.0" encoding="utf-8"?>
<kml xmlns="http://www.opengis.net/kml/2.2">
  <Document>
    <name>16/18923/42060.kml</name>
    <description></description>
    <Style>
      <ListStyle id="hideChildren">
        <listItemType>checkHideChildren</listItemType>
      </ListStyle>
    </Style>
    <Region>
      <LatLonAltBox>
        <north>45.38687734827037</north>
        <south>45.38301927899063</south>
        <east>-76.04736328125000</east>
        <west>-76.05285644531249</west>
      </LatLonAltBox>
      <Lod>
        <minLodPixels>128</minLodPixels>
        <maxLodPixels>2048</maxLodPixels>
      </Lod>
    </Region>
    <GroundOverlay>
      <drawOrder>32</drawOrder>
      <Icon>
        <href>42060.png</href>
      </Icon>
      <LatLonBox>
        <north>45.38687734827037</north>
        <south>45.38301927899063</south>
        <east>-76.04736328125000</east>
        <west>-76.05285644531249</west>
      </LatLonBox>
    </GroundOverlay>

    <NetworkLink>
      <name>17/37846/84121.png</name>
      <Region>
        <LatLonAltBox>
          <north>45.38687734827037</north>
          <south>45.38494834654319</south>
          <east>-76.05010986328124</east>
          <west>-76.05285644531249</west>
        </LatLonAltBox>
        <Lod>
          <minLodPixels>128</minLodPixels>
          <maxLodPixels>-1</maxLodPixels>
        </Lod>
      </Region>
      <Link>
        <href>../../17/37846/84121.kml</href>
        <viewRefreshMode>onRegion</viewRefreshMode>
        <viewFormat/>
      </Link>
    </NetworkLink>
        
    <NetworkLink>
      <name>17/37847/84121.png</name>
      <Region>
        <LatLonAltBox>
          <north>45.38687734827037</north>
          <south>45.38494834654319</south>
          <east>-76.04736328125000</east>
          <west>-76.05010986328124</west>
        </LatLonAltBox>
        <Lod>
          <minLodPixels>128</minLodPixels>
          <maxLodPixels>-1</maxLodPixels>
        </Lod>
      </Region>
      <Link>
        <href>../../17/37847/84121.kml</href>
        <viewRefreshMode>onRegion</viewRefreshMode>
        <viewFormat/>
      </Link>
    </NetworkLink>
        
    <NetworkLink>
      <name>17/37846/84120.png</name>
      <Region>
        <LatLonAltBox>
          <north>45.38494834654319</north>
          <south>45.38301927899063</south>
          <east>-76.05010986328124</east>
          <west>-76.05285644531249</west>
        </LatLonAltBox>
        <Lod>
          <minLodPixels>128</minLodPixels>
          <maxLodPixels>-1</maxLodPixels>
        </Lod>
      </Region>
      <Link>
        <href>../../17/37846/84120.kml</href>
        <viewRefreshMode>onRegion</viewRefreshMode>
        <viewFormat/>
      </Link>
    </NetworkLink>
        
    <NetworkLink>
      <name>17/37847/84120.png</name>
      <Region>
        <LatLonAltBox>
          <north>45.38494834654319</north>
          <south>45.38301927899063</south>
          <east>-76.04736328125000</east>
          <west>-76.05010986328124</west>
        </LatLonAltBox>
        <Lod>
          <minLodPixels>128</minLodPixels>
          <maxLodPixels>-1</maxLodPixels>
        </Lod>
      </Region>
      <Link>
        <href>../../17/37847/84120.kml</href>
        <viewRefreshMode>onRegion</viewRefreshMode>
        <viewFormat/>
      </Link>
    </NetworkLink>
              </Document>
</kml>
    