<?xml version="1.0" encoding="utf-8"?>
<kml xmlns="http://www.opengis.net/kml/2.2">
  <Document>
    <name>19/151348/197126.kml</name>
    <description></description>
    <Style>
      <ListStyle id="hideChildren">
        <listItemType>checkHideChildren</listItemType>
      </ListStyle>
    </Style>
    <Region>
      <LatLonAltBox>
        <north>134.64431762695312</north>
        <south>134.64363098144531</south>
        <east>-76.07688903808594</east>
        <west>-76.07757568359375</west>
      </LatLonAltBox>
      <Lod>
        <minLodPixels>128</minLodPixels>
        <maxLodPixels>-1</maxLodPixels>
      </Lod>
    </Region>
    <GroundOverlay>
      <drawOrder>38</drawOrder>
      <Icon>
        <href>197126.png</href>
      </Icon>
      <LatLonBox>
        <north>134.64431762695312</north>
        <south>134.64363098144531</south>
        <east>-76.07688903808594</east>
        <west>-76.07757568359375</west>
      </LatLonBox>
    </GroundOverlay>
      </Document>
</kml>
    