<?xml version="1.0" encoding="utf-8"?>
<kml xmlns="http://www.opengis.net/kml/2.2">
  <Document>
    <name>18/75704/98602.kml</name>
    <description></description>
    <Style>
      <ListStyle id="hideChildren">
        <listItemType>checkHideChildren</listItemType>
      </ListStyle>
    </Style>
    <Region>
      <LatLonAltBox>
        <north>45.41061401367188</north>
        <south>45.40924072265625</south>
        <east>-76.03500366210938</east>
        <west>-76.03637695312500</west>
      </LatLonAltBox>
      <Lod>
        <minLodPixels>128</minLodPixels>
        <maxLodPixels>2048</maxLodPixels>
      </Lod>
    </Region>
    <GroundOverlay>
      <drawOrder>36</drawOrder>
      <Icon>
        <href>98602.png</href>
      </Icon>
      <LatLonBox>
        <north>45.41061401367188</north>
        <south>45.40924072265625</south>
        <east>-76.03500366210938</east>
        <west>-76.03637695312500</west>
      </LatLonBox>
    </GroundOverlay>

    <NetworkLink>
      <name>19/151408/197205.png</name>
      <Region>
        <LatLonAltBox>
          <north>45.41061401367188</north>
          <south>45.40992736816406</south>
          <east>-76.03569030761719</east>
          <west>-76.03637695312500</west>
        </LatLonAltBox>
        <Lod>
          <minLodPixels>128</minLodPixels>
          <maxLodPixels>-1</maxLodPixels>
        </Lod>
      </Region>
      <Link>
        <href>https://swmoran.github.io/ch-tiles/tiles/DRAPE_Tiles/19/151408/197205.kml</href>
        <viewRefreshMode>onRegion</viewRefreshMode>
        <viewFormat/>
      </Link>
    </NetworkLink>
        
    <NetworkLink>
      <name>19/151409/197205.png</name>
      <Region>
        <LatLonAltBox>
          <north>45.41061401367188</north>
          <south>45.40992736816406</south>
          <east>-76.03500366210938</east>
          <west>-76.03569030761719</west>
        </LatLonAltBox>
        <Lod>
          <minLodPixels>128</minLodPixels>
          <maxLodPixels>-1</maxLodPixels>
        </Lod>
      </Region>
      <Link>
        <href>https://swmoran.github.io/ch-tiles/tiles/DRAPE_Tiles/19/151409/197205.kml</href>
        <viewRefreshMode>onRegion</viewRefreshMode>
        <viewFormat/>
      </Link>
    </NetworkLink>
        
    <NetworkLink>
      <name>19/151408/197204.png</name>
      <Region>
        <LatLonAltBox>
          <north>45.40992736816406</north>
          <south>45.40924072265625</south>
          <east>-76.03569030761719</east>
          <west>-76.03637695312500</west>
        </LatLonAltBox>
        <Lod>
          <minLodPixels>128</minLodPixels>
          <maxLodPixels>-1</maxLodPixels>
        </Lod>
      </Region>
      <Link>
        <href>https://swmoran.github.io/ch-tiles/tiles/DRAPE_Tiles/19/151408/197204.kml</href>
        <viewRefreshMode>onRegion</viewRefreshMode>
        <viewFormat/>
      </Link>
    </NetworkLink>
        
    <NetworkLink>
      <name>19/151409/197204.png</name>
      <Region>
        <LatLonAltBox>
          <north>45.40992736816406</north>
          <south>45.40924072265625</south>
          <east>-76.03500366210938</east>
          <west>-76.03569030761719</west>
        </LatLonAltBox>
        <Lod>
          <minLodPixels>128</minLodPixels>
          <maxLodPixels>-1</maxLodPixels>
        </Lod>
      </Region>
      <Link>
        <href>https://swmoran.github.io/ch-tiles/tiles/DRAPE_Tiles/19/151409/197204.kml</href>
        <viewRefreshMode>onRegion</viewRefreshMode>
        <viewFormat/>
      </Link>
    </NetworkLink>
              </Document>
</kml>
    