<?xml version="1.0" encoding="utf-8"?>
<kml xmlns="http://www.opengis.net/kml/2.2">
  <Document>
    <name>18/75661/98579.kml</name>
    <description></description>
    <Style>
      <ListStyle id="hideChildren">
        <listItemType>checkHideChildren</listItemType>
      </ListStyle>
    </Style>
    <Region>
      <LatLonAltBox>
        <north>45.37902832031250</north>
        <south>45.37765502929688</south>
        <east>-76.09405517578125</east>
        <west>-76.09542846679688</west>
      </LatLonAltBox>
      <Lod>
        <minLodPixels>128</minLodPixels>
        <maxLodPixels>2048</maxLodPixels>
      </Lod>
    </Region>
    <GroundOverlay>
      <drawOrder>36</drawOrder>
      <Icon>
        <href>98579.png</href>
      </Icon>
      <LatLonBox>
        <north>45.37902832031250</north>
        <south>45.37765502929688</south>
        <east>-76.09405517578125</east>
        <west>-76.09542846679688</west>
      </LatLonBox>
    </GroundOverlay>

    <NetworkLink>
      <name>19/151322/197159.png</name>
      <Region>
        <LatLonAltBox>
          <north>45.37902832031250</north>
          <south>45.37834167480469</south>
          <east>-76.09474182128906</east>
          <west>-76.09542846679688</west>
        </LatLonAltBox>
        <Lod>
          <minLodPixels>128</minLodPixels>
          <maxLodPixels>-1</maxLodPixels>
        </Lod>
      </Region>
      <Link>
        <href>https://swmoran.github.io/ch-tiles/tiles/DRAPE_Tiles/19/151322/197159.kml</href>
        <viewRefreshMode>onRegion</viewRefreshMode>
        <viewFormat/>
      </Link>
    </NetworkLink>
        
    <NetworkLink>
      <name>19/151323/197159.png</name>
      <Region>
        <LatLonAltBox>
          <north>45.37902832031250</north>
          <south>45.37834167480469</south>
          <east>-76.09405517578125</east>
          <west>-76.09474182128906</west>
        </LatLonAltBox>
        <Lod>
          <minLodPixels>128</minLodPixels>
          <maxLodPixels>-1</maxLodPixels>
        </Lod>
      </Region>
      <Link>
        <href>https://swmoran.github.io/ch-tiles/tiles/DRAPE_Tiles/19/151323/197159.kml</href>
        <viewRefreshMode>onRegion</viewRefreshMode>
        <viewFormat/>
      </Link>
    </NetworkLink>
        
    <NetworkLink>
      <name>19/151322/197158.png</name>
      <Region>
        <LatLonAltBox>
          <north>45.37834167480469</north>
          <south>45.37765502929688</south>
          <east>-76.09474182128906</east>
          <west>-76.09542846679688</west>
        </LatLonAltBox>
        <Lod>
          <minLodPixels>128</minLodPixels>
          <maxLodPixels>-1</maxLodPixels>
        </Lod>
      </Region>
      <Link>
        <href>https://swmoran.github.io/ch-tiles/tiles/DRAPE_Tiles/19/151322/197158.kml</href>
        <viewRefreshMode>onRegion</viewRefreshMode>
        <viewFormat/>
      </Link>
    </NetworkLink>
        
    <NetworkLink>
      <name>19/151323/197158.png</name>
      <Region>
        <LatLonAltBox>
          <north>45.37834167480469</north>
          <south>45.37765502929688</south>
          <east>-76.09405517578125</east>
          <west>-76.09474182128906</west>
        </LatLonAltBox>
        <Lod>
          <minLodPixels>128</minLodPixels>
          <maxLodPixels>-1</maxLodPixels>
        </Lod>
      </Region>
      <Link>
        <href>https://swmoran.github.io/ch-tiles/tiles/DRAPE_Tiles/19/151323/197158.kml</href>
        <viewRefreshMode>onRegion</viewRefreshMode>
        <viewFormat/>
      </Link>
    </NetworkLink>
              </Document>
</kml>
    