<?xml version="1.0" encoding="utf-8"?>
<kml xmlns="http://www.opengis.net/kml/2.2">
  <Document>
    <name>18/75675/163557.kml</name>
    <description></description>
    <Style>
      <ListStyle id="hideChildren">
        <listItemType>checkHideChildren</listItemType>
      </ListStyle>
    </Style>
    <Region>
      <LatLonAltBox>
        <north>45.38864135742188</north>
        <south>45.38726806640625</south>
        <east>-76.07482910156250</east>
        <west>-76.07620239257812</west>
      </LatLonAltBox>
      <Lod>
        <minLodPixels>128</minLodPixels>
        <maxLodPixels>2048</maxLodPixels>
      </Lod>
    </Region>
    <GroundOverlay>
      <drawOrder>36</drawOrder>
      <Icon>
        <href>163557.png</href>
      </Icon>
      <LatLonBox>
        <north>45.38864135742188</north>
        <south>45.38726806640625</south>
        <east>-76.07482910156250</east>
        <west>-76.07620239257812</west>
      </LatLonBox>
    </GroundOverlay>

    <NetworkLink>
      <name>19/151350/327114.png</name>
      <Region>
        <LatLonAltBox>
          <north>45.38864135742188</north>
          <south>45.38795471191406</south>
          <east>-76.07551574707031</east>
          <west>-76.07620239257812</west>
        </LatLonAltBox>
        <Lod>
          <minLodPixels>128</minLodPixels>
          <maxLodPixels>-1</maxLodPixels>
        </Lod>
      </Region>
      <Link>
        <href>../../19/151350/327114.kml</href>
        <viewRefreshMode>onRegion</viewRefreshMode>
        <viewFormat/>
      </Link>
    </NetworkLink>
        
    <NetworkLink>
      <name>19/151351/327114.png</name>
      <Region>
        <LatLonAltBox>
          <north>45.38864135742188</north>
          <south>45.38795471191406</south>
          <east>-76.07482910156250</east>
          <west>-76.07551574707031</west>
        </LatLonAltBox>
        <Lod>
          <minLodPixels>128</minLodPixels>
          <maxLodPixels>-1</maxLodPixels>
        </Lod>
      </Region>
      <Link>
        <href>../../19/151351/327114.kml</href>
        <viewRefreshMode>onRegion</viewRefreshMode>
        <viewFormat/>
      </Link>
    </NetworkLink>
        
    <NetworkLink>
      <name>19/151350/327115.png</name>
      <Region>
        <LatLonAltBox>
          <north>45.38795471191406</north>
          <south>45.38726806640625</south>
          <east>-76.07551574707031</east>
          <west>-76.07620239257812</west>
        </LatLonAltBox>
        <Lod>
          <minLodPixels>128</minLodPixels>
          <maxLodPixels>-1</maxLodPixels>
        </Lod>
      </Region>
      <Link>
        <href>../../19/151350/327115.kml</href>
        <viewRefreshMode>onRegion</viewRefreshMode>
        <viewFormat/>
      </Link>
    </NetworkLink>
        
    <NetworkLink>
      <name>19/151351/327115.png</name>
      <Region>
        <LatLonAltBox>
          <north>45.38795471191406</north>
          <south>45.38726806640625</south>
          <east>-76.07482910156250</east>
          <west>-76.07551574707031</west>
        </LatLonAltBox>
        <Lod>
          <minLodPixels>128</minLodPixels>
          <maxLodPixels>-1</maxLodPixels>
        </Lod>
      </Region>
      <Link>
        <href>../../19/151351/327115.kml</href>
        <viewRefreshMode>onRegion</viewRefreshMode>
        <viewFormat/>
      </Link>
    </NetworkLink>
              </Document>
</kml>
    