<?xml version="1.0" encoding="utf-8"?>
<kml xmlns="http://www.opengis.net/kml/2.2">
  <Document>
    <name>18/75662/168254.kml</name>
    <description></description>
    <Style>
      <ListStyle id="hideChildren">
        <listItemType>checkHideChildren</listItemType>
      </ListStyle>
    </Style>
    <Region>
      <LatLonAltBox>
        <north>45.39748568114411</north>
        <south>45.39652136952787</south>
        <east>-76.09268188476561</east>
        <west>-76.09405517578124</west>
      </LatLonAltBox>
      <Lod>
        <minLodPixels>128</minLodPixels>
        <maxLodPixels>2048</maxLodPixels>
      </Lod>
    </Region>
    <GroundOverlay>
      <drawOrder>36</drawOrder>
      <Icon>
        <href>168254.png</href>
      </Icon>
      <LatLonBox>
        <north>45.39748568114411</north>
        <south>45.39652136952787</south>
        <east>-76.09268188476561</east>
        <west>-76.09405517578124</west>
      </LatLonBox>
    </GroundOverlay>

    <NetworkLink>
      <name>19/151324/336509.png</name>
      <Region>
        <LatLonAltBox>
          <north>45.39748568114411</north>
          <south>45.39700352739302</south>
          <east>-76.09336853027342</east>
          <west>-76.09405517578124</west>
        </LatLonAltBox>
        <Lod>
          <minLodPixels>128</minLodPixels>
          <maxLodPixels>-1</maxLodPixels>
        </Lod>
      </Region>
      <Link>
        <href>../../19/151324/336509.kml</href>
        <viewRefreshMode>onRegion</viewRefreshMode>
        <viewFormat/>
      </Link>
    </NetworkLink>
        
    <NetworkLink>
      <name>19/151325/336509.png</name>
      <Region>
        <LatLonAltBox>
          <north>45.39748568114411</north>
          <south>45.39700352739302</south>
          <east>-76.09268188476561</east>
          <west>-76.09336853027342</west>
        </LatLonAltBox>
        <Lod>
          <minLodPixels>128</minLodPixels>
          <maxLodPixels>-1</maxLodPixels>
        </Lod>
      </Region>
      <Link>
        <href>../../19/151325/336509.kml</href>
        <viewRefreshMode>onRegion</viewRefreshMode>
        <viewFormat/>
      </Link>
    </NetworkLink>
        
    <NetworkLink>
      <name>19/151324/336508.png</name>
      <Region>
        <LatLonAltBox>
          <north>45.39700352739302</north>
          <south>45.39652136952787</south>
          <east>-76.09336853027342</east>
          <west>-76.09405517578124</west>
        </LatLonAltBox>
        <Lod>
          <minLodPixels>128</minLodPixels>
          <maxLodPixels>-1</maxLodPixels>
        </Lod>
      </Region>
      <Link>
        <href>../../19/151324/336508.kml</href>
        <viewRefreshMode>onRegion</viewRefreshMode>
        <viewFormat/>
      </Link>
    </NetworkLink>
        
    <NetworkLink>
      <name>19/151325/336508.png</name>
      <Region>
        <LatLonAltBox>
          <north>45.39700352739302</north>
          <south>45.39652136952787</south>
          <east>-76.09268188476561</east>
          <west>-76.09336853027342</west>
        </LatLonAltBox>
        <Lod>
          <minLodPixels>128</minLodPixels>
          <maxLodPixels>-1</maxLodPixels>
        </Lod>
      </Region>
      <Link>
        <href>../../19/151325/336508.kml</href>
        <viewRefreshMode>onRegion</viewRefreshMode>
        <viewFormat/>
      </Link>
    </NetworkLink>
              </Document>
</kml>
    