<?xml version="1.0" encoding="utf-8"?>
<kml xmlns="http://www.opengis.net/kml/2.2">
  <Document>
    <name>17/37829/84119.kml</name>
    <description></description>
    <Style>
      <ListStyle id="hideChildren">
        <listItemType>checkHideChildren</listItemType>
      </ListStyle>
    </Style>
    <Region>
      <LatLonAltBox>
        <north>45.38301927899063</north>
        <south>45.38109014561265</south>
        <east>-76.09680175781251</east>
        <west>-76.09954833984376</west>
      </LatLonAltBox>
      <Lod>
        <minLodPixels>128</minLodPixels>
        <maxLodPixels>2048</maxLodPixels>
      </Lod>
    </Region>
    <GroundOverlay>
      <drawOrder>34</drawOrder>
      <Icon>
        <href>84119.png</href>
      </Icon>
      <LatLonBox>
        <north>45.38301927899063</north>
        <south>45.38109014561265</south>
        <east>-76.09680175781251</east>
        <west>-76.09954833984376</west>
      </LatLonBox>
    </GroundOverlay>

    <NetworkLink>
      <name>18/75658/168239.png</name>
      <Region>
        <LatLonAltBox>
          <north>45.38301927899063</north>
          <south>45.38205472052984</south>
          <east>-76.09817504882814</east>
          <west>-76.09954833984376</west>
        </LatLonAltBox>
        <Lod>
          <minLodPixels>128</minLodPixels>
          <maxLodPixels>-1</maxLodPixels>
        </Lod>
      </Region>
      <Link>
        <href>../../18/75658/168239.kml</href>
        <viewRefreshMode>onRegion</viewRefreshMode>
        <viewFormat/>
      </Link>
    </NetworkLink>
        
    <NetworkLink>
      <name>18/75659/168239.png</name>
      <Region>
        <LatLonAltBox>
          <north>45.38301927899063</north>
          <south>45.38205472052984</south>
          <east>-76.09680175781251</east>
          <west>-76.09817504882814</west>
        </LatLonAltBox>
        <Lod>
          <minLodPixels>128</minLodPixels>
          <maxLodPixels>-1</maxLodPixels>
        </Lod>
      </Region>
      <Link>
        <href>../../18/75659/168239.kml</href>
        <viewRefreshMode>onRegion</viewRefreshMode>
        <viewFormat/>
      </Link>
    </NetworkLink>
        
    <NetworkLink>
      <name>18/75658/168238.png</name>
      <Region>
        <LatLonAltBox>
          <north>45.38205472052984</north>
          <south>45.38109014561265</south>
          <east>-76.09817504882814</east>
          <west>-76.09954833984376</west>
        </LatLonAltBox>
        <Lod>
          <minLodPixels>128</minLodPixels>
          <maxLodPixels>-1</maxLodPixels>
        </Lod>
      </Region>
      <Link>
        <href>../../18/75658/168238.kml</href>
        <viewRefreshMode>onRegion</viewRefreshMode>
        <viewFormat/>
      </Link>
    </NetworkLink>
        
    <NetworkLink>
      <name>18/75659/168238.png</name>
      <Region>
        <LatLonAltBox>
          <north>45.38205472052984</north>
          <south>45.38109014561265</south>
          <east>-76.09680175781251</east>
          <west>-76.09817504882814</west>
        </LatLonAltBox>
        <Lod>
          <minLodPixels>128</minLodPixels>
          <maxLodPixels>-1</maxLodPixels>
        </Lod>
      </Region>
      <Link>
        <href>../../18/75659/168238.kml</href>
        <viewRefreshMode>onRegion</viewRefreshMode>
        <viewFormat/>
      </Link>
    </NetworkLink>
              </Document>
</kml>
    