<?xml version="1.0" encoding="utf-8"?>
<kml xmlns="http://www.opengis.net/kml/2.2">
  <Document>
    <name>18/75683/98567.kml</name>
    <description></description>
    <Style>
      <ListStyle id="hideChildren">
        <listItemType>checkHideChildren</listItemType>
      </ListStyle>
    </Style>
    <Region>
      <LatLonAltBox>
        <north>45.36254882812500</north>
        <south>45.36117553710938</south>
        <east>-76.06384277343750</east>
        <west>-76.06521606445312</west>
      </LatLonAltBox>
      <Lod>
        <minLodPixels>128</minLodPixels>
        <maxLodPixels>2048</maxLodPixels>
      </Lod>
    </Region>
    <GroundOverlay>
      <drawOrder>36</drawOrder>
      <Icon>
        <href>98567.png</href>
      </Icon>
      <LatLonBox>
        <north>45.36254882812500</north>
        <south>45.36117553710938</south>
        <east>-76.06384277343750</east>
        <west>-76.06521606445312</west>
      </LatLonBox>
    </GroundOverlay>

    <NetworkLink>
      <name>19/151366/197135.png</name>
      <Region>
        <LatLonAltBox>
          <north>45.36254882812500</north>
          <south>45.36186218261719</south>
          <east>-76.06452941894531</east>
          <west>-76.06521606445312</west>
        </LatLonAltBox>
        <Lod>
          <minLodPixels>128</minLodPixels>
          <maxLodPixels>-1</maxLodPixels>
        </Lod>
      </Region>
      <Link>
        <href>../../19/151366/197135.kml</href>
        <viewRefreshMode>onRegion</viewRefreshMode>
        <viewFormat/>
      </Link>
    </NetworkLink>
        
    <NetworkLink>
      <name>19/151367/197135.png</name>
      <Region>
        <LatLonAltBox>
          <north>45.36254882812500</north>
          <south>45.36186218261719</south>
          <east>-76.06384277343750</east>
          <west>-76.06452941894531</west>
        </LatLonAltBox>
        <Lod>
          <minLodPixels>128</minLodPixels>
          <maxLodPixels>-1</maxLodPixels>
        </Lod>
      </Region>
      <Link>
        <href>../../19/151367/197135.kml</href>
        <viewRefreshMode>onRegion</viewRefreshMode>
        <viewFormat/>
      </Link>
    </NetworkLink>
        
    <NetworkLink>
      <name>19/151366/197134.png</name>
      <Region>
        <LatLonAltBox>
          <north>45.36186218261719</north>
          <south>45.36117553710938</south>
          <east>-76.06452941894531</east>
          <west>-76.06521606445312</west>
        </LatLonAltBox>
        <Lod>
          <minLodPixels>128</minLodPixels>
          <maxLodPixels>-1</maxLodPixels>
        </Lod>
      </Region>
      <Link>
        <href>../../19/151366/197134.kml</href>
        <viewRefreshMode>onRegion</viewRefreshMode>
        <viewFormat/>
      </Link>
    </NetworkLink>
        
    <NetworkLink>
      <name>19/151367/197134.png</name>
      <Region>
        <LatLonAltBox>
          <north>45.36186218261719</north>
          <south>45.36117553710938</south>
          <east>-76.06384277343750</east>
          <west>-76.06452941894531</west>
        </LatLonAltBox>
        <Lod>
          <minLodPixels>128</minLodPixels>
          <maxLodPixels>-1</maxLodPixels>
        </Lod>
      </Region>
      <Link>
        <href>../../19/151367/197134.kml</href>
        <viewRefreshMode>onRegion</viewRefreshMode>
        <viewFormat/>
      </Link>
    </NetworkLink>
              </Document>
</kml>
    