<?xml version="1.0" encoding="utf-8"?>
<kml xmlns="http://www.opengis.net/kml/2.2">
  <Document>
    <name>19/151348/197173.kml</name>
    <description></description>
    <Style>
      <ListStyle id="hideChildren">
        <listItemType>checkHideChildren</listItemType>
      </ListStyle>
    </Style>
    <Region>
      <LatLonAltBox>
        <north>45.38864135742188</north>
        <south>45.38795471191406</south>
        <east>-76.07688903808594</east>
        <west>-76.07757568359375</west>
      </LatLonAltBox>
      <Lod>
        <minLodPixels>128</minLodPixels>
        <maxLodPixels>-1</maxLodPixels>
      </Lod>
    </Region>
    <GroundOverlay>
      <drawOrder>38</drawOrder>
      <Icon>
        <href>197173.png</href>
      </Icon>
      <LatLonBox>
        <north>45.38864135742188</north>
        <south>45.38795471191406</south>
        <east>-76.07688903808594</east>
        <west>-76.07757568359375</west>
      </LatLonBox>
    </GroundOverlay>
      </Document>
</kml>
    