<?xml version="1.0" encoding="utf-8"?>
<kml xmlns="http://www.opengis.net/kml/2.2">
  <Document>
    <name>19/151318/197191.kml</name>
    <description></description>
    <Style>
      <ListStyle id="hideChildren">
        <listItemType>checkHideChildren</listItemType>
      </ListStyle>
    </Style>
    <Region>
      <LatLonAltBox>
        <north>45.40100097656250</north>
        <south>45.40031433105469</south>
        <east>-76.09748840332031</east>
        <west>-76.09817504882812</west>
      </LatLonAltBox>
      <Lod>
        <minLodPixels>128</minLodPixels>
        <maxLodPixels>-1</maxLodPixels>
      </Lod>
    </Region>
    <GroundOverlay>
      <drawOrder>38</drawOrder>
      <Icon>
        <href>197191.png</href>
      </Icon>
      <LatLonBox>
        <north>45.40100097656250</north>
        <south>45.40031433105469</south>
        <east>-76.09748840332031</east>
        <west>-76.09817504882812</west>
      </LatLonBox>
    </GroundOverlay>
      </Document>
</kml>
    