<?xml version="1.0" encoding="utf-8"?>
<kml xmlns="http://www.opengis.net/kml/2.2">
  <Document>
    <name>19/151354/336476.kml</name>
    <description></description>
    <Style>
      <ListStyle id="hideChildren">
        <listItemType>checkHideChildren</listItemType>
      </ListStyle>
    </Style>
    <Region>
      <LatLonAltBox>
        <north>45.38157243512828</north>
        <south>45.38109014561265</south>
        <east>-76.07276916503905</east>
        <west>-76.07345581054686</west>
      </LatLonAltBox>
      <Lod>
        <minLodPixels>128</minLodPixels>
        <maxLodPixels>-1</maxLodPixels>
      </Lod>
    </Region>
    <GroundOverlay>
      <drawOrder>38</drawOrder>
      <Icon>
        <href>336476.png</href>
      </Icon>
      <LatLonBox>
        <north>45.38157243512828</north>
        <south>45.38109014561265</south>
        <east>-76.07276916503905</east>
        <west>-76.07345581054686</west>
      </LatLonBox>
    </GroundOverlay>
      </Document>
</kml>
    