<?xml version="1.0" encoding="utf-8"?>
<kml xmlns="http://www.opengis.net/kml/2.2">
  <Document>
    <name>19/151310/197152.kml</name>
    <description></description>
    <Style>
      <ListStyle id="hideChildren">
        <listItemType>checkHideChildren</listItemType>
      </ListStyle>
    </Style>
    <Region>
      <LatLonAltBox>
        <north>134.62646484375000</north>
        <south>134.62577819824219</south>
        <east>-76.10298156738281</east>
        <west>-76.10366821289062</west>
      </LatLonAltBox>
      <Lod>
        <minLodPixels>128</minLodPixels>
        <maxLodPixels>-1</maxLodPixels>
      </Lod>
    </Region>
    <GroundOverlay>
      <drawOrder>38</drawOrder>
      <Icon>
        <href>197152.png</href>
      </Icon>
      <LatLonBox>
        <north>134.62646484375000</north>
        <south>134.62577819824219</south>
        <east>-76.10298156738281</east>
        <west>-76.10366821289062</west>
      </LatLonBox>
    </GroundOverlay>
      </Document>
</kml>
    