<?xml version="1.0" encoding="utf-8"?>
<kml xmlns="http://www.opengis.net/kml/2.2">
  <Document>
    <name>14/4731/10223.kml</name>
    <description></description>
    <Style>
      <ListStyle id="hideChildren">
        <listItemType>checkHideChildren</listItemType>
      </ListStyle>
    </Style>
    <Region>
      <LatLonAltBox>
        <north>45.37353515625000</north>
        <south>45.35156250000000</south>
        <east>-76.02539062500000</east>
        <west>-76.04736328125000</west>
      </LatLonAltBox>
      <Lod>
        <minLodPixels>128</minLodPixels>
        <maxLodPixels>2048</maxLodPixels>
      </Lod>
    </Region>
    <GroundOverlay>
      <drawOrder>28</drawOrder>
      <Icon>
        <href>10223.png</href>
      </Icon>
      <LatLonBox>
        <north>45.37353515625000</north>
        <south>45.35156250000000</south>
        <east>-76.02539062500000</east>
        <west>-76.04736328125000</west>
      </LatLonBox>
    </GroundOverlay>

    <NetworkLink>
      <name>15/9462/20446.png</name>
      <Region>
        <LatLonAltBox>
          <north>45.37353515625000</north>
          <south>45.36254882812500</south>
          <east>-76.03637695312500</east>
          <west>-76.04736328125000</west>
        </LatLonAltBox>
        <Lod>
          <minLodPixels>128</minLodPixels>
          <maxLodPixels>-1</maxLodPixels>
        </Lod>
      </Region>
      <Link>
        <href>../../15/9462/20446.kml</href>
        <viewRefreshMode>onRegion</viewRefreshMode>
        <viewFormat/>
      </Link>
    </NetworkLink>
        
    <NetworkLink>
      <name>15/9463/20446.png</name>
      <Region>
        <LatLonAltBox>
          <north>45.37353515625000</north>
          <south>45.36254882812500</south>
          <east>-76.02539062500000</east>
          <west>-76.03637695312500</west>
        </LatLonAltBox>
        <Lod>
          <minLodPixels>128</minLodPixels>
          <maxLodPixels>-1</maxLodPixels>
        </Lod>
      </Region>
      <Link>
        <href>../../15/9463/20446.kml</href>
        <viewRefreshMode>onRegion</viewRefreshMode>
        <viewFormat/>
      </Link>
    </NetworkLink>
        
    <NetworkLink>
      <name>15/9462/20447.png</name>
      <Region>
        <LatLonAltBox>
          <north>45.36254882812500</north>
          <south>45.35156250000000</south>
          <east>-76.03637695312500</east>
          <west>-76.04736328125000</west>
        </LatLonAltBox>
        <Lod>
          <minLodPixels>128</minLodPixels>
          <maxLodPixels>-1</maxLodPixels>
        </Lod>
      </Region>
      <Link>
        <href>../../15/9462/20447.kml</href>
        <viewRefreshMode>onRegion</viewRefreshMode>
        <viewFormat/>
      </Link>
    </NetworkLink>
        
    <NetworkLink>
      <name>15/9463/20447.png</name>
      <Region>
        <LatLonAltBox>
          <north>45.36254882812500</north>
          <south>45.35156250000000</south>
          <east>-76.02539062500000</east>
          <west>-76.03637695312500</west>
        </LatLonAltBox>
        <Lod>
          <minLodPixels>128</minLodPixels>
          <maxLodPixels>-1</maxLodPixels>
        </Lod>
      </Region>
      <Link>
        <href>../../15/9463/20447.kml</href>
        <viewRefreshMode>onRegion</viewRefreshMode>
        <viewFormat/>
      </Link>
    </NetworkLink>
              </Document>
</kml>
    