<?xml version="1.0" encoding="utf-8"?>
<kml xmlns="http://www.opengis.net/kml/2.2">
  <Document>
    <name>17/37828/84131.kml</name>
    <description></description>
    <Style>
      <ListStyle id="hideChildren">
        <listItemType>checkHideChildren</listItemType>
      </ListStyle>
    </Style>
    <Region>
      <LatLonAltBox>
        <north>45.40616374516014</north>
        <south>45.40423540168334</south>
        <east>-76.09954833984376</east>
        <west>-76.10229492187500</west>
      </LatLonAltBox>
      <Lod>
        <minLodPixels>128</minLodPixels>
        <maxLodPixels>2048</maxLodPixels>
      </Lod>
    </Region>
    <GroundOverlay>
      <drawOrder>34</drawOrder>
      <Icon>
        <href>84131.png</href>
      </Icon>
      <LatLonBox>
        <north>45.40616374516014</north>
        <south>45.40423540168334</south>
        <east>-76.09954833984376</east>
        <west>-76.10229492187500</west>
      </LatLonBox>
    </GroundOverlay>

    <NetworkLink>
      <name>18/75656/168263.png</name>
      <Region>
        <LatLonAltBox>
          <north>45.40616374516014</north>
          <south>45.40519958164984</south>
          <east>-76.10092163085938</east>
          <west>-76.10229492187500</west>
        </LatLonAltBox>
        <Lod>
          <minLodPixels>128</minLodPixels>
          <maxLodPixels>-1</maxLodPixels>
        </Lod>
      </Region>
      <Link>
        <href>../../18/75656/168263.kml</href>
        <viewRefreshMode>onRegion</viewRefreshMode>
        <viewFormat/>
      </Link>
    </NetworkLink>
        
    <NetworkLink>
      <name>18/75657/168263.png</name>
      <Region>
        <LatLonAltBox>
          <north>45.40616374516014</north>
          <south>45.40519958164984</south>
          <east>-76.09954833984376</east>
          <west>-76.10092163085938</west>
        </LatLonAltBox>
        <Lod>
          <minLodPixels>128</minLodPixels>
          <maxLodPixels>-1</maxLodPixels>
        </Lod>
      </Region>
      <Link>
        <href>../../18/75657/168263.kml</href>
        <viewRefreshMode>onRegion</viewRefreshMode>
        <viewFormat/>
      </Link>
    </NetworkLink>
        
    <NetworkLink>
      <name>18/75656/168262.png</name>
      <Region>
        <LatLonAltBox>
          <north>45.40519958164984</north>
          <south>45.40423540168334</south>
          <east>-76.10092163085938</east>
          <west>-76.10229492187500</west>
        </LatLonAltBox>
        <Lod>
          <minLodPixels>128</minLodPixels>
          <maxLodPixels>-1</maxLodPixels>
        </Lod>
      </Region>
      <Link>
        <href>../../18/75656/168262.kml</href>
        <viewRefreshMode>onRegion</viewRefreshMode>
        <viewFormat/>
      </Link>
    </NetworkLink>
        
    <NetworkLink>
      <name>18/75657/168262.png</name>
      <Region>
        <LatLonAltBox>
          <north>45.40519958164984</north>
          <south>45.40423540168334</south>
          <east>-76.09954833984376</east>
          <west>-76.10092163085938</west>
        </LatLonAltBox>
        <Lod>
          <minLodPixels>128</minLodPixels>
          <maxLodPixels>-1</maxLodPixels>
        </Lod>
      </Region>
      <Link>
        <href>../../18/75657/168262.kml</href>
        <viewRefreshMode>onRegion</viewRefreshMode>
        <viewFormat/>
      </Link>
    </NetworkLink>
              </Document>
</kml>
    