<?xml version="1.0" encoding="utf-8"?>
<kml xmlns="http://www.opengis.net/kml/2.2">
  <Document>
    <name>15/9463/20444.kml</name>
    <description></description>
    <Style>
      <ListStyle id="hideChildren">
        <listItemType>checkHideChildren</listItemType>
      </ListStyle>
    </Style>
    <Region>
      <LatLonAltBox>
        <north>45.39550781250000</north>
        <south>45.38452148437500</south>
        <east>-76.02539062500000</east>
        <west>-76.03637695312500</west>
      </LatLonAltBox>
      <Lod>
        <minLodPixels>128</minLodPixels>
        <maxLodPixels>2048</maxLodPixels>
      </Lod>
    </Region>
    <GroundOverlay>
      <drawOrder>30</drawOrder>
      <Icon>
        <href>20444.png</href>
      </Icon>
      <LatLonBox>
        <north>45.39550781250000</north>
        <south>45.38452148437500</south>
        <east>-76.02539062500000</east>
        <west>-76.03637695312500</west>
      </LatLonBox>
    </GroundOverlay>

    <NetworkLink>
      <name>16/18926/40888.png</name>
      <Region>
        <LatLonAltBox>
          <north>45.39550781250000</north>
          <south>45.39001464843750</south>
          <east>-76.03088378906250</east>
          <west>-76.03637695312500</west>
        </LatLonAltBox>
        <Lod>
          <minLodPixels>128</minLodPixels>
          <maxLodPixels>-1</maxLodPixels>
        </Lod>
      </Region>
      <Link>
        <href>../../16/18926/40888.kml</href>
        <viewRefreshMode>onRegion</viewRefreshMode>
        <viewFormat/>
      </Link>
    </NetworkLink>
        
    <NetworkLink>
      <name>16/18927/40888.png</name>
      <Region>
        <LatLonAltBox>
          <north>45.39550781250000</north>
          <south>45.39001464843750</south>
          <east>-76.02539062500000</east>
          <west>-76.03088378906250</west>
        </LatLonAltBox>
        <Lod>
          <minLodPixels>128</minLodPixels>
          <maxLodPixels>-1</maxLodPixels>
        </Lod>
      </Region>
      <Link>
        <href>../../16/18927/40888.kml</href>
        <viewRefreshMode>onRegion</viewRefreshMode>
        <viewFormat/>
      </Link>
    </NetworkLink>
        
    <NetworkLink>
      <name>16/18926/40889.png</name>
      <Region>
        <LatLonAltBox>
          <north>45.39001464843750</north>
          <south>45.38452148437500</south>
          <east>-76.03088378906250</east>
          <west>-76.03637695312500</west>
        </LatLonAltBox>
        <Lod>
          <minLodPixels>128</minLodPixels>
          <maxLodPixels>-1</maxLodPixels>
        </Lod>
      </Region>
      <Link>
        <href>../../16/18926/40889.kml</href>
        <viewRefreshMode>onRegion</viewRefreshMode>
        <viewFormat/>
      </Link>
    </NetworkLink>
        
    <NetworkLink>
      <name>16/18927/40889.png</name>
      <Region>
        <LatLonAltBox>
          <north>45.39001464843750</north>
          <south>45.38452148437500</south>
          <east>-76.02539062500000</east>
          <west>-76.03088378906250</west>
        </LatLonAltBox>
        <Lod>
          <minLodPixels>128</minLodPixels>
          <maxLodPixels>-1</maxLodPixels>
        </Lod>
      </Region>
      <Link>
        <href>../../16/18927/40889.kml</href>
        <viewRefreshMode>onRegion</viewRefreshMode>
        <viewFormat/>
      </Link>
    </NetworkLink>
              </Document>
</kml>
    