<?xml version="1.0" encoding="utf-8"?>
<kml xmlns="http://www.opengis.net/kml/2.2">
  <Document>
    <name>17/37838/84127.kml</name>
    <description></description>
    <Style>
      <ListStyle id="hideChildren">
        <listItemType>checkHideChildren</listItemType>
      </ListStyle>
    </Style>
    <Region>
      <LatLonAltBox>
        <north>45.39844997630411</north>
        <south>45.39652136952787</south>
        <east>-76.07208251953124</east>
        <west>-76.07482910156251</west>
      </LatLonAltBox>
      <Lod>
        <minLodPixels>128</minLodPixels>
        <maxLodPixels>2048</maxLodPixels>
      </Lod>
    </Region>
    <GroundOverlay>
      <drawOrder>34</drawOrder>
      <Icon>
        <href>84127.png</href>
      </Icon>
      <LatLonBox>
        <north>45.39844997630411</north>
        <south>45.39652136952787</south>
        <east>-76.07208251953124</east>
        <west>-76.07482910156251</west>
      </LatLonBox>
    </GroundOverlay>

    <NetworkLink>
      <name>18/75676/168255.png</name>
      <Region>
        <LatLonAltBox>
          <north>45.39844997630411</north>
          <south>45.39748568114411</south>
          <east>-76.07345581054686</east>
          <west>-76.07482910156251</west>
        </LatLonAltBox>
        <Lod>
          <minLodPixels>128</minLodPixels>
          <maxLodPixels>-1</maxLodPixels>
        </Lod>
      </Region>
      <Link>
        <href>../../18/75676/168255.kml</href>
        <viewRefreshMode>onRegion</viewRefreshMode>
        <viewFormat/>
      </Link>
    </NetworkLink>
        
    <NetworkLink>
      <name>18/75677/168255.png</name>
      <Region>
        <LatLonAltBox>
          <north>45.39844997630411</north>
          <south>45.39748568114411</south>
          <east>-76.07208251953124</east>
          <west>-76.07345581054686</west>
        </LatLonAltBox>
        <Lod>
          <minLodPixels>128</minLodPixels>
          <maxLodPixels>-1</maxLodPixels>
        </Lod>
      </Region>
      <Link>
        <href>../../18/75677/168255.kml</href>
        <viewRefreshMode>onRegion</viewRefreshMode>
        <viewFormat/>
      </Link>
    </NetworkLink>
        
    <NetworkLink>
      <name>18/75676/168254.png</name>
      <Region>
        <LatLonAltBox>
          <north>45.39748568114411</north>
          <south>45.39652136952787</south>
          <east>-76.07345581054686</east>
          <west>-76.07482910156251</west>
        </LatLonAltBox>
        <Lod>
          <minLodPixels>128</minLodPixels>
          <maxLodPixels>-1</maxLodPixels>
        </Lod>
      </Region>
      <Link>
        <href>../../18/75676/168254.kml</href>
        <viewRefreshMode>onRegion</viewRefreshMode>
        <viewFormat/>
      </Link>
    </NetworkLink>
        
    <NetworkLink>
      <name>18/75677/168254.png</name>
      <Region>
        <LatLonAltBox>
          <north>45.39748568114411</north>
          <south>45.39652136952787</south>
          <east>-76.07208251953124</east>
          <west>-76.07345581054686</west>
        </LatLonAltBox>
        <Lod>
          <minLodPixels>128</minLodPixels>
          <maxLodPixels>-1</maxLodPixels>
        </Lod>
      </Region>
      <Link>
        <href>../../18/75677/168254.kml</href>
        <viewRefreshMode>onRegion</viewRefreshMode>
        <viewFormat/>
      </Link>
    </NetworkLink>
              </Document>
</kml>
    