<?xml version="1.0" encoding="utf-8"?>
<kml xmlns="http://www.opengis.net/kml/2.2">
  <Document>
    <name>16/18928/42061.kml</name>
    <description></description>
    <Style>
      <ListStyle id="hideChildren">
        <listItemType>checkHideChildren</listItemType>
      </ListStyle>
    </Style>
    <Region>
      <LatLonAltBox>
        <north>45.39073515424887</north>
        <south>45.38687734827037</south>
        <east>-76.01989746093750</east>
        <west>-76.02539062500000</west>
      </LatLonAltBox>
      <Lod>
        <minLodPixels>128</minLodPixels>
        <maxLodPixels>2048</maxLodPixels>
      </Lod>
    </Region>
    <GroundOverlay>
      <drawOrder>32</drawOrder>
      <Icon>
        <href>42061.png</href>
      </Icon>
      <LatLonBox>
        <north>45.39073515424887</north>
        <south>45.38687734827037</south>
        <east>-76.01989746093750</east>
        <west>-76.02539062500000</west>
      </LatLonBox>
    </GroundOverlay>

    <NetworkLink>
      <name>17/37856/84123.png</name>
      <Region>
        <LatLonAltBox>
          <north>45.39073515424887</north>
          <south>45.38880628417227</south>
          <east>-76.02264404296875</east>
          <west>-76.02539062500000</west>
        </LatLonAltBox>
        <Lod>
          <minLodPixels>128</minLodPixels>
          <maxLodPixels>-1</maxLodPixels>
        </Lod>
      </Region>
      <Link>
        <href>../../17/37856/84123.kml</href>
        <viewRefreshMode>onRegion</viewRefreshMode>
        <viewFormat/>
      </Link>
    </NetworkLink>
        
    <NetworkLink>
      <name>17/37857/84123.png</name>
      <Region>
        <LatLonAltBox>
          <north>45.39073515424887</north>
          <south>45.38880628417227</south>
          <east>-76.01989746093750</east>
          <west>-76.02264404296875</west>
        </LatLonAltBox>
        <Lod>
          <minLodPixels>128</minLodPixels>
          <maxLodPixels>-1</maxLodPixels>
        </Lod>
      </Region>
      <Link>
        <href>../../17/37857/84123.kml</href>
        <viewRefreshMode>onRegion</viewRefreshMode>
        <viewFormat/>
      </Link>
    </NetworkLink>
        
    <NetworkLink>
      <name>17/37856/84122.png</name>
      <Region>
        <LatLonAltBox>
          <north>45.38880628417227</north>
          <south>45.38687734827037</south>
          <east>-76.02264404296875</east>
          <west>-76.02539062500000</west>
        </LatLonAltBox>
        <Lod>
          <minLodPixels>128</minLodPixels>
          <maxLodPixels>-1</maxLodPixels>
        </Lod>
      </Region>
      <Link>
        <href>../../17/37856/84122.kml</href>
        <viewRefreshMode>onRegion</viewRefreshMode>
        <viewFormat/>
      </Link>
    </NetworkLink>
        
    <NetworkLink>
      <name>17/37857/84122.png</name>
      <Region>
        <LatLonAltBox>
          <north>45.38880628417227</north>
          <south>45.38687734827037</south>
          <east>-76.01989746093750</east>
          <west>-76.02264404296875</west>
        </LatLonAltBox>
        <Lod>
          <minLodPixels>128</minLodPixels>
          <maxLodPixels>-1</maxLodPixels>
        </Lod>
      </Region>
      <Link>
        <href>../../17/37857/84122.kml</href>
        <viewRefreshMode>onRegion</viewRefreshMode>
        <viewFormat/>
      </Link>
    </NetworkLink>
              </Document>
</kml>
    