<?xml version="1.0" encoding="utf-8"?>
<kml xmlns="http://www.opengis.net/kml/2.2">
  <Document>
    <name>19/151377/197191.kml</name>
    <description></description>
    <Style>
      <ListStyle id="hideChildren">
        <listItemType>checkHideChildren</listItemType>
      </ListStyle>
    </Style>
    <Region>
      <LatLonAltBox>
        <north>134.59968566894531</north>
        <south>134.59899902343750</south>
        <east>-76.05697631835938</east>
        <west>-76.05766296386719</west>
      </LatLonAltBox>
      <Lod>
        <minLodPixels>128</minLodPixels>
        <maxLodPixels>-1</maxLodPixels>
      </Lod>
    </Region>
    <GroundOverlay>
      <drawOrder>38</drawOrder>
      <Icon>
        <href>197191.png</href>
      </Icon>
      <LatLonBox>
        <north>134.59968566894531</north>
        <south>134.59899902343750</south>
        <east>-76.05697631835938</east>
        <west>-76.05766296386719</west>
      </LatLonBox>
    </GroundOverlay>
      </Document>
</kml>
    