<?xml version="1.0" encoding="utf-8"?>
<kml xmlns="http://www.opengis.net/kml/2.2">
  <Document>
    <name>18/75669/163571.kml</name>
    <description></description>
    <Style>
      <ListStyle id="hideChildren">
        <listItemType>checkHideChildren</listItemType>
      </ListStyle>
    </Style>
    <Region>
      <LatLonAltBox>
        <north>45.36941528320312</north>
        <south>45.36804199218750</south>
        <east>-76.08306884765625</east>
        <west>-76.08444213867188</west>
      </LatLonAltBox>
      <Lod>
        <minLodPixels>128</minLodPixels>
        <maxLodPixels>2048</maxLodPixels>
      </Lod>
    </Region>
    <GroundOverlay>
      <drawOrder>36</drawOrder>
      <Icon>
        <href>163571.png</href>
      </Icon>
      <LatLonBox>
        <north>45.36941528320312</north>
        <south>45.36804199218750</south>
        <east>-76.08306884765625</east>
        <west>-76.08444213867188</west>
      </LatLonBox>
    </GroundOverlay>

    <NetworkLink>
      <name>19/151338/327142.png</name>
      <Region>
        <LatLonAltBox>
          <north>45.36941528320312</north>
          <south>45.36872863769531</south>
          <east>-76.08375549316406</east>
          <west>-76.08444213867188</west>
        </LatLonAltBox>
        <Lod>
          <minLodPixels>128</minLodPixels>
          <maxLodPixels>-1</maxLodPixels>
        </Lod>
      </Region>
      <Link>
        <href>../../19/151338/327142.kml</href>
        <viewRefreshMode>onRegion</viewRefreshMode>
        <viewFormat/>
      </Link>
    </NetworkLink>
        
    <NetworkLink>
      <name>19/151339/327142.png</name>
      <Region>
        <LatLonAltBox>
          <north>45.36941528320312</north>
          <south>45.36872863769531</south>
          <east>-76.08306884765625</east>
          <west>-76.08375549316406</west>
        </LatLonAltBox>
        <Lod>
          <minLodPixels>128</minLodPixels>
          <maxLodPixels>-1</maxLodPixels>
        </Lod>
      </Region>
      <Link>
        <href>../../19/151339/327142.kml</href>
        <viewRefreshMode>onRegion</viewRefreshMode>
        <viewFormat/>
      </Link>
    </NetworkLink>
        
    <NetworkLink>
      <name>19/151338/327143.png</name>
      <Region>
        <LatLonAltBox>
          <north>45.36872863769531</north>
          <south>45.36804199218750</south>
          <east>-76.08375549316406</east>
          <west>-76.08444213867188</west>
        </LatLonAltBox>
        <Lod>
          <minLodPixels>128</minLodPixels>
          <maxLodPixels>-1</maxLodPixels>
        </Lod>
      </Region>
      <Link>
        <href>../../19/151338/327143.kml</href>
        <viewRefreshMode>onRegion</viewRefreshMode>
        <viewFormat/>
      </Link>
    </NetworkLink>
        
    <NetworkLink>
      <name>19/151339/327143.png</name>
      <Region>
        <LatLonAltBox>
          <north>45.36872863769531</north>
          <south>45.36804199218750</south>
          <east>-76.08306884765625</east>
          <west>-76.08375549316406</west>
        </LatLonAltBox>
        <Lod>
          <minLodPixels>128</minLodPixels>
          <maxLodPixels>-1</maxLodPixels>
        </Lod>
      </Region>
      <Link>
        <href>../../19/151339/327143.kml</href>
        <viewRefreshMode>onRegion</viewRefreshMode>
        <viewFormat/>
      </Link>
    </NetworkLink>
              </Document>
</kml>
    