<?xml version="1.0" encoding="utf-8"?>
<kml xmlns="http://www.opengis.net/kml/2.2">
  <Document>
    <name>18/75681/168224.kml</name>
    <description></description>
    <Style>
      <ListStyle id="hideChildren">
        <listItemType>checkHideChildren</listItemType>
      </ListStyle>
    </Style>
    <Region>
      <LatLonAltBox>
        <north>45.36854917415683</north>
        <south>45.36758436884980</south>
        <east>-76.06658935546875</east>
        <west>-76.06796264648438</west>
      </LatLonAltBox>
      <Lod>
        <minLodPixels>128</minLodPixels>
        <maxLodPixels>2048</maxLodPixels>
      </Lod>
    </Region>
    <GroundOverlay>
      <drawOrder>36</drawOrder>
      <Icon>
        <href>168224.png</href>
      </Icon>
      <LatLonBox>
        <north>45.36854917415683</north>
        <south>45.36758436884980</south>
        <east>-76.06658935546875</east>
        <west>-76.06796264648438</west>
      </LatLonBox>
    </GroundOverlay>

    <NetworkLink>
      <name>19/151362/336449.png</name>
      <Region>
        <LatLonAltBox>
          <north>45.36854917415683</north>
          <south>45.36806677356038</south>
          <east>-76.06727600097656</east>
          <west>-76.06796264648438</west>
        </LatLonAltBox>
        <Lod>
          <minLodPixels>128</minLodPixels>
          <maxLodPixels>-1</maxLodPixels>
        </Lod>
      </Region>
      <Link>
        <href>../../19/151362/336449.kml</href>
        <viewRefreshMode>onRegion</viewRefreshMode>
        <viewFormat/>
      </Link>
    </NetworkLink>
        
    <NetworkLink>
      <name>19/151363/336449.png</name>
      <Region>
        <LatLonAltBox>
          <north>45.36854917415683</north>
          <south>45.36806677356038</south>
          <east>-76.06658935546875</east>
          <west>-76.06727600097656</west>
        </LatLonAltBox>
        <Lod>
          <minLodPixels>128</minLodPixels>
          <maxLodPixels>-1</maxLodPixels>
        </Lod>
      </Region>
      <Link>
        <href>../../19/151363/336449.kml</href>
        <viewRefreshMode>onRegion</viewRefreshMode>
        <viewFormat/>
      </Link>
    </NetworkLink>
        
    <NetworkLink>
      <name>19/151362/336448.png</name>
      <Region>
        <LatLonAltBox>
          <north>45.36806677356038</north>
          <south>45.36758436884980</south>
          <east>-76.06727600097656</east>
          <west>-76.06796264648438</west>
        </LatLonAltBox>
        <Lod>
          <minLodPixels>128</minLodPixels>
          <maxLodPixels>-1</maxLodPixels>
        </Lod>
      </Region>
      <Link>
        <href>../../19/151362/336448.kml</href>
        <viewRefreshMode>onRegion</viewRefreshMode>
        <viewFormat/>
      </Link>
    </NetworkLink>
        
    <NetworkLink>
      <name>19/151363/336448.png</name>
      <Region>
        <LatLonAltBox>
          <north>45.36806677356038</north>
          <south>45.36758436884980</south>
          <east>-76.06658935546875</east>
          <west>-76.06727600097656</west>
        </LatLonAltBox>
        <Lod>
          <minLodPixels>128</minLodPixels>
          <maxLodPixels>-1</maxLodPixels>
        </Lod>
      </Region>
      <Link>
        <href>../../19/151363/336448.kml</href>
        <viewRefreshMode>onRegion</viewRefreshMode>
        <viewFormat/>
      </Link>
    </NetworkLink>
              </Document>
</kml>
    