<?xml version="1.0" encoding="utf-8"?>
<kml xmlns="http://www.opengis.net/kml/2.2">
  <Document>
    <name>19/151305/197165.kml</name>
    <description></description>
    <Style>
      <ListStyle id="hideChildren">
        <listItemType>checkHideChildren</listItemType>
      </ListStyle>
    </Style>
    <Region>
      <LatLonAltBox>
        <north>134.61753845214844</north>
        <south>134.61685180664062</south>
        <east>-76.10641479492188</east>
        <west>-76.10710144042969</west>
      </LatLonAltBox>
      <Lod>
        <minLodPixels>128</minLodPixels>
        <maxLodPixels>-1</maxLodPixels>
      </Lod>
    </Region>
    <GroundOverlay>
      <drawOrder>38</drawOrder>
      <Icon>
        <href>197165.png</href>
      </Icon>
      <LatLonBox>
        <north>134.61753845214844</north>
        <south>134.61685180664062</south>
        <east>-76.10641479492188</east>
        <west>-76.10710144042969</west>
      </LatLonBox>
    </GroundOverlay>
      </Document>
</kml>
    