<?xml version="1.0" encoding="utf-8"?>
<kml xmlns="http://www.opengis.net/kml/2.2">
  <Document>
    <name>16/18926/42064.kml</name>
    <description></description>
    <Style>
      <ListStyle id="hideChildren">
        <listItemType>checkHideChildren</listItemType>
      </ListStyle>
    </Style>
    <Region>
      <LatLonAltBox>
        <north>45.40230699238177</north>
        <south>45.39844997630411</south>
        <east>-76.03088378906249</east>
        <west>-76.03637695312501</west>
      </LatLonAltBox>
      <Lod>
        <minLodPixels>128</minLodPixels>
        <maxLodPixels>2048</maxLodPixels>
      </Lod>
    </Region>
    <GroundOverlay>
      <drawOrder>32</drawOrder>
      <Icon>
        <href>42064.png</href>
      </Icon>
      <LatLonBox>
        <north>45.40230699238177</north>
        <south>45.39844997630411</south>
        <east>-76.03088378906249</east>
        <west>-76.03637695312501</west>
      </LatLonBox>
    </GroundOverlay>

    <NetworkLink>
      <name>17/37852/84129.png</name>
      <Region>
        <LatLonAltBox>
          <north>45.40230699238177</north>
          <south>45.40037851725538</south>
          <east>-76.03363037109376</east>
          <west>-76.03637695312501</west>
        </LatLonAltBox>
        <Lod>
          <minLodPixels>128</minLodPixels>
          <maxLodPixels>-1</maxLodPixels>
        </Lod>
      </Region>
      <Link>
        <href>../../17/37852/84129.kml</href>
        <viewRefreshMode>onRegion</viewRefreshMode>
        <viewFormat/>
      </Link>
    </NetworkLink>
        
    <NetworkLink>
      <name>17/37853/84129.png</name>
      <Region>
        <LatLonAltBox>
          <north>45.40230699238177</north>
          <south>45.40037851725538</south>
          <east>-76.03088378906249</east>
          <west>-76.03363037109376</west>
        </LatLonAltBox>
        <Lod>
          <minLodPixels>128</minLodPixels>
          <maxLodPixels>-1</maxLodPixels>
        </Lod>
      </Region>
      <Link>
        <href>../../17/37853/84129.kml</href>
        <viewRefreshMode>onRegion</viewRefreshMode>
        <viewFormat/>
      </Link>
    </NetworkLink>
        
    <NetworkLink>
      <name>17/37852/84128.png</name>
      <Region>
        <LatLonAltBox>
          <north>45.40037851725538</north>
          <south>45.39844997630411</south>
          <east>-76.03363037109376</east>
          <west>-76.03637695312501</west>
        </LatLonAltBox>
        <Lod>
          <minLodPixels>128</minLodPixels>
          <maxLodPixels>-1</maxLodPixels>
        </Lod>
      </Region>
      <Link>
        <href>../../17/37852/84128.kml</href>
        <viewRefreshMode>onRegion</viewRefreshMode>
        <viewFormat/>
      </Link>
    </NetworkLink>
        
    <NetworkLink>
      <name>17/37853/84128.png</name>
      <Region>
        <LatLonAltBox>
          <north>45.40037851725538</north>
          <south>45.39844997630411</south>
          <east>-76.03088378906249</east>
          <west>-76.03363037109376</west>
        </LatLonAltBox>
        <Lod>
          <minLodPixels>128</minLodPixels>
          <maxLodPixels>-1</maxLodPixels>
        </Lod>
      </Region>
      <Link>
        <href>../../17/37853/84128.kml</href>
        <viewRefreshMode>onRegion</viewRefreshMode>
        <viewFormat/>
      </Link>
    </NetworkLink>
              </Document>
</kml>
    