<?xml version="1.0" encoding="utf-8"?>
<kml xmlns="http://www.opengis.net/kml/2.2">
  <Document>
    <name>18/75689/168235.kml</name>
    <description></description>
    <Style>
      <ListStyle id="hideChildren">
        <listItemType>checkHideChildren</listItemType>
      </ListStyle>
    </Style>
    <Region>
      <LatLonAltBox>
        <north>45.37916094640917</north>
        <south>45.37819632212285</south>
        <east>-76.05560302734376</east>
        <west>-76.05697631835939</west>
      </LatLonAltBox>
      <Lod>
        <minLodPixels>128</minLodPixels>
        <maxLodPixels>2048</maxLodPixels>
      </Lod>
    </Region>
    <GroundOverlay>
      <drawOrder>36</drawOrder>
      <Icon>
        <href>168235.png</href>
      </Icon>
      <LatLonBox>
        <north>45.37916094640917</north>
        <south>45.37819632212285</south>
        <east>-76.05560302734376</east>
        <west>-76.05697631835939</west>
      </LatLonBox>
    </GroundOverlay>

    <NetworkLink>
      <name>19/151378/336471.png</name>
      <Region>
        <LatLonAltBox>
          <north>45.37916094640917</north>
          <south>45.37867863632306</south>
          <east>-76.05628967285158</east>
          <west>-76.05697631835939</west>
        </LatLonAltBox>
        <Lod>
          <minLodPixels>128</minLodPixels>
          <maxLodPixels>-1</maxLodPixels>
        </Lod>
      </Region>
      <Link>
        <href>../../19/151378/336471.kml</href>
        <viewRefreshMode>onRegion</viewRefreshMode>
        <viewFormat/>
      </Link>
    </NetworkLink>
        
    <NetworkLink>
      <name>19/151379/336471.png</name>
      <Region>
        <LatLonAltBox>
          <north>45.37916094640917</north>
          <south>45.37867863632306</south>
          <east>-76.05560302734376</east>
          <west>-76.05628967285158</west>
        </LatLonAltBox>
        <Lod>
          <minLodPixels>128</minLodPixels>
          <maxLodPixels>-1</maxLodPixels>
        </Lod>
      </Region>
      <Link>
        <href>../../19/151379/336471.kml</href>
        <viewRefreshMode>onRegion</viewRefreshMode>
        <viewFormat/>
      </Link>
    </NetworkLink>
        
    <NetworkLink>
      <name>19/151378/336470.png</name>
      <Region>
        <LatLonAltBox>
          <north>45.37867863632306</north>
          <south>45.37819632212285</south>
          <east>-76.05628967285158</east>
          <west>-76.05697631835939</west>
        </LatLonAltBox>
        <Lod>
          <minLodPixels>128</minLodPixels>
          <maxLodPixels>-1</maxLodPixels>
        </Lod>
      </Region>
      <Link>
        <href>../../19/151378/336470.kml</href>
        <viewRefreshMode>onRegion</viewRefreshMode>
        <viewFormat/>
      </Link>
    </NetworkLink>
        
    <NetworkLink>
      <name>19/151379/336470.png</name>
      <Region>
        <LatLonAltBox>
          <north>45.37867863632306</north>
          <south>45.37819632212285</south>
          <east>-76.05560302734376</east>
          <west>-76.05628967285158</west>
        </LatLonAltBox>
        <Lod>
          <minLodPixels>128</minLodPixels>
          <maxLodPixels>-1</maxLodPixels>
        </Lod>
      </Region>
      <Link>
        <href>../../19/151379/336470.kml</href>
        <viewRefreshMode>onRegion</viewRefreshMode>
        <viewFormat/>
      </Link>
    </NetworkLink>
              </Document>
</kml>
    