<?xml version="1.0" encoding="utf-8"?>
<kml xmlns="http://www.opengis.net/kml/2.2">
  <Document>
    <name>18/75691/168251.kml</name>
    <description></description>
    <Style>
      <ListStyle id="hideChildren">
        <listItemType>checkHideChildren</listItemType>
      </ListStyle>
    </Style>
    <Region>
      <LatLonAltBox>
        <north>45.39459269692662</north>
        <south>45.39362833594163</south>
        <east>-76.05285644531249</east>
        <west>-76.05422973632814</west>
      </LatLonAltBox>
      <Lod>
        <minLodPixels>128</minLodPixels>
        <maxLodPixels>2048</maxLodPixels>
      </Lod>
    </Region>
    <GroundOverlay>
      <drawOrder>36</drawOrder>
      <Icon>
        <href>168251.png</href>
      </Icon>
      <LatLonBox>
        <north>45.39459269692662</north>
        <south>45.39362833594163</south>
        <east>-76.05285644531249</east>
        <west>-76.05422973632814</west>
      </LatLonBox>
    </GroundOverlay>

    <NetworkLink>
      <name>19/151382/336503.png</name>
      <Region>
        <LatLonAltBox>
          <north>45.39459269692662</north>
          <south>45.39411051849117</south>
          <east>-76.05354309082033</east>
          <west>-76.05422973632814</west>
        </LatLonAltBox>
        <Lod>
          <minLodPixels>128</minLodPixels>
          <maxLodPixels>-1</maxLodPixels>
        </Lod>
      </Region>
      <Link>
        <href>../../19/151382/336503.kml</href>
        <viewRefreshMode>onRegion</viewRefreshMode>
        <viewFormat/>
      </Link>
    </NetworkLink>
        
    <NetworkLink>
      <name>19/151383/336503.png</name>
      <Region>
        <LatLonAltBox>
          <north>45.39459269692662</north>
          <south>45.39411051849117</south>
          <east>-76.05285644531249</east>
          <west>-76.05354309082033</west>
        </LatLonAltBox>
        <Lod>
          <minLodPixels>128</minLodPixels>
          <maxLodPixels>-1</maxLodPixels>
        </Lod>
      </Region>
      <Link>
        <href>../../19/151383/336503.kml</href>
        <viewRefreshMode>onRegion</viewRefreshMode>
        <viewFormat/>
      </Link>
    </NetworkLink>
        
    <NetworkLink>
      <name>19/151382/336502.png</name>
      <Region>
        <LatLonAltBox>
          <north>45.39411051849117</north>
          <south>45.39362833594163</south>
          <east>-76.05354309082033</east>
          <west>-76.05422973632814</west>
        </LatLonAltBox>
        <Lod>
          <minLodPixels>128</minLodPixels>
          <maxLodPixels>-1</maxLodPixels>
        </Lod>
      </Region>
      <Link>
        <href>../../19/151382/336502.kml</href>
        <viewRefreshMode>onRegion</viewRefreshMode>
        <viewFormat/>
      </Link>
    </NetworkLink>
        
    <NetworkLink>
      <name>19/151383/336502.png</name>
      <Region>
        <LatLonAltBox>
          <north>45.39411051849117</north>
          <south>45.39362833594163</south>
          <east>-76.05285644531249</east>
          <west>-76.05354309082033</west>
        </LatLonAltBox>
        <Lod>
          <minLodPixels>128</minLodPixels>
          <maxLodPixels>-1</maxLodPixels>
        </Lod>
      </Region>
      <Link>
        <href>../../19/151383/336502.kml</href>
        <viewRefreshMode>onRegion</viewRefreshMode>
        <viewFormat/>
      </Link>
    </NetworkLink>
              </Document>
</kml>
    