<?xml version="1.0" encoding="utf-8"?>
<kml xmlns="http://www.opengis.net/kml/2.2">
  <Document>
    <name>19/151316/197145.kml</name>
    <description></description>
    <Style>
      <ListStyle id="hideChildren">
        <listItemType>checkHideChildren</listItemType>
      </ListStyle>
    </Style>
    <Region>
      <LatLonAltBox>
        <north>45.36941528320312</north>
        <south>45.36872863769531</south>
        <east>-76.09886169433594</east>
        <west>-76.09954833984375</west>
      </LatLonAltBox>
      <Lod>
        <minLodPixels>128</minLodPixels>
        <maxLodPixels>-1</maxLodPixels>
      </Lod>
    </Region>
    <GroundOverlay>
      <drawOrder>38</drawOrder>
      <Icon>
        <href>197145.png</href>
      </Icon>
      <LatLonBox>
        <north>45.36941528320312</north>
        <south>45.36872863769531</south>
        <east>-76.09886169433594</east>
        <west>-76.09954833984375</west>
      </LatLonBox>
    </GroundOverlay>
      </Document>
</kml>
    