<?xml version="1.0" encoding="utf-8"?>
<kml xmlns="http://www.opengis.net/kml/2.2">
  <Document>
    <name>18/75665/98581.kml</name>
    <description></description>
    <Style>
      <ListStyle id="hideChildren">
        <listItemType>checkHideChildren</listItemType>
      </ListStyle>
    </Style>
    <Region>
      <LatLonAltBox>
        <north>45.38177490234375</north>
        <south>45.38040161132812</south>
        <east>-76.08856201171875</east>
        <west>-76.08993530273438</west>
      </LatLonAltBox>
      <Lod>
        <minLodPixels>128</minLodPixels>
        <maxLodPixels>2048</maxLodPixels>
      </Lod>
    </Region>
    <GroundOverlay>
      <drawOrder>36</drawOrder>
      <Icon>
        <href>98581.png</href>
      </Icon>
      <LatLonBox>
        <north>45.38177490234375</north>
        <south>45.38040161132812</south>
        <east>-76.08856201171875</east>
        <west>-76.08993530273438</west>
      </LatLonBox>
    </GroundOverlay>

    <NetworkLink>
      <name>19/151330/197163.png</name>
      <Region>
        <LatLonAltBox>
          <north>45.38177490234375</north>
          <south>45.38108825683594</south>
          <east>-76.08924865722656</east>
          <west>-76.08993530273438</west>
        </LatLonAltBox>
        <Lod>
          <minLodPixels>128</minLodPixels>
          <maxLodPixels>-1</maxLodPixels>
        </Lod>
      </Region>
      <Link>
        <href>https://swmoran.github.io/ch-tiles/tiles/DRAPE_tiles/19/151330/197163.kml</href>
        <viewRefreshMode>onRegion</viewRefreshMode>
        <viewFormat/>
      </Link>
    </NetworkLink>
        
    <NetworkLink>
      <name>19/151331/197163.png</name>
      <Region>
        <LatLonAltBox>
          <north>45.38177490234375</north>
          <south>45.38108825683594</south>
          <east>-76.08856201171875</east>
          <west>-76.08924865722656</west>
        </LatLonAltBox>
        <Lod>
          <minLodPixels>128</minLodPixels>
          <maxLodPixels>-1</maxLodPixels>
        </Lod>
      </Region>
      <Link>
        <href>https://swmoran.github.io/ch-tiles/tiles/DRAPE_tiles/19/151331/197163.kml</href>
        <viewRefreshMode>onRegion</viewRefreshMode>
        <viewFormat/>
      </Link>
    </NetworkLink>
        
    <NetworkLink>
      <name>19/151330/197162.png</name>
      <Region>
        <LatLonAltBox>
          <north>45.38108825683594</north>
          <south>45.38040161132812</south>
          <east>-76.08924865722656</east>
          <west>-76.08993530273438</west>
        </LatLonAltBox>
        <Lod>
          <minLodPixels>128</minLodPixels>
          <maxLodPixels>-1</maxLodPixels>
        </Lod>
      </Region>
      <Link>
        <href>https://swmoran.github.io/ch-tiles/tiles/DRAPE_tiles/19/151330/197162.kml</href>
        <viewRefreshMode>onRegion</viewRefreshMode>
        <viewFormat/>
      </Link>
    </NetworkLink>
        
    <NetworkLink>
      <name>19/151331/197162.png</name>
      <Region>
        <LatLonAltBox>
          <north>45.38108825683594</north>
          <south>45.38040161132812</south>
          <east>-76.08856201171875</east>
          <west>-76.08924865722656</west>
        </LatLonAltBox>
        <Lod>
          <minLodPixels>128</minLodPixels>
          <maxLodPixels>-1</maxLodPixels>
        </Lod>
      </Region>
      <Link>
        <href>https://swmoran.github.io/ch-tiles/tiles/DRAPE_tiles/19/151331/197162.kml</href>
        <viewRefreshMode>onRegion</viewRefreshMode>
        <viewFormat/>
      </Link>
    </NetworkLink>
              </Document>
</kml>
    