<?xml version="1.0" encoding="utf-8"?>
<kml xmlns="http://www.opengis.net/kml/2.2">
  <Document>
    <name>11/591/770.kml</name>
    <description></description>
    <Style>
      <ListStyle id="hideChildren">
        <listItemType>checkHideChildren</listItemType>
      </ListStyle>
    </Style>
    <Region>
      <LatLonAltBox>
        <north>45.52734375000000</north>
        <south>45.35156250000000</south>
        <east>-75.93750000000000</east>
        <west>-76.11328125000000</west>
      </LatLonAltBox>
      <Lod>
        <minLodPixels>128</minLodPixels>
        <maxLodPixels>2048</maxLodPixels>
      </Lod>
    </Region>
    <GroundOverlay>
      <drawOrder>22</drawOrder>
      <Icon>
        <href>770.png</href>
      </Icon>
      <LatLonBox>
        <north>45.52734375000000</north>
        <south>45.35156250000000</south>
        <east>-75.93750000000000</east>
        <west>-76.11328125000000</west>
      </LatLonBox>
    </GroundOverlay>

    <NetworkLink>
      <name>12/1182/1540.png</name>
      <Region>
        <LatLonAltBox>
          <north>45.43945312500000</north>
          <south>45.35156250000000</south>
          <east>-76.02539062500000</east>
          <west>-76.11328125000000</west>
        </LatLonAltBox>
        <Lod>
          <minLodPixels>128</minLodPixels>
          <maxLodPixels>-1</maxLodPixels>
        </Lod>
      </Region>
      <Link>
        <href>https://swmoran.github.io/ch-tiles/tiles/DRAPE_Tiles/12/1182/1540.kml</href>
        <viewRefreshMode>onRegion</viewRefreshMode>
        <viewFormat/>
      </Link>
    </NetworkLink>
        
    <NetworkLink>
      <name>12/1183/1540.png</name>
      <Region>
        <LatLonAltBox>
          <north>45.43945312500000</north>
          <south>45.35156250000000</south>
          <east>-75.93750000000000</east>
          <west>-76.02539062500000</west>
        </LatLonAltBox>
        <Lod>
          <minLodPixels>128</minLodPixels>
          <maxLodPixels>-1</maxLodPixels>
        </Lod>
      </Region>
      <Link>
        <href>https://swmoran.github.io/ch-tiles/tiles/DRAPE_Tiles/12/1183/1540.kml</href>
        <viewRefreshMode>onRegion</viewRefreshMode>
        <viewFormat/>
      </Link>
    </NetworkLink>
              </Document>
</kml>
    