<?xml version="1.0" encoding="utf-8"?>
<kml xmlns="http://www.opengis.net/kml/2.2">
  <Document>
    <name>18/75650/98580.kml</name>
    <description></description>
    <Style>
      <ListStyle id="hideChildren">
        <listItemType>checkHideChildren</listItemType>
      </ListStyle>
    </Style>
    <Region>
      <LatLonAltBox>
        <north>45.38040161132812</north>
        <south>45.37902832031250</south>
        <east>-76.10916137695312</east>
        <west>-76.11053466796875</west>
      </LatLonAltBox>
      <Lod>
        <minLodPixels>128</minLodPixels>
        <maxLodPixels>2048</maxLodPixels>
      </Lod>
    </Region>
    <GroundOverlay>
      <drawOrder>36</drawOrder>
      <Icon>
        <href>98580.png</href>
      </Icon>
      <LatLonBox>
        <north>45.38040161132812</north>
        <south>45.37902832031250</south>
        <east>-76.10916137695312</east>
        <west>-76.11053466796875</west>
      </LatLonBox>
    </GroundOverlay>

    <NetworkLink>
      <name>19/151300/197161.png</name>
      <Region>
        <LatLonAltBox>
          <north>45.38040161132812</north>
          <south>45.37971496582031</south>
          <east>-76.10984802246094</east>
          <west>-76.11053466796875</west>
        </LatLonAltBox>
        <Lod>
          <minLodPixels>128</minLodPixels>
          <maxLodPixels>-1</maxLodPixels>
        </Lod>
      </Region>
      <Link>
        <href>../../19/151300/197161.kml</href>
        <viewRefreshMode>onRegion</viewRefreshMode>
        <viewFormat/>
      </Link>
    </NetworkLink>
        
    <NetworkLink>
      <name>19/151301/197161.png</name>
      <Region>
        <LatLonAltBox>
          <north>45.38040161132812</north>
          <south>45.37971496582031</south>
          <east>-76.10916137695312</east>
          <west>-76.10984802246094</west>
        </LatLonAltBox>
        <Lod>
          <minLodPixels>128</minLodPixels>
          <maxLodPixels>-1</maxLodPixels>
        </Lod>
      </Region>
      <Link>
        <href>../../19/151301/197161.kml</href>
        <viewRefreshMode>onRegion</viewRefreshMode>
        <viewFormat/>
      </Link>
    </NetworkLink>
        
    <NetworkLink>
      <name>19/151300/197160.png</name>
      <Region>
        <LatLonAltBox>
          <north>45.37971496582031</north>
          <south>45.37902832031250</south>
          <east>-76.10984802246094</east>
          <west>-76.11053466796875</west>
        </LatLonAltBox>
        <Lod>
          <minLodPixels>128</minLodPixels>
          <maxLodPixels>-1</maxLodPixels>
        </Lod>
      </Region>
      <Link>
        <href>../../19/151300/197160.kml</href>
        <viewRefreshMode>onRegion</viewRefreshMode>
        <viewFormat/>
      </Link>
    </NetworkLink>
        
    <NetworkLink>
      <name>19/151301/197160.png</name>
      <Region>
        <LatLonAltBox>
          <north>45.37971496582031</north>
          <south>45.37902832031250</south>
          <east>-76.10916137695312</east>
          <west>-76.10984802246094</west>
        </LatLonAltBox>
        <Lod>
          <minLodPixels>128</minLodPixels>
          <maxLodPixels>-1</maxLodPixels>
        </Lod>
      </Region>
      <Link>
        <href>../../19/151301/197160.kml</href>
        <viewRefreshMode>onRegion</viewRefreshMode>
        <viewFormat/>
      </Link>
    </NetworkLink>
              </Document>
</kml>
    