<?xml version="1.0" encoding="utf-8"?>
<kml xmlns="http://www.opengis.net/kml/2.2">
  <Document>
    <name>19/151415/336482.kml</name>
    <description></description>
    <Style>
      <ListStyle id="hideChildren">
        <listItemType>checkHideChildren</listItemType>
      </ListStyle>
    </Style>
    <Region>
      <LatLonAltBox>
        <north>45.38446608582618</north>
        <south>45.38398382099511</south>
        <east>-76.03088378906249</east>
        <west>-76.03157043457030</west>
      </LatLonAltBox>
      <Lod>
        <minLodPixels>128</minLodPixels>
        <maxLodPixels>-1</maxLodPixels>
      </Lod>
    </Region>
    <GroundOverlay>
      <drawOrder>38</drawOrder>
      <Icon>
        <href>336482.png</href>
      </Icon>
      <LatLonBox>
        <north>45.38446608582618</north>
        <south>45.38398382099511</south>
        <east>-76.03088378906249</east>
        <west>-76.03157043457030</west>
      </LatLonBox>
    </GroundOverlay>
      </Document>
</kml>
    