<?xml version="1.0" encoding="utf-8"?>
<kml xmlns="http://www.opengis.net/kml/2.2">
  <Document>
    <name>17/37839/81779.kml</name>
    <description></description>
    <Style>
      <ListStyle id="hideChildren">
        <listItemType>checkHideChildren</listItemType>
      </ListStyle>
    </Style>
    <Region>
      <LatLonAltBox>
        <north>45.38726806640625</north>
        <south>45.38452148437500</south>
        <east>-76.06933593750000</east>
        <west>-76.07208251953125</west>
      </LatLonAltBox>
      <Lod>
        <minLodPixels>128</minLodPixels>
        <maxLodPixels>2048</maxLodPixels>
      </Lod>
    </Region>
    <GroundOverlay>
      <drawOrder>34</drawOrder>
      <Icon>
        <href>81779.png</href>
      </Icon>
      <LatLonBox>
        <north>45.38726806640625</north>
        <south>45.38452148437500</south>
        <east>-76.06933593750000</east>
        <west>-76.07208251953125</west>
      </LatLonBox>
    </GroundOverlay>

    <NetworkLink>
      <name>18/75678/163558.png</name>
      <Region>
        <LatLonAltBox>
          <north>45.38726806640625</north>
          <south>45.38589477539062</south>
          <east>-76.07070922851562</east>
          <west>-76.07208251953125</west>
        </LatLonAltBox>
        <Lod>
          <minLodPixels>128</minLodPixels>
          <maxLodPixels>-1</maxLodPixels>
        </Lod>
      </Region>
      <Link>
        <href>../../18/75678/163558.kml</href>
        <viewRefreshMode>onRegion</viewRefreshMode>
        <viewFormat/>
      </Link>
    </NetworkLink>
        
    <NetworkLink>
      <name>18/75679/163558.png</name>
      <Region>
        <LatLonAltBox>
          <north>45.38726806640625</north>
          <south>45.38589477539062</south>
          <east>-76.06933593750000</east>
          <west>-76.07070922851562</west>
        </LatLonAltBox>
        <Lod>
          <minLodPixels>128</minLodPixels>
          <maxLodPixels>-1</maxLodPixels>
        </Lod>
      </Region>
      <Link>
        <href>../../18/75679/163558.kml</href>
        <viewRefreshMode>onRegion</viewRefreshMode>
        <viewFormat/>
      </Link>
    </NetworkLink>
        
    <NetworkLink>
      <name>18/75678/163559.png</name>
      <Region>
        <LatLonAltBox>
          <north>45.38589477539062</north>
          <south>45.38452148437500</south>
          <east>-76.07070922851562</east>
          <west>-76.07208251953125</west>
        </LatLonAltBox>
        <Lod>
          <minLodPixels>128</minLodPixels>
          <maxLodPixels>-1</maxLodPixels>
        </Lod>
      </Region>
      <Link>
        <href>../../18/75678/163559.kml</href>
        <viewRefreshMode>onRegion</viewRefreshMode>
        <viewFormat/>
      </Link>
    </NetworkLink>
        
    <NetworkLink>
      <name>18/75679/163559.png</name>
      <Region>
        <LatLonAltBox>
          <north>45.38589477539062</north>
          <south>45.38452148437500</south>
          <east>-76.06933593750000</east>
          <west>-76.07070922851562</west>
        </LatLonAltBox>
        <Lod>
          <minLodPixels>128</minLodPixels>
          <maxLodPixels>-1</maxLodPixels>
        </Lod>
      </Region>
      <Link>
        <href>../../18/75679/163559.kml</href>
        <viewRefreshMode>onRegion</viewRefreshMode>
        <viewFormat/>
      </Link>
    </NetworkLink>
              </Document>
</kml>
    