<?xml version="1.0" encoding="utf-8"?>
<kml xmlns="http://www.opengis.net/kml/2.2">
  <Document>
    <name>18/75668/98601.kml</name>
    <description></description>
    <Style>
      <ListStyle id="hideChildren">
        <listItemType>checkHideChildren</listItemType>
      </ListStyle>
    </Style>
    <Region>
      <LatLonAltBox>
        <north>45.40924072265625</north>
        <south>45.40786743164062</south>
        <east>-76.08444213867188</east>
        <west>-76.08581542968750</west>
      </LatLonAltBox>
      <Lod>
        <minLodPixels>128</minLodPixels>
        <maxLodPixels>2048</maxLodPixels>
      </Lod>
    </Region>
    <GroundOverlay>
      <drawOrder>36</drawOrder>
      <Icon>
        <href>98601.png</href>
      </Icon>
      <LatLonBox>
        <north>45.40924072265625</north>
        <south>45.40786743164062</south>
        <east>-76.08444213867188</east>
        <west>-76.08581542968750</west>
      </LatLonBox>
    </GroundOverlay>

    <NetworkLink>
      <name>19/151336/197203.png</name>
      <Region>
        <LatLonAltBox>
          <north>45.40924072265625</north>
          <south>45.40855407714844</south>
          <east>-76.08512878417969</east>
          <west>-76.08581542968750</west>
        </LatLonAltBox>
        <Lod>
          <minLodPixels>128</minLodPixels>
          <maxLodPixels>-1</maxLodPixels>
        </Lod>
      </Region>
      <Link>
        <href>../../19/151336/197203.kml</href>
        <viewRefreshMode>onRegion</viewRefreshMode>
        <viewFormat/>
      </Link>
    </NetworkLink>
        
    <NetworkLink>
      <name>19/151337/197203.png</name>
      <Region>
        <LatLonAltBox>
          <north>45.40924072265625</north>
          <south>45.40855407714844</south>
          <east>-76.08444213867188</east>
          <west>-76.08512878417969</west>
        </LatLonAltBox>
        <Lod>
          <minLodPixels>128</minLodPixels>
          <maxLodPixels>-1</maxLodPixels>
        </Lod>
      </Region>
      <Link>
        <href>../../19/151337/197203.kml</href>
        <viewRefreshMode>onRegion</viewRefreshMode>
        <viewFormat/>
      </Link>
    </NetworkLink>
        
    <NetworkLink>
      <name>19/151336/197202.png</name>
      <Region>
        <LatLonAltBox>
          <north>45.40855407714844</north>
          <south>45.40786743164062</south>
          <east>-76.08512878417969</east>
          <west>-76.08581542968750</west>
        </LatLonAltBox>
        <Lod>
          <minLodPixels>128</minLodPixels>
          <maxLodPixels>-1</maxLodPixels>
        </Lod>
      </Region>
      <Link>
        <href>../../19/151336/197202.kml</href>
        <viewRefreshMode>onRegion</viewRefreshMode>
        <viewFormat/>
      </Link>
    </NetworkLink>
        
    <NetworkLink>
      <name>19/151337/197202.png</name>
      <Region>
        <LatLonAltBox>
          <north>45.40855407714844</north>
          <south>45.40786743164062</south>
          <east>-76.08444213867188</east>
          <west>-76.08512878417969</west>
        </LatLonAltBox>
        <Lod>
          <minLodPixels>128</minLodPixels>
          <maxLodPixels>-1</maxLodPixels>
        </Lod>
      </Region>
      <Link>
        <href>../../19/151337/197202.kml</href>
        <viewRefreshMode>onRegion</viewRefreshMode>
        <viewFormat/>
      </Link>
    </NetworkLink>
              </Document>
</kml>
    