<?xml version="1.0" encoding="utf-8"?>
<kml xmlns="http://www.opengis.net/kml/2.2">
  <Document>
    <name>18/75651/168249.kml</name>
    <description></description>
    <Style>
      <ListStyle id="hideChildren">
        <listItemType>checkHideChildren</listItemType>
      </ListStyle>
    </Style>
    <Region>
      <LatLonAltBox>
        <north>45.39266395850033</north>
        <south>45.39169956460273</south>
        <east>-76.10778808593750</east>
        <west>-76.10916137695312</west>
      </LatLonAltBox>
      <Lod>
        <minLodPixels>128</minLodPixels>
        <maxLodPixels>2048</maxLodPixels>
      </Lod>
    </Region>
    <GroundOverlay>
      <drawOrder>36</drawOrder>
      <Icon>
        <href>168249.png</href>
      </Icon>
      <LatLonBox>
        <north>45.39266395850033</north>
        <south>45.39169956460273</south>
        <east>-76.10778808593750</east>
        <west>-76.10916137695312</west>
      </LatLonBox>
    </GroundOverlay>

    <NetworkLink>
      <name>19/151302/336499.png</name>
      <Region>
        <LatLonAltBox>
          <north>45.39266395850033</north>
          <south>45.39218176360856</south>
          <east>-76.10847473144531</east>
          <west>-76.10916137695312</west>
        </LatLonAltBox>
        <Lod>
          <minLodPixels>128</minLodPixels>
          <maxLodPixels>-1</maxLodPixels>
        </Lod>
      </Region>
      <Link>
        <href>../../19/151302/336499.kml</href>
        <viewRefreshMode>onRegion</viewRefreshMode>
        <viewFormat/>
      </Link>
    </NetworkLink>
        
    <NetworkLink>
      <name>19/151303/336499.png</name>
      <Region>
        <LatLonAltBox>
          <north>45.39266395850033</north>
          <south>45.39218176360856</south>
          <east>-76.10778808593750</east>
          <west>-76.10847473144531</west>
        </LatLonAltBox>
        <Lod>
          <minLodPixels>128</minLodPixels>
          <maxLodPixels>-1</maxLodPixels>
        </Lod>
      </Region>
      <Link>
        <href>../../19/151303/336499.kml</href>
        <viewRefreshMode>onRegion</viewRefreshMode>
        <viewFormat/>
      </Link>
    </NetworkLink>
        
    <NetworkLink>
      <name>19/151302/336498.png</name>
      <Region>
        <LatLonAltBox>
          <north>45.39218176360856</north>
          <south>45.39169956460273</south>
          <east>-76.10847473144531</east>
          <west>-76.10916137695312</west>
        </LatLonAltBox>
        <Lod>
          <minLodPixels>128</minLodPixels>
          <maxLodPixels>-1</maxLodPixels>
        </Lod>
      </Region>
      <Link>
        <href>../../19/151302/336498.kml</href>
        <viewRefreshMode>onRegion</viewRefreshMode>
        <viewFormat/>
      </Link>
    </NetworkLink>
        
    <NetworkLink>
      <name>19/151303/336498.png</name>
      <Region>
        <LatLonAltBox>
          <north>45.39218176360856</north>
          <south>45.39169956460273</south>
          <east>-76.10778808593750</east>
          <west>-76.10847473144531</west>
        </LatLonAltBox>
        <Lod>
          <minLodPixels>128</minLodPixels>
          <maxLodPixels>-1</maxLodPixels>
        </Lod>
      </Region>
      <Link>
        <href>../../19/151303/336498.kml</href>
        <viewRefreshMode>onRegion</viewRefreshMode>
        <viewFormat/>
      </Link>
    </NetworkLink>
              </Document>
</kml>
    