<?xml version="1.0" encoding="utf-8"?>
<kml xmlns="http://www.opengis.net/kml/2.2">
  <Document>
    <name>17/37841/49295.kml</name>
    <description></description>
    <Style>
      <ListStyle id="hideChildren">
        <listItemType>checkHideChildren</listItemType>
      </ListStyle>
    </Style>
    <Region>
      <LatLonAltBox>
        <north>45.39550781250000</north>
        <south>45.39276123046875</south>
        <east>-76.06384277343750</east>
        <west>-76.06658935546875</west>
      </LatLonAltBox>
      <Lod>
        <minLodPixels>128</minLodPixels>
        <maxLodPixels>2048</maxLodPixels>
      </Lod>
    </Region>
    <GroundOverlay>
      <drawOrder>34</drawOrder>
      <Icon>
        <href>49295.png</href>
      </Icon>
      <LatLonBox>
        <north>45.39550781250000</north>
        <south>45.39276123046875</south>
        <east>-76.06384277343750</east>
        <west>-76.06658935546875</west>
      </LatLonBox>
    </GroundOverlay>

    <NetworkLink>
      <name>18/75682/98591.png</name>
      <Region>
        <LatLonAltBox>
          <north>45.39550781250000</north>
          <south>45.39413452148438</south>
          <east>-76.06521606445312</east>
          <west>-76.06658935546875</west>
        </LatLonAltBox>
        <Lod>
          <minLodPixels>128</minLodPixels>
          <maxLodPixels>-1</maxLodPixels>
        </Lod>
      </Region>
      <Link>
        <href>https://swmoran.github.io/ch-tiles/tiles_GE/tiles_GE/18/75682/98591.kml</href>
        <viewRefreshMode>onRegion</viewRefreshMode>
        <viewFormat/>
      </Link>
    </NetworkLink>
        
    <NetworkLink>
      <name>18/75683/98591.png</name>
      <Region>
        <LatLonAltBox>
          <north>45.39550781250000</north>
          <south>45.39413452148438</south>
          <east>-76.06384277343750</east>
          <west>-76.06521606445312</west>
        </LatLonAltBox>
        <Lod>
          <minLodPixels>128</minLodPixels>
          <maxLodPixels>-1</maxLodPixels>
        </Lod>
      </Region>
      <Link>
        <href>https://swmoran.github.io/ch-tiles/tiles_GE/tiles_GE/18/75683/98591.kml</href>
        <viewRefreshMode>onRegion</viewRefreshMode>
        <viewFormat/>
      </Link>
    </NetworkLink>
        
    <NetworkLink>
      <name>18/75682/98590.png</name>
      <Region>
        <LatLonAltBox>
          <north>45.39413452148438</north>
          <south>45.39276123046875</south>
          <east>-76.06521606445312</east>
          <west>-76.06658935546875</west>
        </LatLonAltBox>
        <Lod>
          <minLodPixels>128</minLodPixels>
          <maxLodPixels>-1</maxLodPixels>
        </Lod>
      </Region>
      <Link>
        <href>https://swmoran.github.io/ch-tiles/tiles_GE/tiles_GE/18/75682/98590.kml</href>
        <viewRefreshMode>onRegion</viewRefreshMode>
        <viewFormat/>
      </Link>
    </NetworkLink>
        
    <NetworkLink>
      <name>18/75683/98590.png</name>
      <Region>
        <LatLonAltBox>
          <north>45.39413452148438</north>
          <south>45.39276123046875</south>
          <east>-76.06384277343750</east>
          <west>-76.06521606445312</west>
        </LatLonAltBox>
        <Lod>
          <minLodPixels>128</minLodPixels>
          <maxLodPixels>-1</maxLodPixels>
        </Lod>
      </Region>
      <Link>
        <href>https://swmoran.github.io/ch-tiles/tiles_GE/tiles_GE/18/75683/98590.kml</href>
        <viewRefreshMode>onRegion</viewRefreshMode>
        <viewFormat/>
      </Link>
    </NetworkLink>
              </Document>
</kml>
    