<?xml version="1.0" encoding="utf-8"?>
<kml xmlns="http://www.opengis.net/kml/2.2">
  <Document>
    <name>17/37841/81783.kml</name>
    <description></description>
    <Style>
      <ListStyle id="hideChildren">
        <listItemType>checkHideChildren</listItemType>
      </ListStyle>
    </Style>
    <Region>
      <LatLonAltBox>
        <north>45.37628173828125</north>
        <south>45.37353515625000</south>
        <east>-76.06384277343750</east>
        <west>-76.06658935546875</west>
      </LatLonAltBox>
      <Lod>
        <minLodPixels>128</minLodPixels>
        <maxLodPixels>2048</maxLodPixels>
      </Lod>
    </Region>
    <GroundOverlay>
      <drawOrder>34</drawOrder>
      <Icon>
        <href>81783.png</href>
      </Icon>
      <LatLonBox>
        <north>45.37628173828125</north>
        <south>45.37353515625000</south>
        <east>-76.06384277343750</east>
        <west>-76.06658935546875</west>
      </LatLonBox>
    </GroundOverlay>

    <NetworkLink>
      <name>18/75682/163566.png</name>
      <Region>
        <LatLonAltBox>
          <north>45.37628173828125</north>
          <south>45.37490844726562</south>
          <east>-76.06521606445312</east>
          <west>-76.06658935546875</west>
        </LatLonAltBox>
        <Lod>
          <minLodPixels>128</minLodPixels>
          <maxLodPixels>-1</maxLodPixels>
        </Lod>
      </Region>
      <Link>
        <href>../../18/75682/163566.kml</href>
        <viewRefreshMode>onRegion</viewRefreshMode>
        <viewFormat/>
      </Link>
    </NetworkLink>
        
    <NetworkLink>
      <name>18/75683/163566.png</name>
      <Region>
        <LatLonAltBox>
          <north>45.37628173828125</north>
          <south>45.37490844726562</south>
          <east>-76.06384277343750</east>
          <west>-76.06521606445312</west>
        </LatLonAltBox>
        <Lod>
          <minLodPixels>128</minLodPixels>
          <maxLodPixels>-1</maxLodPixels>
        </Lod>
      </Region>
      <Link>
        <href>../../18/75683/163566.kml</href>
        <viewRefreshMode>onRegion</viewRefreshMode>
        <viewFormat/>
      </Link>
    </NetworkLink>
        
    <NetworkLink>
      <name>18/75682/163567.png</name>
      <Region>
        <LatLonAltBox>
          <north>45.37490844726562</north>
          <south>45.37353515625000</south>
          <east>-76.06521606445312</east>
          <west>-76.06658935546875</west>
        </LatLonAltBox>
        <Lod>
          <minLodPixels>128</minLodPixels>
          <maxLodPixels>-1</maxLodPixels>
        </Lod>
      </Region>
      <Link>
        <href>../../18/75682/163567.kml</href>
        <viewRefreshMode>onRegion</viewRefreshMode>
        <viewFormat/>
      </Link>
    </NetworkLink>
        
    <NetworkLink>
      <name>18/75683/163567.png</name>
      <Region>
        <LatLonAltBox>
          <north>45.37490844726562</north>
          <south>45.37353515625000</south>
          <east>-76.06384277343750</east>
          <west>-76.06521606445312</west>
        </LatLonAltBox>
        <Lod>
          <minLodPixels>128</minLodPixels>
          <maxLodPixels>-1</maxLodPixels>
        </Lod>
      </Region>
      <Link>
        <href>../../18/75683/163567.kml</href>
        <viewRefreshMode>onRegion</viewRefreshMode>
        <viewFormat/>
      </Link>
    </NetworkLink>
              </Document>
</kml>
    