<?xml version="1.0" encoding="utf-8"?>
<kml xmlns="http://www.opengis.net/kml/2.2">
  <Document>
    <name>18/75660/168247.kml</name>
    <description></description>
    <Style>
      <ListStyle id="hideChildren">
        <listItemType>checkHideChildren</listItemType>
      </ListStyle>
    </Style>
    <Region>
      <LatLonAltBox>
        <north>45.39073515424887</north>
        <south>45.38977072743872</south>
        <east>-76.09542846679686</east>
        <west>-76.09680175781251</west>
      </LatLonAltBox>
      <Lod>
        <minLodPixels>128</minLodPixels>
        <maxLodPixels>2048</maxLodPixels>
      </Lod>
    </Region>
    <GroundOverlay>
      <drawOrder>36</drawOrder>
      <Icon>
        <href>168247.png</href>
      </Icon>
      <LatLonBox>
        <north>45.39073515424887</north>
        <south>45.38977072743872</south>
        <east>-76.09542846679686</east>
        <west>-76.09680175781251</west>
      </LatLonBox>
    </GroundOverlay>

    <NetworkLink>
      <name>19/151320/336495.png</name>
      <Region>
        <LatLonAltBox>
          <north>45.39073515424887</north>
          <south>45.39025294290084</south>
          <east>-76.09611511230470</east>
          <west>-76.09680175781251</west>
        </LatLonAltBox>
        <Lod>
          <minLodPixels>128</minLodPixels>
          <maxLodPixels>-1</maxLodPixels>
        </Lod>
      </Region>
      <Link>
        <href>../../19/151320/336495.kml</href>
        <viewRefreshMode>onRegion</viewRefreshMode>
        <viewFormat/>
      </Link>
    </NetworkLink>
        
    <NetworkLink>
      <name>19/151321/336495.png</name>
      <Region>
        <LatLonAltBox>
          <north>45.39073515424887</north>
          <south>45.39025294290084</south>
          <east>-76.09542846679686</east>
          <west>-76.09611511230470</west>
        </LatLonAltBox>
        <Lod>
          <minLodPixels>128</minLodPixels>
          <maxLodPixels>-1</maxLodPixels>
        </Lod>
      </Region>
      <Link>
        <href>../../19/151321/336495.kml</href>
        <viewRefreshMode>onRegion</viewRefreshMode>
        <viewFormat/>
      </Link>
    </NetworkLink>
        
    <NetworkLink>
      <name>19/151320/336494.png</name>
      <Region>
        <LatLonAltBox>
          <north>45.39025294290084</north>
          <south>45.38977072743872</south>
          <east>-76.09611511230470</east>
          <west>-76.09680175781251</west>
        </LatLonAltBox>
        <Lod>
          <minLodPixels>128</minLodPixels>
          <maxLodPixels>-1</maxLodPixels>
        </Lod>
      </Region>
      <Link>
        <href>../../19/151320/336494.kml</href>
        <viewRefreshMode>onRegion</viewRefreshMode>
        <viewFormat/>
      </Link>
    </NetworkLink>
        
    <NetworkLink>
      <name>19/151321/336494.png</name>
      <Region>
        <LatLonAltBox>
          <north>45.39025294290084</north>
          <south>45.38977072743872</south>
          <east>-76.09542846679686</east>
          <west>-76.09611511230470</west>
        </LatLonAltBox>
        <Lod>
          <minLodPixels>128</minLodPixels>
          <maxLodPixels>-1</maxLodPixels>
        </Lod>
      </Region>
      <Link>
        <href>../../19/151321/336494.kml</href>
        <viewRefreshMode>onRegion</viewRefreshMode>
        <viewFormat/>
      </Link>
    </NetworkLink>
              </Document>
</kml>
    