<?xml version="1.0" encoding="utf-8"?>
<kml xmlns="http://www.opengis.net/kml/2.2">
  <Document>
    <name>19/151419/336468.kml</name>
    <description></description>
    <Style>
      <ListStyle id="hideChildren">
        <listItemType>checkHideChildren</listItemType>
      </ListStyle>
    </Style>
    <Region>
      <LatLonAltBox>
        <north>45.37771400380857</north>
        <south>45.37723168138015</south>
        <east>-76.02813720703124</east>
        <west>-76.02882385253905</west>
      </LatLonAltBox>
      <Lod>
        <minLodPixels>128</minLodPixels>
        <maxLodPixels>-1</maxLodPixels>
      </Lod>
    </Region>
    <GroundOverlay>
      <drawOrder>38</drawOrder>
      <Icon>
        <href>336468.png</href>
      </Icon>
      <LatLonBox>
        <north>45.37771400380857</north>
        <south>45.37723168138015</south>
        <east>-76.02813720703124</east>
        <west>-76.02882385253905</west>
      </LatLonBox>
    </GroundOverlay>
      </Document>
</kml>
    