<?xml version="1.0" encoding="utf-8"?>
<kml xmlns="http://www.opengis.net/kml/2.2">
  <Document>
    <name>19/151325/336533.kml</name>
    <description></description>
    <Style>
      <ListStyle id="hideChildren">
        <listItemType>checkHideChildren</listItemType>
      </ListStyle>
    </Style>
    <Region>
      <LatLonAltBox>
        <north>45.40905613695408</north>
        <south>45.40857408194021</south>
        <east>-76.09268188476561</east>
        <west>-76.09336853027342</west>
      </LatLonAltBox>
      <Lod>
        <minLodPixels>128</minLodPixels>
        <maxLodPixels>-1</maxLodPixels>
      </Lod>
    </Region>
    <GroundOverlay>
      <drawOrder>38</drawOrder>
      <Icon>
        <href>336533.png</href>
      </Icon>
      <LatLonBox>
        <north>45.40905613695408</north>
        <south>45.40857408194021</south>
        <east>-76.09268188476561</east>
        <west>-76.09336853027342</west>
      </LatLonBox>
    </GroundOverlay>
      </Document>
</kml>
    