<?xml version="1.0" encoding="utf-8"?>
<kml xmlns="http://www.opengis.net/kml/2.2">
  <Document>
    <name>18/75678/168242.kml</name>
    <description></description>
    <Style>
      <ListStyle id="hideChildren">
        <listItemType>checkHideChildren</listItemType>
      </ListStyle>
    </Style>
    <Region>
      <LatLonAltBox>
        <north>45.38591285563495</north>
        <south>45.38494834654319</south>
        <east>-76.07070922851561</east>
        <west>-76.07208251953124</west>
      </LatLonAltBox>
      <Lod>
        <minLodPixels>128</minLodPixels>
        <maxLodPixels>2048</maxLodPixels>
      </Lod>
    </Region>
    <GroundOverlay>
      <drawOrder>36</drawOrder>
      <Icon>
        <href>168242.png</href>
      </Icon>
      <LatLonBox>
        <north>45.38591285563495</north>
        <south>45.38494834654319</south>
        <east>-76.07070922851561</east>
        <west>-76.07208251953124</west>
      </LatLonBox>
    </GroundOverlay>

    <NetworkLink>
      <name>19/151356/336485.png</name>
      <Region>
        <LatLonAltBox>
          <north>45.38591285563495</north>
          <south>45.38543060314611</south>
          <east>-76.07139587402342</east>
          <west>-76.07208251953124</west>
        </LatLonAltBox>
        <Lod>
          <minLodPixels>128</minLodPixels>
          <maxLodPixels>-1</maxLodPixels>
        </Lod>
      </Region>
      <Link>
        <href>../../19/151356/336485.kml</href>
        <viewRefreshMode>onRegion</viewRefreshMode>
        <viewFormat/>
      </Link>
    </NetworkLink>
        
    <NetworkLink>
      <name>19/151357/336485.png</name>
      <Region>
        <LatLonAltBox>
          <north>45.38591285563495</north>
          <south>45.38543060314611</south>
          <east>-76.07070922851561</east>
          <west>-76.07139587402342</west>
        </LatLonAltBox>
        <Lod>
          <minLodPixels>128</minLodPixels>
          <maxLodPixels>-1</maxLodPixels>
        </Lod>
      </Region>
      <Link>
        <href>../../19/151357/336485.kml</href>
        <viewRefreshMode>onRegion</viewRefreshMode>
        <viewFormat/>
      </Link>
    </NetworkLink>
        
    <NetworkLink>
      <name>19/151356/336484.png</name>
      <Region>
        <LatLonAltBox>
          <north>45.38543060314611</north>
          <south>45.38494834654319</south>
          <east>-76.07139587402342</east>
          <west>-76.07208251953124</west>
        </LatLonAltBox>
        <Lod>
          <minLodPixels>128</minLodPixels>
          <maxLodPixels>-1</maxLodPixels>
        </Lod>
      </Region>
      <Link>
        <href>../../19/151356/336484.kml</href>
        <viewRefreshMode>onRegion</viewRefreshMode>
        <viewFormat/>
      </Link>
    </NetworkLink>
        
    <NetworkLink>
      <name>19/151357/336484.png</name>
      <Region>
        <LatLonAltBox>
          <north>45.38543060314611</north>
          <south>45.38494834654319</south>
          <east>-76.07070922851561</east>
          <west>-76.07139587402342</west>
        </LatLonAltBox>
        <Lod>
          <minLodPixels>128</minLodPixels>
          <maxLodPixels>-1</maxLodPixels>
        </Lod>
      </Region>
      <Link>
        <href>../../19/151357/336484.kml</href>
        <viewRefreshMode>onRegion</viewRefreshMode>
        <viewFormat/>
      </Link>
    </NetworkLink>
              </Document>
</kml>
    