<?xml version="1.0" encoding="utf-8"?>
<kml xmlns="http://www.opengis.net/kml/2.2">
  <Document>
    <name>18/75658/168233.kml</name>
    <description></description>
    <Style>
      <ListStyle id="hideChildren">
        <listItemType>checkHideChildren</listItemType>
      </ListStyle>
    </Style>
    <Region>
      <LatLonAltBox>
        <north>45.37723168138015</north>
        <south>45.37626702418105</south>
        <east>-76.09817504882814</east>
        <west>-76.09954833984376</west>
      </LatLonAltBox>
      <Lod>
        <minLodPixels>128</minLodPixels>
        <maxLodPixels>2048</maxLodPixels>
      </Lod>
    </Region>
    <GroundOverlay>
      <drawOrder>36</drawOrder>
      <Icon>
        <href>168233.png</href>
      </Icon>
      <LatLonBox>
        <north>45.37723168138015</north>
        <south>45.37626702418105</south>
        <east>-76.09817504882814</east>
        <west>-76.09954833984376</west>
      </LatLonBox>
    </GroundOverlay>

    <NetworkLink>
      <name>19/151316/336467.png</name>
      <Region>
        <LatLonAltBox>
          <north>45.37723168138015</north>
          <south>45.37674935483766</south>
          <east>-76.09886169433595</east>
          <west>-76.09954833984376</west>
        </LatLonAltBox>
        <Lod>
          <minLodPixels>128</minLodPixels>
          <maxLodPixels>-1</maxLodPixels>
        </Lod>
      </Region>
      <Link>
        <href>../../19/151316/336467.kml</href>
        <viewRefreshMode>onRegion</viewRefreshMode>
        <viewFormat/>
      </Link>
    </NetworkLink>
        
    <NetworkLink>
      <name>19/151317/336467.png</name>
      <Region>
        <LatLonAltBox>
          <north>45.37723168138015</north>
          <south>45.37674935483766</south>
          <east>-76.09817504882814</east>
          <west>-76.09886169433595</west>
        </LatLonAltBox>
        <Lod>
          <minLodPixels>128</minLodPixels>
          <maxLodPixels>-1</maxLodPixels>
        </Lod>
      </Region>
      <Link>
        <href>../../19/151317/336467.kml</href>
        <viewRefreshMode>onRegion</viewRefreshMode>
        <viewFormat/>
      </Link>
    </NetworkLink>
        
    <NetworkLink>
      <name>19/151316/336466.png</name>
      <Region>
        <LatLonAltBox>
          <north>45.37674935483766</north>
          <south>45.37626702418105</south>
          <east>-76.09886169433595</east>
          <west>-76.09954833984376</west>
        </LatLonAltBox>
        <Lod>
          <minLodPixels>128</minLodPixels>
          <maxLodPixels>-1</maxLodPixels>
        </Lod>
      </Region>
      <Link>
        <href>../../19/151316/336466.kml</href>
        <viewRefreshMode>onRegion</viewRefreshMode>
        <viewFormat/>
      </Link>
    </NetworkLink>
        
    <NetworkLink>
      <name>19/151317/336466.png</name>
      <Region>
        <LatLonAltBox>
          <north>45.37674935483766</north>
          <south>45.37626702418105</south>
          <east>-76.09817504882814</east>
          <west>-76.09886169433595</west>
        </LatLonAltBox>
        <Lod>
          <minLodPixels>128</minLodPixels>
          <maxLodPixels>-1</maxLodPixels>
        </Lod>
      </Region>
      <Link>
        <href>../../19/151317/336466.kml</href>
        <viewRefreshMode>onRegion</viewRefreshMode>
        <viewFormat/>
      </Link>
    </NetworkLink>
              </Document>
</kml>
    