<?xml version="1.0" encoding="utf-8"?>
<kml xmlns="http://www.opengis.net/kml/2.2">
  <Document>
    <name>19/151422/336461.kml</name>
    <description></description>
    <Style>
      <ListStyle id="hideChildren">
        <listItemType>checkHideChildren</listItemType>
      </ListStyle>
    </Style>
    <Region>
      <LatLonAltBox>
        <north>45.37433766041358</north>
        <south>45.37385530918648</south>
        <east>-76.02607727050781</east>
        <west>-76.02676391601562</west>
      </LatLonAltBox>
      <Lod>
        <minLodPixels>128</minLodPixels>
        <maxLodPixels>-1</maxLodPixels>
      </Lod>
    </Region>
    <GroundOverlay>
      <drawOrder>38</drawOrder>
      <Icon>
        <href>336461.png</href>
      </Icon>
      <LatLonBox>
        <north>45.37433766041358</north>
        <south>45.37385530918648</south>
        <east>-76.02607727050781</east>
        <west>-76.02676391601562</west>
      </LatLonBox>
    </GroundOverlay>
      </Document>
</kml>
    