<?xml version="1.0" encoding="utf-8"?>
<kml xmlns="http://www.opengis.net/kml/2.2">
  <Document>
    <name>18/75692/163553.kml</name>
    <description></description>
    <Style>
      <ListStyle id="hideChildren">
        <listItemType>checkHideChildren</listItemType>
      </ListStyle>
    </Style>
    <Region>
      <LatLonAltBox>
        <north>45.39413452148438</north>
        <south>45.39276123046875</south>
        <east>-76.05148315429688</east>
        <west>-76.05285644531250</west>
      </LatLonAltBox>
      <Lod>
        <minLodPixels>128</minLodPixels>
        <maxLodPixels>2048</maxLodPixels>
      </Lod>
    </Region>
    <GroundOverlay>
      <drawOrder>36</drawOrder>
      <Icon>
        <href>163553.png</href>
      </Icon>
      <LatLonBox>
        <north>45.39413452148438</north>
        <south>45.39276123046875</south>
        <east>-76.05148315429688</east>
        <west>-76.05285644531250</west>
      </LatLonBox>
    </GroundOverlay>

    <NetworkLink>
      <name>19/151384/327106.png</name>
      <Region>
        <LatLonAltBox>
          <north>45.39413452148438</north>
          <south>45.39344787597656</south>
          <east>-76.05216979980469</east>
          <west>-76.05285644531250</west>
        </LatLonAltBox>
        <Lod>
          <minLodPixels>128</minLodPixels>
          <maxLodPixels>-1</maxLodPixels>
        </Lod>
      </Region>
      <Link>
        <href>../../19/151384/327106.kml</href>
        <viewRefreshMode>onRegion</viewRefreshMode>
        <viewFormat/>
      </Link>
    </NetworkLink>
        
    <NetworkLink>
      <name>19/151385/327106.png</name>
      <Region>
        <LatLonAltBox>
          <north>45.39413452148438</north>
          <south>45.39344787597656</south>
          <east>-76.05148315429688</east>
          <west>-76.05216979980469</west>
        </LatLonAltBox>
        <Lod>
          <minLodPixels>128</minLodPixels>
          <maxLodPixels>-1</maxLodPixels>
        </Lod>
      </Region>
      <Link>
        <href>../../19/151385/327106.kml</href>
        <viewRefreshMode>onRegion</viewRefreshMode>
        <viewFormat/>
      </Link>
    </NetworkLink>
        
    <NetworkLink>
      <name>19/151384/327107.png</name>
      <Region>
        <LatLonAltBox>
          <north>45.39344787597656</north>
          <south>45.39276123046875</south>
          <east>-76.05216979980469</east>
          <west>-76.05285644531250</west>
        </LatLonAltBox>
        <Lod>
          <minLodPixels>128</minLodPixels>
          <maxLodPixels>-1</maxLodPixels>
        </Lod>
      </Region>
      <Link>
        <href>../../19/151384/327107.kml</href>
        <viewRefreshMode>onRegion</viewRefreshMode>
        <viewFormat/>
      </Link>
    </NetworkLink>
        
    <NetworkLink>
      <name>19/151385/327107.png</name>
      <Region>
        <LatLonAltBox>
          <north>45.39344787597656</north>
          <south>45.39276123046875</south>
          <east>-76.05148315429688</east>
          <west>-76.05216979980469</west>
        </LatLonAltBox>
        <Lod>
          <minLodPixels>128</minLodPixels>
          <maxLodPixels>-1</maxLodPixels>
        </Lod>
      </Region>
      <Link>
        <href>../../19/151385/327107.kml</href>
        <viewRefreshMode>onRegion</viewRefreshMode>
        <viewFormat/>
      </Link>
    </NetworkLink>
              </Document>
</kml>
    