<?xml version="1.0" encoding="utf-8"?>
<kml xmlns="http://www.opengis.net/kml/2.2">
  <Document>
    <name>17/37833/49298.kml</name>
    <description></description>
    <Style>
      <ListStyle id="hideChildren">
        <listItemType>checkHideChildren</listItemType>
      </ListStyle>
    </Style>
    <Region>
      <LatLonAltBox>
        <north>45.40374755859375</north>
        <south>45.40100097656250</south>
        <east>-76.08581542968750</east>
        <west>-76.08856201171875</west>
      </LatLonAltBox>
      <Lod>
        <minLodPixels>128</minLodPixels>
        <maxLodPixels>2048</maxLodPixels>
      </Lod>
    </Region>
    <GroundOverlay>
      <drawOrder>34</drawOrder>
      <Icon>
        <href>49298.png</href>
      </Icon>
      <LatLonBox>
        <north>45.40374755859375</north>
        <south>45.40100097656250</south>
        <east>-76.08581542968750</east>
        <west>-76.08856201171875</west>
      </LatLonBox>
    </GroundOverlay>

    <NetworkLink>
      <name>18/75666/98597.png</name>
      <Region>
        <LatLonAltBox>
          <north>45.40374755859375</north>
          <south>45.40237426757812</south>
          <east>-76.08718872070312</east>
          <west>-76.08856201171875</west>
        </LatLonAltBox>
        <Lod>
          <minLodPixels>128</minLodPixels>
          <maxLodPixels>-1</maxLodPixels>
        </Lod>
      </Region>
      <Link>
        <href>../../18/75666/98597.kml</href>
        <viewRefreshMode>onRegion</viewRefreshMode>
        <viewFormat/>
      </Link>
    </NetworkLink>
        
    <NetworkLink>
      <name>18/75667/98597.png</name>
      <Region>
        <LatLonAltBox>
          <north>45.40374755859375</north>
          <south>45.40237426757812</south>
          <east>-76.08581542968750</east>
          <west>-76.08718872070312</west>
        </LatLonAltBox>
        <Lod>
          <minLodPixels>128</minLodPixels>
          <maxLodPixels>-1</maxLodPixels>
        </Lod>
      </Region>
      <Link>
        <href>../../18/75667/98597.kml</href>
        <viewRefreshMode>onRegion</viewRefreshMode>
        <viewFormat/>
      </Link>
    </NetworkLink>
        
    <NetworkLink>
      <name>18/75666/98596.png</name>
      <Region>
        <LatLonAltBox>
          <north>45.40237426757812</north>
          <south>45.40100097656250</south>
          <east>-76.08718872070312</east>
          <west>-76.08856201171875</west>
        </LatLonAltBox>
        <Lod>
          <minLodPixels>128</minLodPixels>
          <maxLodPixels>-1</maxLodPixels>
        </Lod>
      </Region>
      <Link>
        <href>../../18/75666/98596.kml</href>
        <viewRefreshMode>onRegion</viewRefreshMode>
        <viewFormat/>
      </Link>
    </NetworkLink>
        
    <NetworkLink>
      <name>18/75667/98596.png</name>
      <Region>
        <LatLonAltBox>
          <north>45.40237426757812</north>
          <south>45.40100097656250</south>
          <east>-76.08581542968750</east>
          <west>-76.08718872070312</west>
        </LatLonAltBox>
        <Lod>
          <minLodPixels>128</minLodPixels>
          <maxLodPixels>-1</maxLodPixels>
        </Lod>
      </Region>
      <Link>
        <href>../../18/75667/98596.kml</href>
        <viewRefreshMode>onRegion</viewRefreshMode>
        <viewFormat/>
      </Link>
    </NetworkLink>
              </Document>
</kml>
    