<?xml version="1.0" encoding="utf-8"?>
<kml xmlns="http://www.opengis.net/kml/2.2">
  <Document>
    <name>19/151344/336424.kml</name>
    <description></description>
    <Style>
      <ListStyle id="hideChildren">
        <listItemType>checkHideChildren</listItemType>
      </ListStyle>
    </Style>
    <Region>
      <LatLonAltBox>
        <north>45.35648792500790</north>
        <south>45.35600542155823</south>
        <east>-76.07963562011719</east>
        <west>-76.08032226562500</west>
      </LatLonAltBox>
      <Lod>
        <minLodPixels>128</minLodPixels>
        <maxLodPixels>-1</maxLodPixels>
      </Lod>
    </Region>
    <GroundOverlay>
      <drawOrder>38</drawOrder>
      <Icon>
        <href>336424.png</href>
      </Icon>
      <LatLonBox>
        <north>45.35648792500790</north>
        <south>45.35600542155823</south>
        <east>-76.07963562011719</east>
        <west>-76.08032226562500</west>
      </LatLonBox>
    </GroundOverlay>
      </Document>
</kml>
    