<?xml version="1.0" encoding="utf-8"?>
<kml xmlns="http://www.opengis.net/kml/2.2">
  <Document>
    <name>18/75713/168238.kml</name>
    <description></description>
    <Style>
      <ListStyle id="hideChildren">
        <listItemType>checkHideChildren</listItemType>
      </ListStyle>
    </Style>
    <Region>
      <LatLonAltBox>
        <north>45.38205472052984</north>
        <south>45.38109014561265</south>
        <east>-76.02264404296875</east>
        <west>-76.02401733398438</west>
      </LatLonAltBox>
      <Lod>
        <minLodPixels>128</minLodPixels>
        <maxLodPixels>2048</maxLodPixels>
      </Lod>
    </Region>
    <GroundOverlay>
      <drawOrder>36</drawOrder>
      <Icon>
        <href>168238.png</href>
      </Icon>
      <LatLonBox>
        <north>45.38205472052984</north>
        <south>45.38109014561265</south>
        <east>-76.02264404296875</east>
        <west>-76.02401733398438</west>
      </LatLonBox>
    </GroundOverlay>

    <NetworkLink>
      <name>19/151426/336477.png</name>
      <Region>
        <LatLonAltBox>
          <north>45.38205472052984</north>
          <south>45.38157243512828</south>
          <east>-76.02333068847656</east>
          <west>-76.02401733398438</west>
        </LatLonAltBox>
        <Lod>
          <minLodPixels>128</minLodPixels>
          <maxLodPixels>-1</maxLodPixels>
        </Lod>
      </Region>
      <Link>
        <href>../../19/151426/336477.kml</href>
        <viewRefreshMode>onRegion</viewRefreshMode>
        <viewFormat/>
      </Link>
    </NetworkLink>
        
    <NetworkLink>
      <name>19/151427/336477.png</name>
      <Region>
        <LatLonAltBox>
          <north>45.38205472052984</north>
          <south>45.38157243512828</south>
          <east>-76.02264404296875</east>
          <west>-76.02333068847656</west>
        </LatLonAltBox>
        <Lod>
          <minLodPixels>128</minLodPixels>
          <maxLodPixels>-1</maxLodPixels>
        </Lod>
      </Region>
      <Link>
        <href>../../19/151427/336477.kml</href>
        <viewRefreshMode>onRegion</viewRefreshMode>
        <viewFormat/>
      </Link>
    </NetworkLink>
        
    <NetworkLink>
      <name>19/151426/336476.png</name>
      <Region>
        <LatLonAltBox>
          <north>45.38157243512828</north>
          <south>45.38109014561265</south>
          <east>-76.02333068847656</east>
          <west>-76.02401733398438</west>
        </LatLonAltBox>
        <Lod>
          <minLodPixels>128</minLodPixels>
          <maxLodPixels>-1</maxLodPixels>
        </Lod>
      </Region>
      <Link>
        <href>../../19/151426/336476.kml</href>
        <viewRefreshMode>onRegion</viewRefreshMode>
        <viewFormat/>
      </Link>
    </NetworkLink>
        
    <NetworkLink>
      <name>19/151427/336476.png</name>
      <Region>
        <LatLonAltBox>
          <north>45.38157243512828</north>
          <south>45.38109014561265</south>
          <east>-76.02264404296875</east>
          <west>-76.02333068847656</west>
        </LatLonAltBox>
        <Lod>
          <minLodPixels>128</minLodPixels>
          <maxLodPixels>-1</maxLodPixels>
        </Lod>
      </Region>
      <Link>
        <href>../../19/151427/336476.kml</href>
        <viewRefreshMode>onRegion</viewRefreshMode>
        <viewFormat/>
      </Link>
    </NetworkLink>
              </Document>
</kml>
    