<?xml version="1.0" encoding="utf-8"?>
<kml xmlns="http://www.opengis.net/kml/2.2">
  <Document>
    <name>18/75699/168263.kml</name>
    <description></description>
    <Style>
      <ListStyle id="hideChildren">
        <listItemType>checkHideChildren</listItemType>
      </ListStyle>
    </Style>
    <Region>
      <LatLonAltBox>
        <north>45.40616374516014</north>
        <south>45.40519958164984</south>
        <east>-76.04187011718750</east>
        <west>-76.04324340820312</west>
      </LatLonAltBox>
      <Lod>
        <minLodPixels>128</minLodPixels>
        <maxLodPixels>2048</maxLodPixels>
      </Lod>
    </Region>
    <GroundOverlay>
      <drawOrder>36</drawOrder>
      <Icon>
        <href>168263.png</href>
      </Icon>
      <LatLonBox>
        <north>45.40616374516014</north>
        <south>45.40519958164984</south>
        <east>-76.04187011718750</east>
        <west>-76.04324340820312</west>
      </LatLonBox>
    </GroundOverlay>

    <NetworkLink>
      <name>19/151398/336527.png</name>
      <Region>
        <LatLonAltBox>
          <north>45.40616374516014</north>
          <south>45.40568166546203</south>
          <east>-76.04255676269531</east>
          <west>-76.04324340820312</west>
        </LatLonAltBox>
        <Lod>
          <minLodPixels>128</minLodPixels>
          <maxLodPixels>-1</maxLodPixels>
        </Lod>
      </Region>
      <Link>
        <href>../../19/151398/336527.kml</href>
        <viewRefreshMode>onRegion</viewRefreshMode>
        <viewFormat/>
      </Link>
    </NetworkLink>
        
    <NetworkLink>
      <name>19/151399/336527.png</name>
      <Region>
        <LatLonAltBox>
          <north>45.40616374516014</north>
          <south>45.40568166546203</south>
          <east>-76.04187011718750</east>
          <west>-76.04255676269531</west>
        </LatLonAltBox>
        <Lod>
          <minLodPixels>128</minLodPixels>
          <maxLodPixels>-1</maxLodPixels>
        </Lod>
      </Region>
      <Link>
        <href>../../19/151399/336527.kml</href>
        <viewRefreshMode>onRegion</viewRefreshMode>
        <viewFormat/>
      </Link>
    </NetworkLink>
        
    <NetworkLink>
      <name>19/151398/336526.png</name>
      <Region>
        <LatLonAltBox>
          <north>45.40568166546203</north>
          <south>45.40519958164984</south>
          <east>-76.04255676269531</east>
          <west>-76.04324340820312</west>
        </LatLonAltBox>
        <Lod>
          <minLodPixels>128</minLodPixels>
          <maxLodPixels>-1</maxLodPixels>
        </Lod>
      </Region>
      <Link>
        <href>../../19/151398/336526.kml</href>
        <viewRefreshMode>onRegion</viewRefreshMode>
        <viewFormat/>
      </Link>
    </NetworkLink>
        
    <NetworkLink>
      <name>19/151399/336526.png</name>
      <Region>
        <LatLonAltBox>
          <north>45.40568166546203</north>
          <south>45.40519958164984</south>
          <east>-76.04187011718750</east>
          <west>-76.04255676269531</west>
        </LatLonAltBox>
        <Lod>
          <minLodPixels>128</minLodPixels>
          <maxLodPixels>-1</maxLodPixels>
        </Lod>
      </Region>
      <Link>
        <href>../../19/151399/336526.kml</href>
        <viewRefreshMode>onRegion</viewRefreshMode>
        <viewFormat/>
      </Link>
    </NetworkLink>
              </Document>
</kml>
    