<?xml version="1.0" encoding="utf-8"?>
<kml xmlns="http://www.opengis.net/kml/2.2">
  <Document>
    <name>18/75699/168237.kml</name>
    <description></description>
    <Style>
      <ListStyle id="hideChildren">
        <listItemType>checkHideChildren</listItemType>
      </ListStyle>
    </Style>
    <Region>
      <LatLonAltBox>
        <north>45.38109014561265</north>
        <south>45.38012555423909</south>
        <east>-76.04187011718750</east>
        <west>-76.04324340820312</west>
      </LatLonAltBox>
      <Lod>
        <minLodPixels>128</minLodPixels>
        <maxLodPixels>2048</maxLodPixels>
      </Lod>
    </Region>
    <GroundOverlay>
      <drawOrder>36</drawOrder>
      <Icon>
        <href>168237.png</href>
      </Icon>
      <LatLonBox>
        <north>45.38109014561265</north>
        <south>45.38012555423909</south>
        <east>-76.04187011718750</east>
        <west>-76.04324340820312</west>
      </LatLonBox>
    </GroundOverlay>

    <NetworkLink>
      <name>19/151398/336475.png</name>
      <Region>
        <LatLonAltBox>
          <north>45.38109014561265</north>
          <south>45.38060785198293</south>
          <east>-76.04255676269531</east>
          <west>-76.04324340820312</west>
        </LatLonAltBox>
        <Lod>
          <minLodPixels>128</minLodPixels>
          <maxLodPixels>-1</maxLodPixels>
        </Lod>
      </Region>
      <Link>
        <href>../../19/151398/336475.kml</href>
        <viewRefreshMode>onRegion</viewRefreshMode>
        <viewFormat/>
      </Link>
    </NetworkLink>
        
    <NetworkLink>
      <name>19/151399/336475.png</name>
      <Region>
        <LatLonAltBox>
          <north>45.38109014561265</north>
          <south>45.38060785198293</south>
          <east>-76.04187011718750</east>
          <west>-76.04255676269531</west>
        </LatLonAltBox>
        <Lod>
          <minLodPixels>128</minLodPixels>
          <maxLodPixels>-1</maxLodPixels>
        </Lod>
      </Region>
      <Link>
        <href>../../19/151399/336475.kml</href>
        <viewRefreshMode>onRegion</viewRefreshMode>
        <viewFormat/>
      </Link>
    </NetworkLink>
        
    <NetworkLink>
      <name>19/151398/336474.png</name>
      <Region>
        <LatLonAltBox>
          <north>45.38060785198293</north>
          <south>45.38012555423909</south>
          <east>-76.04255676269531</east>
          <west>-76.04324340820312</west>
        </LatLonAltBox>
        <Lod>
          <minLodPixels>128</minLodPixels>
          <maxLodPixels>-1</maxLodPixels>
        </Lod>
      </Region>
      <Link>
        <href>../../19/151398/336474.kml</href>
        <viewRefreshMode>onRegion</viewRefreshMode>
        <viewFormat/>
      </Link>
    </NetworkLink>
        
    <NetworkLink>
      <name>19/151399/336474.png</name>
      <Region>
        <LatLonAltBox>
          <north>45.38060785198293</north>
          <south>45.38012555423909</south>
          <east>-76.04187011718750</east>
          <west>-76.04255676269531</west>
        </LatLonAltBox>
        <Lod>
          <minLodPixels>128</minLodPixels>
          <maxLodPixels>-1</maxLodPixels>
        </Lod>
      </Region>
      <Link>
        <href>../../19/151399/336474.kml</href>
        <viewRefreshMode>onRegion</viewRefreshMode>
        <viewFormat/>
      </Link>
    </NetworkLink>
              </Document>
</kml>
    