<?xml version="1.0" encoding="utf-8"?>
<kml xmlns="http://www.opengis.net/kml/2.2">
  <Document>
    <name>18/75674/98570.kml</name>
    <description></description>
    <Style>
      <ListStyle id="hideChildren">
        <listItemType>checkHideChildren</listItemType>
      </ListStyle>
    </Style>
    <Region>
      <LatLonAltBox>
        <north>45.36666870117188</north>
        <south>45.36529541015625</south>
        <east>-76.07620239257812</east>
        <west>-76.07757568359375</west>
      </LatLonAltBox>
      <Lod>
        <minLodPixels>128</minLodPixels>
        <maxLodPixels>2048</maxLodPixels>
      </Lod>
    </Region>
    <GroundOverlay>
      <drawOrder>36</drawOrder>
      <Icon>
        <href>98570.png</href>
      </Icon>
      <LatLonBox>
        <north>45.36666870117188</north>
        <south>45.36529541015625</south>
        <east>-76.07620239257812</east>
        <west>-76.07757568359375</west>
      </LatLonBox>
    </GroundOverlay>

    <NetworkLink>
      <name>19/151348/197141.png</name>
      <Region>
        <LatLonAltBox>
          <north>45.36666870117188</north>
          <south>45.36598205566406</south>
          <east>-76.07688903808594</east>
          <west>-76.07757568359375</west>
        </LatLonAltBox>
        <Lod>
          <minLodPixels>128</minLodPixels>
          <maxLodPixels>-1</maxLodPixels>
        </Lod>
      </Region>
      <Link>
        <href>https://swmoran.github.io/ch-tiles/tiles/DRAPE_tiles/19/151348/197141.kml</href>
        <viewRefreshMode>onRegion</viewRefreshMode>
        <viewFormat/>
      </Link>
    </NetworkLink>
        
    <NetworkLink>
      <name>19/151349/197141.png</name>
      <Region>
        <LatLonAltBox>
          <north>45.36666870117188</north>
          <south>45.36598205566406</south>
          <east>-76.07620239257812</east>
          <west>-76.07688903808594</west>
        </LatLonAltBox>
        <Lod>
          <minLodPixels>128</minLodPixels>
          <maxLodPixels>-1</maxLodPixels>
        </Lod>
      </Region>
      <Link>
        <href>https://swmoran.github.io/ch-tiles/tiles/DRAPE_tiles/19/151349/197141.kml</href>
        <viewRefreshMode>onRegion</viewRefreshMode>
        <viewFormat/>
      </Link>
    </NetworkLink>
        
    <NetworkLink>
      <name>19/151348/197140.png</name>
      <Region>
        <LatLonAltBox>
          <north>45.36598205566406</north>
          <south>45.36529541015625</south>
          <east>-76.07688903808594</east>
          <west>-76.07757568359375</west>
        </LatLonAltBox>
        <Lod>
          <minLodPixels>128</minLodPixels>
          <maxLodPixels>-1</maxLodPixels>
        </Lod>
      </Region>
      <Link>
        <href>https://swmoran.github.io/ch-tiles/tiles/DRAPE_tiles/19/151348/197140.kml</href>
        <viewRefreshMode>onRegion</viewRefreshMode>
        <viewFormat/>
      </Link>
    </NetworkLink>
        
    <NetworkLink>
      <name>19/151349/197140.png</name>
      <Region>
        <LatLonAltBox>
          <north>45.36598205566406</north>
          <south>45.36529541015625</south>
          <east>-76.07620239257812</east>
          <west>-76.07688903808594</west>
        </LatLonAltBox>
        <Lod>
          <minLodPixels>128</minLodPixels>
          <maxLodPixels>-1</maxLodPixels>
        </Lod>
      </Region>
      <Link>
        <href>https://swmoran.github.io/ch-tiles/tiles/DRAPE_tiles/19/151349/197140.kml</href>
        <viewRefreshMode>onRegion</viewRefreshMode>
        <viewFormat/>
      </Link>
    </NetworkLink>
              </Document>
</kml>
    