<?xml version="1.0" encoding="utf-8"?>
<kml xmlns="http://www.opengis.net/kml/2.2">
  <Document>
    <name>19/151298/197175.kml</name>
    <description></description>
    <Style>
      <ListStyle id="hideChildren">
        <listItemType>checkHideChildren</listItemType>
      </ListStyle>
    </Style>
    <Region>
      <LatLonAltBox>
        <north>134.61067199707031</north>
        <south>134.60998535156250</south>
        <east>-76.11122131347656</east>
        <west>-76.11190795898438</west>
      </LatLonAltBox>
      <Lod>
        <minLodPixels>128</minLodPixels>
        <maxLodPixels>-1</maxLodPixels>
      </Lod>
    </Region>
    <GroundOverlay>
      <drawOrder>38</drawOrder>
      <Icon>
        <href>197175.png</href>
      </Icon>
      <LatLonBox>
        <north>134.61067199707031</north>
        <south>134.60998535156250</south>
        <east>-76.11122131347656</east>
        <west>-76.11190795898438</west>
      </LatLonBox>
    </GroundOverlay>
      </Document>
</kml>
    