<?xml version="1.0" encoding="utf-8"?>
<kml xmlns="http://www.opengis.net/kml/2.2">
  <Document>
    <name>15/9457/12323.kml</name>
    <description></description>
    <Style>
      <ListStyle id="hideChildren">
        <listItemType>checkHideChildren</listItemType>
      </ListStyle>
    </Style>
    <Region>
      <LatLonAltBox>
        <north>45.39550781250000</north>
        <south>45.38452148437500</south>
        <east>-76.09130859375000</east>
        <west>-76.10229492187500</west>
      </LatLonAltBox>
      <Lod>
        <minLodPixels>128</minLodPixels>
        <maxLodPixels>2048</maxLodPixels>
      </Lod>
    </Region>
    <GroundOverlay>
      <drawOrder>30</drawOrder>
      <Icon>
        <href>12323.png</href>
      </Icon>
      <LatLonBox>
        <north>45.39550781250000</north>
        <south>45.38452148437500</south>
        <east>-76.09130859375000</east>
        <west>-76.10229492187500</west>
      </LatLonBox>
    </GroundOverlay>

    <NetworkLink>
      <name>16/18914/24647.png</name>
      <Region>
        <LatLonAltBox>
          <north>45.39550781250000</north>
          <south>45.39001464843750</south>
          <east>-76.09680175781250</east>
          <west>-76.10229492187500</west>
        </LatLonAltBox>
        <Lod>
          <minLodPixels>128</minLodPixels>
          <maxLodPixels>-1</maxLodPixels>
        </Lod>
      </Region>
      <Link>
        <href>https://swmoran.github.io/ch-tiles/tiles/DRAPE_tiles/16/18914/24647.kml</href>
        <viewRefreshMode>onRegion</viewRefreshMode>
        <viewFormat/>
      </Link>
    </NetworkLink>
        
    <NetworkLink>
      <name>16/18915/24647.png</name>
      <Region>
        <LatLonAltBox>
          <north>45.39550781250000</north>
          <south>45.39001464843750</south>
          <east>-76.09130859375000</east>
          <west>-76.09680175781250</west>
        </LatLonAltBox>
        <Lod>
          <minLodPixels>128</minLodPixels>
          <maxLodPixels>-1</maxLodPixels>
        </Lod>
      </Region>
      <Link>
        <href>https://swmoran.github.io/ch-tiles/tiles/DRAPE_tiles/16/18915/24647.kml</href>
        <viewRefreshMode>onRegion</viewRefreshMode>
        <viewFormat/>
      </Link>
    </NetworkLink>
        
    <NetworkLink>
      <name>16/18914/24646.png</name>
      <Region>
        <LatLonAltBox>
          <north>45.39001464843750</north>
          <south>45.38452148437500</south>
          <east>-76.09680175781250</east>
          <west>-76.10229492187500</west>
        </LatLonAltBox>
        <Lod>
          <minLodPixels>128</minLodPixels>
          <maxLodPixels>-1</maxLodPixels>
        </Lod>
      </Region>
      <Link>
        <href>https://swmoran.github.io/ch-tiles/tiles/DRAPE_tiles/16/18914/24646.kml</href>
        <viewRefreshMode>onRegion</viewRefreshMode>
        <viewFormat/>
      </Link>
    </NetworkLink>
        
    <NetworkLink>
      <name>16/18915/24646.png</name>
      <Region>
        <LatLonAltBox>
          <north>45.39001464843750</north>
          <south>45.38452148437500</south>
          <east>-76.09130859375000</east>
          <west>-76.09680175781250</west>
        </LatLonAltBox>
        <Lod>
          <minLodPixels>128</minLodPixels>
          <maxLodPixels>-1</maxLodPixels>
        </Lod>
      </Region>
      <Link>
        <href>https://swmoran.github.io/ch-tiles/tiles/DRAPE_tiles/16/18915/24646.kml</href>
        <viewRefreshMode>onRegion</viewRefreshMode>
        <viewFormat/>
      </Link>
    </NetworkLink>
              </Document>
</kml>
    