<?xml version="1.0" encoding="utf-8"?>
<kml xmlns="http://www.opengis.net/kml/2.2">
  <Document>
    <name>16/18917/40893.kml</name>
    <description></description>
    <Style>
      <ListStyle id="hideChildren">
        <listItemType>checkHideChildren</listItemType>
      </ListStyle>
    </Style>
    <Region>
      <LatLonAltBox>
        <north>45.36804199218750</north>
        <south>45.36254882812500</south>
        <east>-76.08032226562500</east>
        <west>-76.08581542968750</west>
      </LatLonAltBox>
      <Lod>
        <minLodPixels>128</minLodPixels>
        <maxLodPixels>2048</maxLodPixels>
      </Lod>
    </Region>
    <GroundOverlay>
      <drawOrder>32</drawOrder>
      <Icon>
        <href>40893.png</href>
      </Icon>
      <LatLonBox>
        <north>45.36804199218750</north>
        <south>45.36254882812500</south>
        <east>-76.08032226562500</east>
        <west>-76.08581542968750</west>
      </LatLonBox>
    </GroundOverlay>

    <NetworkLink>
      <name>17/37834/81786.png</name>
      <Region>
        <LatLonAltBox>
          <north>45.36804199218750</north>
          <south>45.36529541015625</south>
          <east>-76.08306884765625</east>
          <west>-76.08581542968750</west>
        </LatLonAltBox>
        <Lod>
          <minLodPixels>128</minLodPixels>
          <maxLodPixels>-1</maxLodPixels>
        </Lod>
      </Region>
      <Link>
        <href>../../17/37834/81786.kml</href>
        <viewRefreshMode>onRegion</viewRefreshMode>
        <viewFormat/>
      </Link>
    </NetworkLink>
        
    <NetworkLink>
      <name>17/37835/81786.png</name>
      <Region>
        <LatLonAltBox>
          <north>45.36804199218750</north>
          <south>45.36529541015625</south>
          <east>-76.08032226562500</east>
          <west>-76.08306884765625</west>
        </LatLonAltBox>
        <Lod>
          <minLodPixels>128</minLodPixels>
          <maxLodPixels>-1</maxLodPixels>
        </Lod>
      </Region>
      <Link>
        <href>../../17/37835/81786.kml</href>
        <viewRefreshMode>onRegion</viewRefreshMode>
        <viewFormat/>
      </Link>
    </NetworkLink>
        
    <NetworkLink>
      <name>17/37834/81787.png</name>
      <Region>
        <LatLonAltBox>
          <north>45.36529541015625</north>
          <south>45.36254882812500</south>
          <east>-76.08306884765625</east>
          <west>-76.08581542968750</west>
        </LatLonAltBox>
        <Lod>
          <minLodPixels>128</minLodPixels>
          <maxLodPixels>-1</maxLodPixels>
        </Lod>
      </Region>
      <Link>
        <href>../../17/37834/81787.kml</href>
        <viewRefreshMode>onRegion</viewRefreshMode>
        <viewFormat/>
      </Link>
    </NetworkLink>
        
    <NetworkLink>
      <name>17/37835/81787.png</name>
      <Region>
        <LatLonAltBox>
          <north>45.36529541015625</north>
          <south>45.36254882812500</south>
          <east>-76.08032226562500</east>
          <west>-76.08306884765625</west>
        </LatLonAltBox>
        <Lod>
          <minLodPixels>128</minLodPixels>
          <maxLodPixels>-1</maxLodPixels>
        </Lod>
      </Region>
      <Link>
        <href>../../17/37835/81787.kml</href>
        <viewRefreshMode>onRegion</viewRefreshMode>
        <viewFormat/>
      </Link>
    </NetworkLink>
              </Document>
</kml>
    