<?xml version="1.0" encoding="utf-8"?>
<kml xmlns="http://www.opengis.net/kml/2.2">
  <Document>
    <name>13/2364/5111.kml</name>
    <description></description>
    <Style>
      <ListStyle id="hideChildren">
        <listItemType>checkHideChildren</listItemType>
      </ListStyle>
    </Style>
    <Region>
      <LatLonAltBox>
        <north>45.39550781250000</north>
        <south>45.35156250000000</south>
        <east>-76.06933593750000</east>
        <west>-76.11328125000000</west>
      </LatLonAltBox>
      <Lod>
        <minLodPixels>128</minLodPixels>
        <maxLodPixels>2048</maxLodPixels>
      </Lod>
    </Region>
    <GroundOverlay>
      <drawOrder>26</drawOrder>
      <Icon>
        <href>5111.png</href>
      </Icon>
      <LatLonBox>
        <north>45.39550781250000</north>
        <south>45.35156250000000</south>
        <east>-76.06933593750000</east>
        <west>-76.11328125000000</west>
      </LatLonBox>
    </GroundOverlay>

    <NetworkLink>
      <name>14/4728/10222.png</name>
      <Region>
        <LatLonAltBox>
          <north>45.39550781250000</north>
          <south>45.37353515625000</south>
          <east>-76.09130859375000</east>
          <west>-76.11328125000000</west>
        </LatLonAltBox>
        <Lod>
          <minLodPixels>128</minLodPixels>
          <maxLodPixels>-1</maxLodPixels>
        </Lod>
      </Region>
      <Link>
        <href>../../14/4728/10222.kml</href>
        <viewRefreshMode>onRegion</viewRefreshMode>
        <viewFormat/>
      </Link>
    </NetworkLink>
        
    <NetworkLink>
      <name>14/4729/10222.png</name>
      <Region>
        <LatLonAltBox>
          <north>45.39550781250000</north>
          <south>45.37353515625000</south>
          <east>-76.06933593750000</east>
          <west>-76.09130859375000</west>
        </LatLonAltBox>
        <Lod>
          <minLodPixels>128</minLodPixels>
          <maxLodPixels>-1</maxLodPixels>
        </Lod>
      </Region>
      <Link>
        <href>../../14/4729/10222.kml</href>
        <viewRefreshMode>onRegion</viewRefreshMode>
        <viewFormat/>
      </Link>
    </NetworkLink>
        
    <NetworkLink>
      <name>14/4728/10223.png</name>
      <Region>
        <LatLonAltBox>
          <north>45.37353515625000</north>
          <south>45.35156250000000</south>
          <east>-76.09130859375000</east>
          <west>-76.11328125000000</west>
        </LatLonAltBox>
        <Lod>
          <minLodPixels>128</minLodPixels>
          <maxLodPixels>-1</maxLodPixels>
        </Lod>
      </Region>
      <Link>
        <href>../../14/4728/10223.kml</href>
        <viewRefreshMode>onRegion</viewRefreshMode>
        <viewFormat/>
      </Link>
    </NetworkLink>
        
    <NetworkLink>
      <name>14/4729/10223.png</name>
      <Region>
        <LatLonAltBox>
          <north>45.37353515625000</north>
          <south>45.35156250000000</south>
          <east>-76.06933593750000</east>
          <west>-76.09130859375000</west>
        </LatLonAltBox>
        <Lod>
          <minLodPixels>128</minLodPixels>
          <maxLodPixels>-1</maxLodPixels>
        </Lod>
      </Region>
      <Link>
        <href>../../14/4729/10223.kml</href>
        <viewRefreshMode>onRegion</viewRefreshMode>
        <viewFormat/>
      </Link>
    </NetworkLink>
              </Document>
</kml>
    