<?xml version="1.0" encoding="utf-8"?>
<kml xmlns="http://www.opengis.net/kml/2.2">
  <Document>
    <name>16/18922/42053.kml</name>
    <description></description>
    <Style>
      <ListStyle id="hideChildren">
        <listItemType>checkHideChildren</listItemType>
      </ListStyle>
    </Style>
    <Region>
      <LatLonAltBox>
        <north>45.35986533395975</north>
        <south>45.35600542155823</south>
        <east>-76.05285644531249</east>
        <west>-76.05834960937500</west>
      </LatLonAltBox>
      <Lod>
        <minLodPixels>128</minLodPixels>
        <maxLodPixels>2048</maxLodPixels>
      </Lod>
    </Region>
    <GroundOverlay>
      <drawOrder>32</drawOrder>
      <Icon>
        <href>42053.png</href>
      </Icon>
      <LatLonBox>
        <north>45.35986533395975</north>
        <south>45.35600542155823</south>
        <east>-76.05285644531249</east>
        <west>-76.05834960937500</west>
      </LatLonBox>
    </GroundOverlay>

    <NetworkLink>
      <name>17/37844/84107.png</name>
      <Region>
        <LatLonAltBox>
          <north>45.35986533395975</north>
          <south>45.35793541067206</south>
          <east>-76.05560302734376</east>
          <west>-76.05834960937500</west>
        </LatLonAltBox>
        <Lod>
          <minLodPixels>128</minLodPixels>
          <maxLodPixels>-1</maxLodPixels>
        </Lod>
      </Region>
      <Link>
        <href>../../17/37844/84107.kml</href>
        <viewRefreshMode>onRegion</viewRefreshMode>
        <viewFormat/>
      </Link>
    </NetworkLink>
        
    <NetworkLink>
      <name>17/37845/84107.png</name>
      <Region>
        <LatLonAltBox>
          <north>45.35986533395975</north>
          <south>45.35793541067206</south>
          <east>-76.05285644531249</east>
          <west>-76.05560302734376</west>
        </LatLonAltBox>
        <Lod>
          <minLodPixels>128</minLodPixels>
          <maxLodPixels>-1</maxLodPixels>
        </Lod>
      </Region>
      <Link>
        <href>../../17/37845/84107.kml</href>
        <viewRefreshMode>onRegion</viewRefreshMode>
        <viewFormat/>
      </Link>
    </NetworkLink>
        
    <NetworkLink>
      <name>17/37844/84106.png</name>
      <Region>
        <LatLonAltBox>
          <north>45.35793541067206</north>
          <south>45.35600542155823</south>
          <east>-76.05560302734376</east>
          <west>-76.05834960937500</west>
        </LatLonAltBox>
        <Lod>
          <minLodPixels>128</minLodPixels>
          <maxLodPixels>-1</maxLodPixels>
        </Lod>
      </Region>
      <Link>
        <href>../../17/37844/84106.kml</href>
        <viewRefreshMode>onRegion</viewRefreshMode>
        <viewFormat/>
      </Link>
    </NetworkLink>
        
    <NetworkLink>
      <name>17/37845/84106.png</name>
      <Region>
        <LatLonAltBox>
          <north>45.35793541067206</north>
          <south>45.35600542155823</south>
          <east>-76.05285644531249</east>
          <west>-76.05560302734376</west>
        </LatLonAltBox>
        <Lod>
          <minLodPixels>128</minLodPixels>
          <maxLodPixels>-1</maxLodPixels>
        </Lod>
      </Region>
      <Link>
        <href>../../17/37845/84106.kml</href>
        <viewRefreshMode>onRegion</viewRefreshMode>
        <viewFormat/>
      </Link>
    </NetworkLink>
              </Document>
</kml>
    