<?xml version="1.0" encoding="utf-8"?>
<kml xmlns="http://www.opengis.net/kml/2.2">
  <Document>
    <name>19/151390/197134.kml</name>
    <description></description>
    <Style>
      <ListStyle id="hideChildren">
        <listItemType>checkHideChildren</listItemType>
      </ListStyle>
    </Style>
    <Region>
      <LatLonAltBox>
        <north>134.63882446289062</north>
        <south>134.63813781738281</south>
        <east>-76.04804992675781</east>
        <west>-76.04873657226562</west>
      </LatLonAltBox>
      <Lod>
        <minLodPixels>128</minLodPixels>
        <maxLodPixels>-1</maxLodPixels>
      </Lod>
    </Region>
    <GroundOverlay>
      <drawOrder>38</drawOrder>
      <Icon>
        <href>197134.png</href>
      </Icon>
      <LatLonBox>
        <north>134.63882446289062</north>
        <south>134.63813781738281</south>
        <east>-76.04804992675781</east>
        <west>-76.04873657226562</west>
      </LatLonBox>
    </GroundOverlay>
      </Document>
</kml>
    