<?xml version="1.0" encoding="utf-8"?>
<kml xmlns="http://www.opengis.net/kml/2.2">
  <Document>
    <name>17/37844/49289.kml</name>
    <description></description>
    <Style>
      <ListStyle id="hideChildren">
        <listItemType>checkHideChildren</listItemType>
      </ListStyle>
    </Style>
    <Region>
      <LatLonAltBox>
        <north>45.37902832031250</north>
        <south>45.37628173828125</south>
        <east>-76.05560302734375</east>
        <west>-76.05834960937500</west>
      </LatLonAltBox>
      <Lod>
        <minLodPixels>128</minLodPixels>
        <maxLodPixels>2048</maxLodPixels>
      </Lod>
    </Region>
    <GroundOverlay>
      <drawOrder>34</drawOrder>
      <Icon>
        <href>49289.png</href>
      </Icon>
      <LatLonBox>
        <north>45.37902832031250</north>
        <south>45.37628173828125</south>
        <east>-76.05560302734375</east>
        <west>-76.05834960937500</west>
      </LatLonBox>
    </GroundOverlay>

    <NetworkLink>
      <name>18/75688/98579.png</name>
      <Region>
        <LatLonAltBox>
          <north>45.37902832031250</north>
          <south>45.37765502929688</south>
          <east>-76.05697631835938</east>
          <west>-76.05834960937500</west>
        </LatLonAltBox>
        <Lod>
          <minLodPixels>128</minLodPixels>
          <maxLodPixels>-1</maxLodPixels>
        </Lod>
      </Region>
      <Link>
        <href>https://swmoran.github.io/ch-tiles/tiles_GE/tiles_GE/18/75688/98579.kml</href>
        <viewRefreshMode>onRegion</viewRefreshMode>
        <viewFormat/>
      </Link>
    </NetworkLink>
        
    <NetworkLink>
      <name>18/75689/98579.png</name>
      <Region>
        <LatLonAltBox>
          <north>45.37902832031250</north>
          <south>45.37765502929688</south>
          <east>-76.05560302734375</east>
          <west>-76.05697631835938</west>
        </LatLonAltBox>
        <Lod>
          <minLodPixels>128</minLodPixels>
          <maxLodPixels>-1</maxLodPixels>
        </Lod>
      </Region>
      <Link>
        <href>https://swmoran.github.io/ch-tiles/tiles_GE/tiles_GE/18/75689/98579.kml</href>
        <viewRefreshMode>onRegion</viewRefreshMode>
        <viewFormat/>
      </Link>
    </NetworkLink>
        
    <NetworkLink>
      <name>18/75688/98578.png</name>
      <Region>
        <LatLonAltBox>
          <north>45.37765502929688</north>
          <south>45.37628173828125</south>
          <east>-76.05697631835938</east>
          <west>-76.05834960937500</west>
        </LatLonAltBox>
        <Lod>
          <minLodPixels>128</minLodPixels>
          <maxLodPixels>-1</maxLodPixels>
        </Lod>
      </Region>
      <Link>
        <href>https://swmoran.github.io/ch-tiles/tiles_GE/tiles_GE/18/75688/98578.kml</href>
        <viewRefreshMode>onRegion</viewRefreshMode>
        <viewFormat/>
      </Link>
    </NetworkLink>
        
    <NetworkLink>
      <name>18/75689/98578.png</name>
      <Region>
        <LatLonAltBox>
          <north>45.37765502929688</north>
          <south>45.37628173828125</south>
          <east>-76.05560302734375</east>
          <west>-76.05697631835938</west>
        </LatLonAltBox>
        <Lod>
          <minLodPixels>128</minLodPixels>
          <maxLodPixels>-1</maxLodPixels>
        </Lod>
      </Region>
      <Link>
        <href>https://swmoran.github.io/ch-tiles/tiles_GE/tiles_GE/18/75689/98578.kml</href>
        <viewRefreshMode>onRegion</viewRefreshMode>
        <viewFormat/>
      </Link>
    </NetworkLink>
              </Document>
</kml>
    