<?xml version="1.0" encoding="utf-8"?>
<kml xmlns="http://www.opengis.net/kml/2.2">
  <Document>
    <name>19/151370/197180.kml</name>
    <description></description>
    <Style>
      <ListStyle id="hideChildren">
        <listItemType>checkHideChildren</listItemType>
      </ListStyle>
    </Style>
    <Region>
      <LatLonAltBox>
        <north>45.39344787597656</north>
        <south>45.39276123046875</south>
        <east>-76.06178283691406</east>
        <west>-76.06246948242188</west>
      </LatLonAltBox>
      <Lod>
        <minLodPixels>128</minLodPixels>
        <maxLodPixels>-1</maxLodPixels>
      </Lod>
    </Region>
    <GroundOverlay>
      <drawOrder>38</drawOrder>
      <Icon>
        <href>197180.png</href>
      </Icon>
      <LatLonBox>
        <north>45.39344787597656</north>
        <south>45.39276123046875</south>
        <east>-76.06178283691406</east>
        <west>-76.06246948242188</west>
      </LatLonBox>
    </GroundOverlay>
      </Document>
</kml>
    