<?xml version="1.0" encoding="utf-8"?>
<kml xmlns="http://www.opengis.net/kml/2.2">
  <Document>
    <name>18/75666/98592.kml</name>
    <description></description>
    <Style>
      <ListStyle id="hideChildren">
        <listItemType>checkHideChildren</listItemType>
      </ListStyle>
    </Style>
    <Region>
      <LatLonAltBox>
        <north>45.39688110351562</north>
        <south>45.39550781250000</south>
        <east>-76.08718872070312</east>
        <west>-76.08856201171875</west>
      </LatLonAltBox>
      <Lod>
        <minLodPixels>128</minLodPixels>
        <maxLodPixels>2048</maxLodPixels>
      </Lod>
    </Region>
    <GroundOverlay>
      <drawOrder>36</drawOrder>
      <Icon>
        <href>98592.png</href>
      </Icon>
      <LatLonBox>
        <north>45.39688110351562</north>
        <south>45.39550781250000</south>
        <east>-76.08718872070312</east>
        <west>-76.08856201171875</west>
      </LatLonBox>
    </GroundOverlay>

    <NetworkLink>
      <name>19/151332/197185.png</name>
      <Region>
        <LatLonAltBox>
          <north>45.39688110351562</north>
          <south>45.39619445800781</south>
          <east>-76.08787536621094</east>
          <west>-76.08856201171875</west>
        </LatLonAltBox>
        <Lod>
          <minLodPixels>128</minLodPixels>
          <maxLodPixels>-1</maxLodPixels>
        </Lod>
      </Region>
      <Link>
        <href>https://swmoran.github.io/ch-tiles/tiles/DRAPE_Tiles/19/151332/197185.kml</href>
        <viewRefreshMode>onRegion</viewRefreshMode>
        <viewFormat/>
      </Link>
    </NetworkLink>
        
    <NetworkLink>
      <name>19/151333/197185.png</name>
      <Region>
        <LatLonAltBox>
          <north>45.39688110351562</north>
          <south>45.39619445800781</south>
          <east>-76.08718872070312</east>
          <west>-76.08787536621094</west>
        </LatLonAltBox>
        <Lod>
          <minLodPixels>128</minLodPixels>
          <maxLodPixels>-1</maxLodPixels>
        </Lod>
      </Region>
      <Link>
        <href>https://swmoran.github.io/ch-tiles/tiles/DRAPE_Tiles/19/151333/197185.kml</href>
        <viewRefreshMode>onRegion</viewRefreshMode>
        <viewFormat/>
      </Link>
    </NetworkLink>
        
    <NetworkLink>
      <name>19/151332/197184.png</name>
      <Region>
        <LatLonAltBox>
          <north>45.39619445800781</north>
          <south>45.39550781250000</south>
          <east>-76.08787536621094</east>
          <west>-76.08856201171875</west>
        </LatLonAltBox>
        <Lod>
          <minLodPixels>128</minLodPixels>
          <maxLodPixels>-1</maxLodPixels>
        </Lod>
      </Region>
      <Link>
        <href>https://swmoran.github.io/ch-tiles/tiles/DRAPE_Tiles/19/151332/197184.kml</href>
        <viewRefreshMode>onRegion</viewRefreshMode>
        <viewFormat/>
      </Link>
    </NetworkLink>
        
    <NetworkLink>
      <name>19/151333/197184.png</name>
      <Region>
        <LatLonAltBox>
          <north>45.39619445800781</north>
          <south>45.39550781250000</south>
          <east>-76.08718872070312</east>
          <west>-76.08787536621094</west>
        </LatLonAltBox>
        <Lod>
          <minLodPixels>128</minLodPixels>
          <maxLodPixels>-1</maxLodPixels>
        </Lod>
      </Region>
      <Link>
        <href>https://swmoran.github.io/ch-tiles/tiles/DRAPE_Tiles/19/151333/197184.kml</href>
        <viewRefreshMode>onRegion</viewRefreshMode>
        <viewFormat/>
      </Link>
    </NetworkLink>
              </Document>
</kml>
    