<?xml version="1.0" encoding="utf-8"?>
<kml xmlns="http://www.opengis.net/kml/2.2">
  <Document>
    <name>18/75659/168264.kml</name>
    <description></description>
    <Style>
      <ListStyle id="hideChildren">
        <listItemType>checkHideChildren</listItemType>
      </ListStyle>
    </Style>
    <Region>
      <LatLonAltBox>
        <north>45.40712789221431</north>
        <south>45.40616374516014</south>
        <east>-76.09680175781251</east>
        <west>-76.09817504882814</west>
      </LatLonAltBox>
      <Lod>
        <minLodPixels>128</minLodPixels>
        <maxLodPixels>2048</maxLodPixels>
      </Lod>
    </Region>
    <GroundOverlay>
      <drawOrder>36</drawOrder>
      <Icon>
        <href>168264.png</href>
      </Icon>
      <LatLonBox>
        <north>45.40712789221431</north>
        <south>45.40616374516014</south>
        <east>-76.09680175781251</east>
        <west>-76.09817504882814</west>
      </LatLonBox>
    </GroundOverlay>

    <NetworkLink>
      <name>19/151318/336529.png</name>
      <Region>
        <LatLonAltBox>
          <north>45.40712789221431</north>
          <south>45.40664582074424</south>
          <east>-76.09748840332033</east>
          <west>-76.09817504882814</west>
        </LatLonAltBox>
        <Lod>
          <minLodPixels>128</minLodPixels>
          <maxLodPixels>-1</maxLodPixels>
        </Lod>
      </Region>
      <Link>
        <href>../../19/151318/336529.kml</href>
        <viewRefreshMode>onRegion</viewRefreshMode>
        <viewFormat/>
      </Link>
    </NetworkLink>
        
    <NetworkLink>
      <name>19/151319/336529.png</name>
      <Region>
        <LatLonAltBox>
          <north>45.40712789221431</north>
          <south>45.40664582074424</south>
          <east>-76.09680175781251</east>
          <west>-76.09748840332033</west>
        </LatLonAltBox>
        <Lod>
          <minLodPixels>128</minLodPixels>
          <maxLodPixels>-1</maxLodPixels>
        </Lod>
      </Region>
      <Link>
        <href>../../19/151319/336529.kml</href>
        <viewRefreshMode>onRegion</viewRefreshMode>
        <viewFormat/>
      </Link>
    </NetworkLink>
        
    <NetworkLink>
      <name>19/151318/336528.png</name>
      <Region>
        <LatLonAltBox>
          <north>45.40664582074424</north>
          <south>45.40616374516014</south>
          <east>-76.09748840332033</east>
          <west>-76.09817504882814</west>
        </LatLonAltBox>
        <Lod>
          <minLodPixels>128</minLodPixels>
          <maxLodPixels>-1</maxLodPixels>
        </Lod>
      </Region>
      <Link>
        <href>../../19/151318/336528.kml</href>
        <viewRefreshMode>onRegion</viewRefreshMode>
        <viewFormat/>
      </Link>
    </NetworkLink>
        
    <NetworkLink>
      <name>19/151319/336528.png</name>
      <Region>
        <LatLonAltBox>
          <north>45.40664582074424</north>
          <south>45.40616374516014</south>
          <east>-76.09680175781251</east>
          <west>-76.09748840332033</west>
        </LatLonAltBox>
        <Lod>
          <minLodPixels>128</minLodPixels>
          <maxLodPixels>-1</maxLodPixels>
        </Lod>
      </Region>
      <Link>
        <href>../../19/151319/336528.kml</href>
        <viewRefreshMode>onRegion</viewRefreshMode>
        <viewFormat/>
      </Link>
    </NetworkLink>
              </Document>
</kml>
    