<?xml version="1.0" encoding="utf-8"?>
<kml xmlns="http://www.opengis.net/kml/2.2">
  <Document>
    <name>13/2366/5256.kml</name>
    <description></description>
    <Style>
      <ListStyle id="hideChildren">
        <listItemType>checkHideChildren</listItemType>
      </ListStyle>
    </Style>
    <Region>
      <LatLonAltBox>
        <north>45.36758436884980</north>
        <south>45.33670190996813</south>
        <east>-75.98144531250000</east>
        <west>-76.02539062500000</west>
      </LatLonAltBox>
      <Lod>
        <minLodPixels>128</minLodPixels>
        <maxLodPixels>2048</maxLodPixels>
      </Lod>
    </Region>
    <GroundOverlay>
      <drawOrder>26</drawOrder>
      <Icon>
        <href>5256.png</href>
      </Icon>
      <LatLonBox>
        <north>45.36758436884980</north>
        <south>45.33670190996813</south>
        <east>-75.98144531250000</east>
        <west>-76.02539062500000</west>
      </LatLonBox>
    </GroundOverlay>

    <NetworkLink>
      <name>14/4732/10513.png</name>
      <Region>
        <LatLonAltBox>
          <north>45.36758436884980</north>
          <south>45.35214524585180</south>
          <east>-76.00341796875000</east>
          <west>-76.02539062500000</west>
        </LatLonAltBox>
        <Lod>
          <minLodPixels>128</minLodPixels>
          <maxLodPixels>-1</maxLodPixels>
        </Lod>
      </Region>
      <Link>
        <href>../../14/4732/10513.kml</href>
        <viewRefreshMode>onRegion</viewRefreshMode>
        <viewFormat/>
      </Link>
    </NetworkLink>
              </Document>
</kml>
    