<?xml version="1.0" encoding="utf-8"?>
<kml xmlns="http://www.opengis.net/kml/2.2">
  <Document>
    <name>19/151329/197141.kml</name>
    <description></description>
    <Style>
      <ListStyle id="hideChildren">
        <listItemType>checkHideChildren</listItemType>
      </ListStyle>
    </Style>
    <Region>
      <LatLonAltBox>
        <north>134.63401794433594</north>
        <south>134.63333129882812</south>
        <east>-76.08993530273438</east>
        <west>-76.09062194824219</west>
      </LatLonAltBox>
      <Lod>
        <minLodPixels>128</minLodPixels>
        <maxLodPixels>-1</maxLodPixels>
      </Lod>
    </Region>
    <GroundOverlay>
      <drawOrder>38</drawOrder>
      <Icon>
        <href>197141.png</href>
      </Icon>
      <LatLonBox>
        <north>134.63401794433594</north>
        <south>134.63333129882812</south>
        <east>-76.08993530273438</east>
        <west>-76.09062194824219</west>
      </LatLonBox>
    </GroundOverlay>
      </Document>
</kml>
    