<?xml version="1.0" encoding="utf-8"?>
<kml xmlns="http://www.opengis.net/kml/2.2">
  <Document>
    <name>18/75688/98569.kml</name>
    <description></description>
    <Style>
      <ListStyle id="hideChildren">
        <listItemType>checkHideChildren</listItemType>
      </ListStyle>
    </Style>
    <Region>
      <LatLonAltBox>
        <north>45.36529541015625</north>
        <south>45.36392211914062</south>
        <east>-76.05697631835938</east>
        <west>-76.05834960937500</west>
      </LatLonAltBox>
      <Lod>
        <minLodPixels>128</minLodPixels>
        <maxLodPixels>2048</maxLodPixels>
      </Lod>
    </Region>
    <GroundOverlay>
      <drawOrder>36</drawOrder>
      <Icon>
        <href>98569.png</href>
      </Icon>
      <LatLonBox>
        <north>45.36529541015625</north>
        <south>45.36392211914062</south>
        <east>-76.05697631835938</east>
        <west>-76.05834960937500</west>
      </LatLonBox>
    </GroundOverlay>

    <NetworkLink>
      <name>19/151376/197139.png</name>
      <Region>
        <LatLonAltBox>
          <north>45.36529541015625</north>
          <south>45.36460876464844</south>
          <east>-76.05766296386719</east>
          <west>-76.05834960937500</west>
        </LatLonAltBox>
        <Lod>
          <minLodPixels>128</minLodPixels>
          <maxLodPixels>-1</maxLodPixels>
        </Lod>
      </Region>
      <Link>
        <href>https://swmoran.github.io/ch-tiles/tiles/DRAPE_Tiles/19/151376/197139.kml</href>
        <viewRefreshMode>onRegion</viewRefreshMode>
        <viewFormat/>
      </Link>
    </NetworkLink>
        
    <NetworkLink>
      <name>19/151377/197139.png</name>
      <Region>
        <LatLonAltBox>
          <north>45.36529541015625</north>
          <south>45.36460876464844</south>
          <east>-76.05697631835938</east>
          <west>-76.05766296386719</west>
        </LatLonAltBox>
        <Lod>
          <minLodPixels>128</minLodPixels>
          <maxLodPixels>-1</maxLodPixels>
        </Lod>
      </Region>
      <Link>
        <href>https://swmoran.github.io/ch-tiles/tiles/DRAPE_Tiles/19/151377/197139.kml</href>
        <viewRefreshMode>onRegion</viewRefreshMode>
        <viewFormat/>
      </Link>
    </NetworkLink>
        
    <NetworkLink>
      <name>19/151376/197138.png</name>
      <Region>
        <LatLonAltBox>
          <north>45.36460876464844</north>
          <south>45.36392211914062</south>
          <east>-76.05766296386719</east>
          <west>-76.05834960937500</west>
        </LatLonAltBox>
        <Lod>
          <minLodPixels>128</minLodPixels>
          <maxLodPixels>-1</maxLodPixels>
        </Lod>
      </Region>
      <Link>
        <href>https://swmoran.github.io/ch-tiles/tiles/DRAPE_Tiles/19/151376/197138.kml</href>
        <viewRefreshMode>onRegion</viewRefreshMode>
        <viewFormat/>
      </Link>
    </NetworkLink>
        
    <NetworkLink>
      <name>19/151377/197138.png</name>
      <Region>
        <LatLonAltBox>
          <north>45.36460876464844</north>
          <south>45.36392211914062</south>
          <east>-76.05697631835938</east>
          <west>-76.05766296386719</west>
        </LatLonAltBox>
        <Lod>
          <minLodPixels>128</minLodPixels>
          <maxLodPixels>-1</maxLodPixels>
        </Lod>
      </Region>
      <Link>
        <href>https://swmoran.github.io/ch-tiles/tiles/DRAPE_Tiles/19/151377/197138.kml</href>
        <viewRefreshMode>onRegion</viewRefreshMode>
        <viewFormat/>
      </Link>
    </NetworkLink>
              </Document>
</kml>
    