<?xml version="1.0" encoding="utf-8"?>
<kml xmlns="http://www.opengis.net/kml/2.2">
  <Document>
    <name>19/151412/197166.kml</name>
    <description></description>
    <Style>
      <ListStyle id="hideChildren">
        <listItemType>checkHideChildren</listItemType>
      </ListStyle>
    </Style>
    <Region>
      <LatLonAltBox>
        <north>134.61685180664062</north>
        <south>134.61616516113281</south>
        <east>-76.03294372558594</east>
        <west>-76.03363037109375</west>
      </LatLonAltBox>
      <Lod>
        <minLodPixels>128</minLodPixels>
        <maxLodPixels>-1</maxLodPixels>
      </Lod>
    </Region>
    <GroundOverlay>
      <drawOrder>38</drawOrder>
      <Icon>
        <href>197166.png</href>
      </Icon>
      <LatLonBox>
        <north>134.61685180664062</north>
        <south>134.61616516113281</south>
        <east>-76.03294372558594</east>
        <west>-76.03363037109375</west>
      </LatLonBox>
    </GroundOverlay>
      </Document>
</kml>
    