<?xml version="1.0" encoding="utf-8"?>
<kml xmlns="http://www.opengis.net/kml/2.2">
  <Document>
    <name>18/75704/98575.kml</name>
    <description></description>
    <Style>
      <ListStyle id="hideChildren">
        <listItemType>checkHideChildren</listItemType>
      </ListStyle>
    </Style>
    <Region>
      <LatLonAltBox>
        <north>45.37353515625000</north>
        <south>45.37216186523438</south>
        <east>-76.03500366210938</east>
        <west>-76.03637695312500</west>
      </LatLonAltBox>
      <Lod>
        <minLodPixels>128</minLodPixels>
        <maxLodPixels>2048</maxLodPixels>
      </Lod>
    </Region>
    <GroundOverlay>
      <drawOrder>36</drawOrder>
      <Icon>
        <href>98575.png</href>
      </Icon>
      <LatLonBox>
        <north>45.37353515625000</north>
        <south>45.37216186523438</south>
        <east>-76.03500366210938</east>
        <west>-76.03637695312500</west>
      </LatLonBox>
    </GroundOverlay>

    <NetworkLink>
      <name>19/151408/197151.png</name>
      <Region>
        <LatLonAltBox>
          <north>45.37353515625000</north>
          <south>45.37284851074219</south>
          <east>-76.03569030761719</east>
          <west>-76.03637695312500</west>
        </LatLonAltBox>
        <Lod>
          <minLodPixels>128</minLodPixels>
          <maxLodPixels>-1</maxLodPixels>
        </Lod>
      </Region>
      <Link>
        <href>../../19/151408/197151.kml</href>
        <viewRefreshMode>onRegion</viewRefreshMode>
        <viewFormat/>
      </Link>
    </NetworkLink>
        
    <NetworkLink>
      <name>19/151409/197151.png</name>
      <Region>
        <LatLonAltBox>
          <north>45.37353515625000</north>
          <south>45.37284851074219</south>
          <east>-76.03500366210938</east>
          <west>-76.03569030761719</west>
        </LatLonAltBox>
        <Lod>
          <minLodPixels>128</minLodPixels>
          <maxLodPixels>-1</maxLodPixels>
        </Lod>
      </Region>
      <Link>
        <href>../../19/151409/197151.kml</href>
        <viewRefreshMode>onRegion</viewRefreshMode>
        <viewFormat/>
      </Link>
    </NetworkLink>
        
    <NetworkLink>
      <name>19/151408/197150.png</name>
      <Region>
        <LatLonAltBox>
          <north>45.37284851074219</north>
          <south>45.37216186523438</south>
          <east>-76.03569030761719</east>
          <west>-76.03637695312500</west>
        </LatLonAltBox>
        <Lod>
          <minLodPixels>128</minLodPixels>
          <maxLodPixels>-1</maxLodPixels>
        </Lod>
      </Region>
      <Link>
        <href>../../19/151408/197150.kml</href>
        <viewRefreshMode>onRegion</viewRefreshMode>
        <viewFormat/>
      </Link>
    </NetworkLink>
        
    <NetworkLink>
      <name>19/151409/197150.png</name>
      <Region>
        <LatLonAltBox>
          <north>45.37284851074219</north>
          <south>45.37216186523438</south>
          <east>-76.03500366210938</east>
          <west>-76.03569030761719</west>
        </LatLonAltBox>
        <Lod>
          <minLodPixels>128</minLodPixels>
          <maxLodPixels>-1</maxLodPixels>
        </Lod>
      </Region>
      <Link>
        <href>../../19/151409/197150.kml</href>
        <viewRefreshMode>onRegion</viewRefreshMode>
        <viewFormat/>
      </Link>
    </NetworkLink>
              </Document>
</kml>
    