<?xml version="1.0" encoding="utf-8"?>
<kml xmlns="http://www.opengis.net/kml/2.2">
  <Document>
    <name>19/151401/197162.kml</name>
    <description></description>
    <Style>
      <ListStyle id="hideChildren">
        <listItemType>checkHideChildren</listItemType>
      </ListStyle>
    </Style>
    <Region>
      <LatLonAltBox>
        <north>134.61959838867188</north>
        <south>134.61891174316406</south>
        <east>-76.04049682617188</east>
        <west>-76.04118347167969</west>
      </LatLonAltBox>
      <Lod>
        <minLodPixels>128</minLodPixels>
        <maxLodPixels>-1</maxLodPixels>
      </Lod>
    </Region>
    <GroundOverlay>
      <drawOrder>38</drawOrder>
      <Icon>
        <href>197162.png</href>
      </Icon>
      <LatLonBox>
        <north>134.61959838867188</north>
        <south>134.61891174316406</south>
        <east>-76.04049682617188</east>
        <west>-76.04118347167969</west>
      </LatLonBox>
    </GroundOverlay>
      </Document>
</kml>
    