<?xml version="1.0" encoding="utf-8"?>
<kml xmlns="http://www.opengis.net/kml/2.2">
  <Document>
    <name>17/37834/84105.kml</name>
    <description></description>
    <Style>
      <ListStyle id="hideChildren">
        <listItemType>checkHideChildren</listItemType>
      </ListStyle>
    </Style>
    <Region>
      <LatLonAltBox>
        <north>45.35600542155823</north>
        <south>45.35407536661815</south>
        <east>-76.08306884765625</east>
        <west>-76.08581542968750</west>
      </LatLonAltBox>
      <Lod>
        <minLodPixels>128</minLodPixels>
        <maxLodPixels>2048</maxLodPixels>
      </Lod>
    </Region>
    <GroundOverlay>
      <drawOrder>34</drawOrder>
      <Icon>
        <href>84105.png</href>
      </Icon>
      <LatLonBox>
        <north>45.35600542155823</north>
        <south>45.35407536661815</south>
        <east>-76.08306884765625</east>
        <west>-76.08581542968750</west>
      </LatLonBox>
    </GroundOverlay>

    <NetworkLink>
      <name>18/75668/168211.png</name>
      <Region>
        <LatLonAltBox>
          <north>45.35600542155823</north>
          <south>45.35504040231646</south>
          <east>-76.08444213867188</east>
          <west>-76.08581542968750</west>
        </LatLonAltBox>
        <Lod>
          <minLodPixels>128</minLodPixels>
          <maxLodPixels>-1</maxLodPixels>
        </Lod>
      </Region>
      <Link>
        <href>../../18/75668/168211.kml</href>
        <viewRefreshMode>onRegion</viewRefreshMode>
        <viewFormat/>
      </Link>
    </NetworkLink>
        
    <NetworkLink>
      <name>18/75669/168211.png</name>
      <Region>
        <LatLonAltBox>
          <north>45.35600542155823</north>
          <south>45.35504040231646</south>
          <east>-76.08306884765625</east>
          <west>-76.08444213867188</west>
        </LatLonAltBox>
        <Lod>
          <minLodPixels>128</minLodPixels>
          <maxLodPixels>-1</maxLodPixels>
        </Lod>
      </Region>
      <Link>
        <href>../../18/75669/168211.kml</href>
        <viewRefreshMode>onRegion</viewRefreshMode>
        <viewFormat/>
      </Link>
    </NetworkLink>
              </Document>
</kml>
    