<?xml version="1.0" encoding="utf-8"?>
<kml xmlns="http://www.opengis.net/kml/2.2">
  <Document>
    <name>18/75680/163573.kml</name>
    <description></description>
    <Style>
      <ListStyle id="hideChildren">
        <listItemType>checkHideChildren</listItemType>
      </ListStyle>
    </Style>
    <Region>
      <LatLonAltBox>
        <north>45.36666870117188</north>
        <south>45.36529541015625</south>
        <east>-76.06796264648438</east>
        <west>-76.06933593750000</west>
      </LatLonAltBox>
      <Lod>
        <minLodPixels>128</minLodPixels>
        <maxLodPixels>2048</maxLodPixels>
      </Lod>
    </Region>
    <GroundOverlay>
      <drawOrder>36</drawOrder>
      <Icon>
        <href>163573.png</href>
      </Icon>
      <LatLonBox>
        <north>45.36666870117188</north>
        <south>45.36529541015625</south>
        <east>-76.06796264648438</east>
        <west>-76.06933593750000</west>
      </LatLonBox>
    </GroundOverlay>

    <NetworkLink>
      <name>19/151360/327146.png</name>
      <Region>
        <LatLonAltBox>
          <north>45.36666870117188</north>
          <south>45.36598205566406</south>
          <east>-76.06864929199219</east>
          <west>-76.06933593750000</west>
        </LatLonAltBox>
        <Lod>
          <minLodPixels>128</minLodPixels>
          <maxLodPixels>-1</maxLodPixels>
        </Lod>
      </Region>
      <Link>
        <href>../../19/151360/327146.kml</href>
        <viewRefreshMode>onRegion</viewRefreshMode>
        <viewFormat/>
      </Link>
    </NetworkLink>
        
    <NetworkLink>
      <name>19/151361/327146.png</name>
      <Region>
        <LatLonAltBox>
          <north>45.36666870117188</north>
          <south>45.36598205566406</south>
          <east>-76.06796264648438</east>
          <west>-76.06864929199219</west>
        </LatLonAltBox>
        <Lod>
          <minLodPixels>128</minLodPixels>
          <maxLodPixels>-1</maxLodPixels>
        </Lod>
      </Region>
      <Link>
        <href>../../19/151361/327146.kml</href>
        <viewRefreshMode>onRegion</viewRefreshMode>
        <viewFormat/>
      </Link>
    </NetworkLink>
        
    <NetworkLink>
      <name>19/151360/327147.png</name>
      <Region>
        <LatLonAltBox>
          <north>45.36598205566406</north>
          <south>45.36529541015625</south>
          <east>-76.06864929199219</east>
          <west>-76.06933593750000</west>
        </LatLonAltBox>
        <Lod>
          <minLodPixels>128</minLodPixels>
          <maxLodPixels>-1</maxLodPixels>
        </Lod>
      </Region>
      <Link>
        <href>../../19/151360/327147.kml</href>
        <viewRefreshMode>onRegion</viewRefreshMode>
        <viewFormat/>
      </Link>
    </NetworkLink>
        
    <NetworkLink>
      <name>19/151361/327147.png</name>
      <Region>
        <LatLonAltBox>
          <north>45.36598205566406</north>
          <south>45.36529541015625</south>
          <east>-76.06796264648438</east>
          <west>-76.06864929199219</west>
        </LatLonAltBox>
        <Lod>
          <minLodPixels>128</minLodPixels>
          <maxLodPixels>-1</maxLodPixels>
        </Lod>
      </Region>
      <Link>
        <href>../../19/151361/327147.kml</href>
        <viewRefreshMode>onRegion</viewRefreshMode>
        <viewFormat/>
      </Link>
    </NetworkLink>
              </Document>
</kml>
    