<?xml version="1.0" encoding="utf-8"?>
<kml xmlns="http://www.opengis.net/kml/2.2">
  <Document>
    <name>17/37843/81771.kml</name>
    <description></description>
    <Style>
      <ListStyle id="hideChildren">
        <listItemType>checkHideChildren</listItemType>
      </ListStyle>
    </Style>
    <Region>
      <LatLonAltBox>
        <north>45.40924072265625</north>
        <south>45.40649414062500</south>
        <east>-76.05834960937500</east>
        <west>-76.06109619140625</west>
      </LatLonAltBox>
      <Lod>
        <minLodPixels>128</minLodPixels>
        <maxLodPixels>2048</maxLodPixels>
      </Lod>
    </Region>
    <GroundOverlay>
      <drawOrder>34</drawOrder>
      <Icon>
        <href>81771.png</href>
      </Icon>
      <LatLonBox>
        <north>45.40924072265625</north>
        <south>45.40649414062500</south>
        <east>-76.05834960937500</east>
        <west>-76.06109619140625</west>
      </LatLonBox>
    </GroundOverlay>

    <NetworkLink>
      <name>18/75686/163542.png</name>
      <Region>
        <LatLonAltBox>
          <north>45.40924072265625</north>
          <south>45.40786743164062</south>
          <east>-76.05972290039062</east>
          <west>-76.06109619140625</west>
        </LatLonAltBox>
        <Lod>
          <minLodPixels>128</minLodPixels>
          <maxLodPixels>-1</maxLodPixels>
        </Lod>
      </Region>
      <Link>
        <href>../../18/75686/163542.kml</href>
        <viewRefreshMode>onRegion</viewRefreshMode>
        <viewFormat/>
      </Link>
    </NetworkLink>
        
    <NetworkLink>
      <name>18/75687/163542.png</name>
      <Region>
        <LatLonAltBox>
          <north>45.40924072265625</north>
          <south>45.40786743164062</south>
          <east>-76.05834960937500</east>
          <west>-76.05972290039062</west>
        </LatLonAltBox>
        <Lod>
          <minLodPixels>128</minLodPixels>
          <maxLodPixels>-1</maxLodPixels>
        </Lod>
      </Region>
      <Link>
        <href>../../18/75687/163542.kml</href>
        <viewRefreshMode>onRegion</viewRefreshMode>
        <viewFormat/>
      </Link>
    </NetworkLink>
        
    <NetworkLink>
      <name>18/75686/163543.png</name>
      <Region>
        <LatLonAltBox>
          <north>45.40786743164062</north>
          <south>45.40649414062500</south>
          <east>-76.05972290039062</east>
          <west>-76.06109619140625</west>
        </LatLonAltBox>
        <Lod>
          <minLodPixels>128</minLodPixels>
          <maxLodPixels>-1</maxLodPixels>
        </Lod>
      </Region>
      <Link>
        <href>../../18/75686/163543.kml</href>
        <viewRefreshMode>onRegion</viewRefreshMode>
        <viewFormat/>
      </Link>
    </NetworkLink>
        
    <NetworkLink>
      <name>18/75687/163543.png</name>
      <Region>
        <LatLonAltBox>
          <north>45.40786743164062</north>
          <south>45.40649414062500</south>
          <east>-76.05834960937500</east>
          <west>-76.05972290039062</west>
        </LatLonAltBox>
        <Lod>
          <minLodPixels>128</minLodPixels>
          <maxLodPixels>-1</maxLodPixels>
        </Lod>
      </Region>
      <Link>
        <href>../../18/75687/163543.kml</href>
        <viewRefreshMode>onRegion</viewRefreshMode>
        <viewFormat/>
      </Link>
    </NetworkLink>
              </Document>
</kml>
    