<?xml version="1.0" encoding="utf-8"?>
<kml xmlns="http://www.opengis.net/kml/2.2">
  <Document>
    <name>18/75680/98589.kml</name>
    <description></description>
    <Style>
      <ListStyle id="hideChildren">
        <listItemType>checkHideChildren</listItemType>
      </ListStyle>
    </Style>
    <Region>
      <LatLonAltBox>
        <north>45.39276123046875</north>
        <south>45.39138793945312</south>
        <east>-76.06796264648438</east>
        <west>-76.06933593750000</west>
      </LatLonAltBox>
      <Lod>
        <minLodPixels>128</minLodPixels>
        <maxLodPixels>2048</maxLodPixels>
      </Lod>
    </Region>
    <GroundOverlay>
      <drawOrder>36</drawOrder>
      <Icon>
        <href>98589.png</href>
      </Icon>
      <LatLonBox>
        <north>45.39276123046875</north>
        <south>45.39138793945312</south>
        <east>-76.06796264648438</east>
        <west>-76.06933593750000</west>
      </LatLonBox>
    </GroundOverlay>

    <NetworkLink>
      <name>19/151360/197179.png</name>
      <Region>
        <LatLonAltBox>
          <north>45.39276123046875</north>
          <south>45.39207458496094</south>
          <east>-76.06864929199219</east>
          <west>-76.06933593750000</west>
        </LatLonAltBox>
        <Lod>
          <minLodPixels>128</minLodPixels>
          <maxLodPixels>-1</maxLodPixels>
        </Lod>
      </Region>
      <Link>
        <href>https://swmoran.github.io/ch-tiles/tiles/DRAPE_tiles/19/151360/197179.kml</href>
        <viewRefreshMode>onRegion</viewRefreshMode>
        <viewFormat/>
      </Link>
    </NetworkLink>
        
    <NetworkLink>
      <name>19/151361/197179.png</name>
      <Region>
        <LatLonAltBox>
          <north>45.39276123046875</north>
          <south>45.39207458496094</south>
          <east>-76.06796264648438</east>
          <west>-76.06864929199219</west>
        </LatLonAltBox>
        <Lod>
          <minLodPixels>128</minLodPixels>
          <maxLodPixels>-1</maxLodPixels>
        </Lod>
      </Region>
      <Link>
        <href>https://swmoran.github.io/ch-tiles/tiles/DRAPE_tiles/19/151361/197179.kml</href>
        <viewRefreshMode>onRegion</viewRefreshMode>
        <viewFormat/>
      </Link>
    </NetworkLink>
        
    <NetworkLink>
      <name>19/151360/197178.png</name>
      <Region>
        <LatLonAltBox>
          <north>45.39207458496094</north>
          <south>45.39138793945312</south>
          <east>-76.06864929199219</east>
          <west>-76.06933593750000</west>
        </LatLonAltBox>
        <Lod>
          <minLodPixels>128</minLodPixels>
          <maxLodPixels>-1</maxLodPixels>
        </Lod>
      </Region>
      <Link>
        <href>https://swmoran.github.io/ch-tiles/tiles/DRAPE_tiles/19/151360/197178.kml</href>
        <viewRefreshMode>onRegion</viewRefreshMode>
        <viewFormat/>
      </Link>
    </NetworkLink>
        
    <NetworkLink>
      <name>19/151361/197178.png</name>
      <Region>
        <LatLonAltBox>
          <north>45.39207458496094</north>
          <south>45.39138793945312</south>
          <east>-76.06796264648438</east>
          <west>-76.06864929199219</west>
        </LatLonAltBox>
        <Lod>
          <minLodPixels>128</minLodPixels>
          <maxLodPixels>-1</maxLodPixels>
        </Lod>
      </Region>
      <Link>
        <href>https://swmoran.github.io/ch-tiles/tiles/DRAPE_tiles/19/151361/197178.kml</href>
        <viewRefreshMode>onRegion</viewRefreshMode>
        <viewFormat/>
      </Link>
    </NetworkLink>
              </Document>
</kml>
    