<?xml version="1.0" encoding="utf-8"?>
<kml xmlns="http://www.opengis.net/kml/2.2">
  <Document>
    <name>19/151311/336433.kml</name>
    <description></description>
    <Style>
      <ListStyle id="hideChildren">
        <listItemType>checkHideChildren</listItemType>
      </ListStyle>
    </Style>
    <Region>
      <LatLonAltBox>
        <north>45.36083027091878</north>
        <south>45.36034780449632</south>
        <east>-76.10229492187500</east>
        <west>-76.10298156738281</west>
      </LatLonAltBox>
      <Lod>
        <minLodPixels>128</minLodPixels>
        <maxLodPixels>-1</maxLodPixels>
      </Lod>
    </Region>
    <GroundOverlay>
      <drawOrder>38</drawOrder>
      <Icon>
        <href>336433.png</href>
      </Icon>
      <LatLonBox>
        <north>45.36083027091878</north>
        <south>45.36034780449632</south>
        <east>-76.10229492187500</east>
        <west>-76.10298156738281</west>
      </LatLonBox>
    </GroundOverlay>
      </Document>
</kml>
    