<?xml version="1.0" encoding="utf-8"?>
<kml xmlns="http://www.opengis.net/kml/2.2">
  <Document>
    <name>17/37830/84118.kml</name>
    <description></description>
    <Style>
      <ListStyle id="hideChildren">
        <listItemType>checkHideChildren</listItemType>
      </ListStyle>
    </Style>
    <Region>
      <LatLonAltBox>
        <north>45.38109014561265</north>
        <south>45.37916094640917</south>
        <east>-76.09405517578124</east>
        <west>-76.09680175781251</west>
      </LatLonAltBox>
      <Lod>
        <minLodPixels>128</minLodPixels>
        <maxLodPixels>2048</maxLodPixels>
      </Lod>
    </Region>
    <GroundOverlay>
      <drawOrder>34</drawOrder>
      <Icon>
        <href>84118.png</href>
      </Icon>
      <LatLonBox>
        <north>45.38109014561265</north>
        <south>45.37916094640917</south>
        <east>-76.09405517578124</east>
        <west>-76.09680175781251</west>
      </LatLonBox>
    </GroundOverlay>

    <NetworkLink>
      <name>18/75660/168237.png</name>
      <Region>
        <LatLonAltBox>
          <north>45.38109014561265</north>
          <south>45.38012555423909</south>
          <east>-76.09542846679686</east>
          <west>-76.09680175781251</west>
        </LatLonAltBox>
        <Lod>
          <minLodPixels>128</minLodPixels>
          <maxLodPixels>-1</maxLodPixels>
        </Lod>
      </Region>
      <Link>
        <href>../../18/75660/168237.kml</href>
        <viewRefreshMode>onRegion</viewRefreshMode>
        <viewFormat/>
      </Link>
    </NetworkLink>
        
    <NetworkLink>
      <name>18/75661/168237.png</name>
      <Region>
        <LatLonAltBox>
          <north>45.38109014561265</north>
          <south>45.38012555423909</south>
          <east>-76.09405517578124</east>
          <west>-76.09542846679686</west>
        </LatLonAltBox>
        <Lod>
          <minLodPixels>128</minLodPixels>
          <maxLodPixels>-1</maxLodPixels>
        </Lod>
      </Region>
      <Link>
        <href>../../18/75661/168237.kml</href>
        <viewRefreshMode>onRegion</viewRefreshMode>
        <viewFormat/>
      </Link>
    </NetworkLink>
        
    <NetworkLink>
      <name>18/75660/168236.png</name>
      <Region>
        <LatLonAltBox>
          <north>45.38012555423909</north>
          <south>45.37916094640917</south>
          <east>-76.09542846679686</east>
          <west>-76.09680175781251</west>
        </LatLonAltBox>
        <Lod>
          <minLodPixels>128</minLodPixels>
          <maxLodPixels>-1</maxLodPixels>
        </Lod>
      </Region>
      <Link>
        <href>../../18/75660/168236.kml</href>
        <viewRefreshMode>onRegion</viewRefreshMode>
        <viewFormat/>
      </Link>
    </NetworkLink>
        
    <NetworkLink>
      <name>18/75661/168236.png</name>
      <Region>
        <LatLonAltBox>
          <north>45.38012555423909</north>
          <south>45.37916094640917</south>
          <east>-76.09405517578124</east>
          <west>-76.09542846679686</west>
        </LatLonAltBox>
        <Lod>
          <minLodPixels>128</minLodPixels>
          <maxLodPixels>-1</maxLodPixels>
        </Lod>
      </Region>
      <Link>
        <href>../../18/75661/168236.kml</href>
        <viewRefreshMode>onRegion</viewRefreshMode>
        <viewFormat/>
      </Link>
    </NetworkLink>
              </Document>
</kml>
    