<?xml version="1.0" encoding="utf-8"?>
<kml xmlns="http://www.opengis.net/kml/2.2">
  <Document>
    <name>17/37853/49288.kml</name>
    <description></description>
    <Style>
      <ListStyle id="hideChildren">
        <listItemType>checkHideChildren</listItemType>
      </ListStyle>
    </Style>
    <Region>
      <LatLonAltBox>
        <north>45.37628173828125</north>
        <south>45.37353515625000</south>
        <east>-76.03088378906250</east>
        <west>-76.03363037109375</west>
      </LatLonAltBox>
      <Lod>
        <minLodPixels>128</minLodPixels>
        <maxLodPixels>2048</maxLodPixels>
      </Lod>
    </Region>
    <GroundOverlay>
      <drawOrder>34</drawOrder>
      <Icon>
        <href>49288.png</href>
      </Icon>
      <LatLonBox>
        <north>45.37628173828125</north>
        <south>45.37353515625000</south>
        <east>-76.03088378906250</east>
        <west>-76.03363037109375</west>
      </LatLonBox>
    </GroundOverlay>

    <NetworkLink>
      <name>18/75706/98577.png</name>
      <Region>
        <LatLonAltBox>
          <north>45.37628173828125</north>
          <south>45.37490844726562</south>
          <east>-76.03225708007812</east>
          <west>-76.03363037109375</west>
        </LatLonAltBox>
        <Lod>
          <minLodPixels>128</minLodPixels>
          <maxLodPixels>-1</maxLodPixels>
        </Lod>
      </Region>
      <Link>
        <href>https://swmoran.github.io/ch-tiles/tiles/DRAPE_Tiles/18/75706/98577.kml</href>
        <viewRefreshMode>onRegion</viewRefreshMode>
        <viewFormat/>
      </Link>
    </NetworkLink>
        
    <NetworkLink>
      <name>18/75707/98577.png</name>
      <Region>
        <LatLonAltBox>
          <north>45.37628173828125</north>
          <south>45.37490844726562</south>
          <east>-76.03088378906250</east>
          <west>-76.03225708007812</west>
        </LatLonAltBox>
        <Lod>
          <minLodPixels>128</minLodPixels>
          <maxLodPixels>-1</maxLodPixels>
        </Lod>
      </Region>
      <Link>
        <href>https://swmoran.github.io/ch-tiles/tiles/DRAPE_Tiles/18/75707/98577.kml</href>
        <viewRefreshMode>onRegion</viewRefreshMode>
        <viewFormat/>
      </Link>
    </NetworkLink>
        
    <NetworkLink>
      <name>18/75706/98576.png</name>
      <Region>
        <LatLonAltBox>
          <north>45.37490844726562</north>
          <south>45.37353515625000</south>
          <east>-76.03225708007812</east>
          <west>-76.03363037109375</west>
        </LatLonAltBox>
        <Lod>
          <minLodPixels>128</minLodPixels>
          <maxLodPixels>-1</maxLodPixels>
        </Lod>
      </Region>
      <Link>
        <href>https://swmoran.github.io/ch-tiles/tiles/DRAPE_Tiles/18/75706/98576.kml</href>
        <viewRefreshMode>onRegion</viewRefreshMode>
        <viewFormat/>
      </Link>
    </NetworkLink>
        
    <NetworkLink>
      <name>18/75707/98576.png</name>
      <Region>
        <LatLonAltBox>
          <north>45.37490844726562</north>
          <south>45.37353515625000</south>
          <east>-76.03088378906250</east>
          <west>-76.03225708007812</west>
        </LatLonAltBox>
        <Lod>
          <minLodPixels>128</minLodPixels>
          <maxLodPixels>-1</maxLodPixels>
        </Lod>
      </Region>
      <Link>
        <href>https://swmoran.github.io/ch-tiles/tiles/DRAPE_Tiles/18/75707/98576.kml</href>
        <viewRefreshMode>onRegion</viewRefreshMode>
        <viewFormat/>
      </Link>
    </NetworkLink>
              </Document>
</kml>
    