<?xml version="1.0" encoding="utf-8"?>
<kml xmlns="http://www.opengis.net/kml/2.2">
  <Document>
    <name>18/75691/163551.kml</name>
    <description></description>
    <Style>
      <ListStyle id="hideChildren">
        <listItemType>checkHideChildren</listItemType>
      </ListStyle>
    </Style>
    <Region>
      <LatLonAltBox>
        <north>45.39688110351562</north>
        <south>45.39550781250000</south>
        <east>-76.05285644531250</east>
        <west>-76.05422973632812</west>
      </LatLonAltBox>
      <Lod>
        <minLodPixels>128</minLodPixels>
        <maxLodPixels>2048</maxLodPixels>
      </Lod>
    </Region>
    <GroundOverlay>
      <drawOrder>36</drawOrder>
      <Icon>
        <href>163551.png</href>
      </Icon>
      <LatLonBox>
        <north>45.39688110351562</north>
        <south>45.39550781250000</south>
        <east>-76.05285644531250</east>
        <west>-76.05422973632812</west>
      </LatLonBox>
    </GroundOverlay>

    <NetworkLink>
      <name>19/151382/327102.png</name>
      <Region>
        <LatLonAltBox>
          <north>45.39688110351562</north>
          <south>45.39619445800781</south>
          <east>-76.05354309082031</east>
          <west>-76.05422973632812</west>
        </LatLonAltBox>
        <Lod>
          <minLodPixels>128</minLodPixels>
          <maxLodPixels>-1</maxLodPixels>
        </Lod>
      </Region>
      <Link>
        <href>../../19/151382/327102.kml</href>
        <viewRefreshMode>onRegion</viewRefreshMode>
        <viewFormat/>
      </Link>
    </NetworkLink>
        
    <NetworkLink>
      <name>19/151383/327102.png</name>
      <Region>
        <LatLonAltBox>
          <north>45.39688110351562</north>
          <south>45.39619445800781</south>
          <east>-76.05285644531250</east>
          <west>-76.05354309082031</west>
        </LatLonAltBox>
        <Lod>
          <minLodPixels>128</minLodPixels>
          <maxLodPixels>-1</maxLodPixels>
        </Lod>
      </Region>
      <Link>
        <href>../../19/151383/327102.kml</href>
        <viewRefreshMode>onRegion</viewRefreshMode>
        <viewFormat/>
      </Link>
    </NetworkLink>
        
    <NetworkLink>
      <name>19/151382/327103.png</name>
      <Region>
        <LatLonAltBox>
          <north>45.39619445800781</north>
          <south>45.39550781250000</south>
          <east>-76.05354309082031</east>
          <west>-76.05422973632812</west>
        </LatLonAltBox>
        <Lod>
          <minLodPixels>128</minLodPixels>
          <maxLodPixels>-1</maxLodPixels>
        </Lod>
      </Region>
      <Link>
        <href>../../19/151382/327103.kml</href>
        <viewRefreshMode>onRegion</viewRefreshMode>
        <viewFormat/>
      </Link>
    </NetworkLink>
        
    <NetworkLink>
      <name>19/151383/327103.png</name>
      <Region>
        <LatLonAltBox>
          <north>45.39619445800781</north>
          <south>45.39550781250000</south>
          <east>-76.05285644531250</east>
          <west>-76.05354309082031</west>
        </LatLonAltBox>
        <Lod>
          <minLodPixels>128</minLodPixels>
          <maxLodPixels>-1</maxLodPixels>
        </Lod>
      </Region>
      <Link>
        <href>../../19/151383/327103.kml</href>
        <viewRefreshMode>onRegion</viewRefreshMode>
        <viewFormat/>
      </Link>
    </NetworkLink>
              </Document>
</kml>
    