<?xml version="1.0" encoding="utf-8"?>
<kml xmlns="http://www.opengis.net/kml/2.2">
  <Document>
    <name>16/18915/42062.kml</name>
    <description></description>
    <Style>
      <ListStyle id="hideChildren">
        <listItemType>checkHideChildren</listItemType>
      </ListStyle>
    </Style>
    <Region>
      <LatLonAltBox>
        <north>45.39459269692662</north>
        <south>45.39073515424887</south>
        <east>-76.09130859375000</east>
        <west>-76.09680175781251</west>
      </LatLonAltBox>
      <Lod>
        <minLodPixels>128</minLodPixels>
        <maxLodPixels>2048</maxLodPixels>
      </Lod>
    </Region>
    <GroundOverlay>
      <drawOrder>32</drawOrder>
      <Icon>
        <href>42062.png</href>
      </Icon>
      <LatLonBox>
        <north>45.39459269692662</north>
        <south>45.39073515424887</south>
        <east>-76.09130859375000</east>
        <west>-76.09680175781251</west>
      </LatLonBox>
    </GroundOverlay>

    <NetworkLink>
      <name>17/37830/84125.png</name>
      <Region>
        <LatLonAltBox>
          <north>45.39459269692662</north>
          <south>45.39266395850033</south>
          <east>-76.09405517578124</east>
          <west>-76.09680175781251</west>
        </LatLonAltBox>
        <Lod>
          <minLodPixels>128</minLodPixels>
          <maxLodPixels>-1</maxLodPixels>
        </Lod>
      </Region>
      <Link>
        <href>../../17/37830/84125.kml</href>
        <viewRefreshMode>onRegion</viewRefreshMode>
        <viewFormat/>
      </Link>
    </NetworkLink>
        
    <NetworkLink>
      <name>17/37831/84125.png</name>
      <Region>
        <LatLonAltBox>
          <north>45.39459269692662</north>
          <south>45.39266395850033</south>
          <east>-76.09130859375000</east>
          <west>-76.09405517578124</west>
        </LatLonAltBox>
        <Lod>
          <minLodPixels>128</minLodPixels>
          <maxLodPixels>-1</maxLodPixels>
        </Lod>
      </Region>
      <Link>
        <href>../../17/37831/84125.kml</href>
        <viewRefreshMode>onRegion</viewRefreshMode>
        <viewFormat/>
      </Link>
    </NetworkLink>
        
    <NetworkLink>
      <name>17/37830/84124.png</name>
      <Region>
        <LatLonAltBox>
          <north>45.39266395850033</north>
          <south>45.39073515424887</south>
          <east>-76.09405517578124</east>
          <west>-76.09680175781251</west>
        </LatLonAltBox>
        <Lod>
          <minLodPixels>128</minLodPixels>
          <maxLodPixels>-1</maxLodPixels>
        </Lod>
      </Region>
      <Link>
        <href>../../17/37830/84124.kml</href>
        <viewRefreshMode>onRegion</viewRefreshMode>
        <viewFormat/>
      </Link>
    </NetworkLink>
        
    <NetworkLink>
      <name>17/37831/84124.png</name>
      <Region>
        <LatLonAltBox>
          <north>45.39266395850033</north>
          <south>45.39073515424887</south>
          <east>-76.09130859375000</east>
          <west>-76.09405517578124</west>
        </LatLonAltBox>
        <Lod>
          <minLodPixels>128</minLodPixels>
          <maxLodPixels>-1</maxLodPixels>
        </Lod>
      </Region>
      <Link>
        <href>../../17/37831/84124.kml</href>
        <viewRefreshMode>onRegion</viewRefreshMode>
        <viewFormat/>
      </Link>
    </NetworkLink>
              </Document>
</kml>
    