<?xml version="1.0" encoding="utf-8"?>
<kml xmlns="http://www.opengis.net/kml/2.2">
  <Document>
    <name>18/75677/168261.kml</name>
    <description></description>
    <Style>
      <ListStyle id="hideChildren">
        <listItemType>checkHideChildren</listItemType>
      </ListStyle>
    </Style>
    <Region>
      <LatLonAltBox>
        <north>45.40423540168334</north>
        <south>45.40327120526064</south>
        <east>-76.07208251953124</east>
        <west>-76.07345581054686</west>
      </LatLonAltBox>
      <Lod>
        <minLodPixels>128</minLodPixels>
        <maxLodPixels>2048</maxLodPixels>
      </Lod>
    </Region>
    <GroundOverlay>
      <drawOrder>36</drawOrder>
      <Icon>
        <href>168261.png</href>
      </Icon>
      <LatLonBox>
        <north>45.40423540168334</north>
        <south>45.40327120526064</south>
        <east>-76.07208251953124</east>
        <west>-76.07345581054686</west>
      </LatLonBox>
    </GroundOverlay>

    <NetworkLink>
      <name>19/151354/336523.png</name>
      <Region>
        <LatLonAltBox>
          <north>45.40423540168334</north>
          <south>45.40375330552902</south>
          <east>-76.07276916503905</east>
          <west>-76.07345581054686</west>
        </LatLonAltBox>
        <Lod>
          <minLodPixels>128</minLodPixels>
          <maxLodPixels>-1</maxLodPixels>
        </Lod>
      </Region>
      <Link>
        <href>../../19/151354/336523.kml</href>
        <viewRefreshMode>onRegion</viewRefreshMode>
        <viewFormat/>
      </Link>
    </NetworkLink>
        
    <NetworkLink>
      <name>19/151355/336523.png</name>
      <Region>
        <LatLonAltBox>
          <north>45.40423540168334</north>
          <south>45.40375330552902</south>
          <east>-76.07208251953124</east>
          <west>-76.07276916503905</west>
        </LatLonAltBox>
        <Lod>
          <minLodPixels>128</minLodPixels>
          <maxLodPixels>-1</maxLodPixels>
        </Lod>
      </Region>
      <Link>
        <href>../../19/151355/336523.kml</href>
        <viewRefreshMode>onRegion</viewRefreshMode>
        <viewFormat/>
      </Link>
    </NetworkLink>
        
    <NetworkLink>
      <name>19/151354/336522.png</name>
      <Region>
        <LatLonAltBox>
          <north>45.40375330552902</north>
          <south>45.40327120526064</south>
          <east>-76.07276916503905</east>
          <west>-76.07345581054686</west>
        </LatLonAltBox>
        <Lod>
          <minLodPixels>128</minLodPixels>
          <maxLodPixels>-1</maxLodPixels>
        </Lod>
      </Region>
      <Link>
        <href>../../19/151354/336522.kml</href>
        <viewRefreshMode>onRegion</viewRefreshMode>
        <viewFormat/>
      </Link>
    </NetworkLink>
        
    <NetworkLink>
      <name>19/151355/336522.png</name>
      <Region>
        <LatLonAltBox>
          <north>45.40375330552902</north>
          <south>45.40327120526064</south>
          <east>-76.07208251953124</east>
          <west>-76.07276916503905</west>
        </LatLonAltBox>
        <Lod>
          <minLodPixels>128</minLodPixels>
          <maxLodPixels>-1</maxLodPixels>
        </Lod>
      </Region>
      <Link>
        <href>../../19/151355/336522.kml</href>
        <viewRefreshMode>onRegion</viewRefreshMode>
        <viewFormat/>
      </Link>
    </NetworkLink>
              </Document>
</kml>
    