<?xml version="1.0" encoding="utf-8"?>
<kml xmlns="http://www.opengis.net/kml/2.2">
  <Document>
    <name>15/9462/21027.kml</name>
    <description></description>
    <Style>
      <ListStyle id="hideChildren">
        <listItemType>checkHideChildren</listItemType>
      </ListStyle>
    </Style>
    <Region>
      <LatLonAltBox>
        <north>45.36758436884980</north>
        <south>45.35986533395975</south>
        <east>-76.03637695312501</east>
        <west>-76.04736328125000</west>
      </LatLonAltBox>
      <Lod>
        <minLodPixels>128</minLodPixels>
        <maxLodPixels>2048</maxLodPixels>
      </Lod>
    </Region>
    <GroundOverlay>
      <drawOrder>30</drawOrder>
      <Icon>
        <href>21027.png</href>
      </Icon>
      <LatLonBox>
        <north>45.36758436884980</north>
        <south>45.35986533395975</south>
        <east>-76.03637695312501</east>
        <west>-76.04736328125000</west>
      </LatLonBox>
    </GroundOverlay>

    <NetworkLink>
      <name>16/18924/42055.png</name>
      <Region>
        <LatLonAltBox>
          <north>45.36758436884980</north>
          <south>45.36372498305681</south>
          <east>-76.04187011718750</east>
          <west>-76.04736328125000</west>
        </LatLonAltBox>
        <Lod>
          <minLodPixels>128</minLodPixels>
          <maxLodPixels>-1</maxLodPixels>
        </Lod>
      </Region>
      <Link>
        <href>../../16/18924/42055.kml</href>
        <viewRefreshMode>onRegion</viewRefreshMode>
        <viewFormat/>
      </Link>
    </NetworkLink>
        
    <NetworkLink>
      <name>16/18925/42055.png</name>
      <Region>
        <LatLonAltBox>
          <north>45.36758436884980</north>
          <south>45.36372498305681</south>
          <east>-76.03637695312501</east>
          <west>-76.04187011718750</west>
        </LatLonAltBox>
        <Lod>
          <minLodPixels>128</minLodPixels>
          <maxLodPixels>-1</maxLodPixels>
        </Lod>
      </Region>
      <Link>
        <href>../../16/18925/42055.kml</href>
        <viewRefreshMode>onRegion</viewRefreshMode>
        <viewFormat/>
      </Link>
    </NetworkLink>
        
    <NetworkLink>
      <name>16/18924/42054.png</name>
      <Region>
        <LatLonAltBox>
          <north>45.36372498305681</north>
          <south>45.35986533395975</south>
          <east>-76.04187011718750</east>
          <west>-76.04736328125000</west>
        </LatLonAltBox>
        <Lod>
          <minLodPixels>128</minLodPixels>
          <maxLodPixels>-1</maxLodPixels>
        </Lod>
      </Region>
      <Link>
        <href>../../16/18924/42054.kml</href>
        <viewRefreshMode>onRegion</viewRefreshMode>
        <viewFormat/>
      </Link>
    </NetworkLink>
        
    <NetworkLink>
      <name>16/18925/42054.png</name>
      <Region>
        <LatLonAltBox>
          <north>45.36372498305681</north>
          <south>45.35986533395975</south>
          <east>-76.03637695312501</east>
          <west>-76.04187011718750</west>
        </LatLonAltBox>
        <Lod>
          <minLodPixels>128</minLodPixels>
          <maxLodPixels>-1</maxLodPixels>
        </Lod>
      </Region>
      <Link>
        <href>../../16/18925/42054.kml</href>
        <viewRefreshMode>onRegion</viewRefreshMode>
        <viewFormat/>
      </Link>
    </NetworkLink>
              </Document>
</kml>
    