<?xml version="1.0" encoding="utf-8"?>
<kml xmlns="http://www.opengis.net/kml/2.2">
  <Document>
    <name>17/37833/84126.kml</name>
    <description></description>
    <Style>
      <ListStyle id="hideChildren">
        <listItemType>checkHideChildren</listItemType>
      </ListStyle>
    </Style>
    <Region>
      <LatLonAltBox>
        <north>45.39652136952787</north>
        <south>45.39459269692662</south>
        <east>-76.08581542968750</east>
        <west>-76.08856201171875</west>
      </LatLonAltBox>
      <Lod>
        <minLodPixels>128</minLodPixels>
        <maxLodPixels>2048</maxLodPixels>
      </Lod>
    </Region>
    <GroundOverlay>
      <drawOrder>34</drawOrder>
      <Icon>
        <href>84126.png</href>
      </Icon>
      <LatLonBox>
        <north>45.39652136952787</north>
        <south>45.39459269692662</south>
        <east>-76.08581542968750</east>
        <west>-76.08856201171875</west>
      </LatLonBox>
    </GroundOverlay>

    <NetworkLink>
      <name>18/75666/168253.png</name>
      <Region>
        <LatLonAltBox>
          <north>45.39652136952787</north>
          <south>45.39555704145539</south>
          <east>-76.08718872070312</east>
          <west>-76.08856201171875</west>
        </LatLonAltBox>
        <Lod>
          <minLodPixels>128</minLodPixels>
          <maxLodPixels>-1</maxLodPixels>
        </Lod>
      </Region>
      <Link>
        <href>../../18/75666/168253.kml</href>
        <viewRefreshMode>onRegion</viewRefreshMode>
        <viewFormat/>
      </Link>
    </NetworkLink>
        
    <NetworkLink>
      <name>18/75667/168253.png</name>
      <Region>
        <LatLonAltBox>
          <north>45.39652136952787</north>
          <south>45.39555704145539</south>
          <east>-76.08581542968750</east>
          <west>-76.08718872070312</west>
        </LatLonAltBox>
        <Lod>
          <minLodPixels>128</minLodPixels>
          <maxLodPixels>-1</maxLodPixels>
        </Lod>
      </Region>
      <Link>
        <href>../../18/75667/168253.kml</href>
        <viewRefreshMode>onRegion</viewRefreshMode>
        <viewFormat/>
      </Link>
    </NetworkLink>
        
    <NetworkLink>
      <name>18/75666/168252.png</name>
      <Region>
        <LatLonAltBox>
          <north>45.39555704145539</north>
          <south>45.39459269692662</south>
          <east>-76.08718872070312</east>
          <west>-76.08856201171875</west>
        </LatLonAltBox>
        <Lod>
          <minLodPixels>128</minLodPixels>
          <maxLodPixels>-1</maxLodPixels>
        </Lod>
      </Region>
      <Link>
        <href>../../18/75666/168252.kml</href>
        <viewRefreshMode>onRegion</viewRefreshMode>
        <viewFormat/>
      </Link>
    </NetworkLink>
        
    <NetworkLink>
      <name>18/75667/168252.png</name>
      <Region>
        <LatLonAltBox>
          <north>45.39555704145539</north>
          <south>45.39459269692662</south>
          <east>-76.08581542968750</east>
          <west>-76.08718872070312</west>
        </LatLonAltBox>
        <Lod>
          <minLodPixels>128</minLodPixels>
          <maxLodPixels>-1</maxLodPixels>
        </Lod>
      </Region>
      <Link>
        <href>../../18/75667/168252.kml</href>
        <viewRefreshMode>onRegion</viewRefreshMode>
        <viewFormat/>
      </Link>
    </NetworkLink>
              </Document>
</kml>
    