<?xml version="1.0" encoding="utf-8"?>
<kml xmlns="http://www.opengis.net/kml/2.2">
  <Document>
    <name>19/151368/197201.kml</name>
    <description></description>
    <Style>
      <ListStyle id="hideChildren">
        <listItemType>checkHideChildren</listItemType>
      </ListStyle>
    </Style>
    <Region>
      <LatLonAltBox>
        <north>134.59281921386719</north>
        <south>134.59213256835938</south>
        <east>-76.06315612792969</east>
        <west>-76.06384277343750</west>
      </LatLonAltBox>
      <Lod>
        <minLodPixels>128</minLodPixels>
        <maxLodPixels>-1</maxLodPixels>
      </Lod>
    </Region>
    <GroundOverlay>
      <drawOrder>38</drawOrder>
      <Icon>
        <href>197201.png</href>
      </Icon>
      <LatLonBox>
        <north>134.59281921386719</north>
        <south>134.59213256835938</south>
        <east>-76.06315612792969</east>
        <west>-76.06384277343750</west>
      </LatLonBox>
    </GroundOverlay>
      </Document>
</kml>
    