<?xml version="1.0" encoding="utf-8"?>
<kml xmlns="http://www.opengis.net/kml/2.2">
  <Document>
    <name>19/151372/336440.kml</name>
    <description></description>
    <Style>
      <ListStyle id="hideChildren">
        <listItemType>checkHideChildren</listItemType>
      </ListStyle>
    </Style>
    <Region>
      <LatLonAltBox>
        <north>45.36420742068034</north>
        <south>45.36372498305681</south>
        <east>-76.06040954589844</east>
        <west>-76.06109619140625</west>
      </LatLonAltBox>
      <Lod>
        <minLodPixels>128</minLodPixels>
        <maxLodPixels>-1</maxLodPixels>
      </Lod>
    </Region>
    <GroundOverlay>
      <drawOrder>38</drawOrder>
      <Icon>
        <href>336440.png</href>
      </Icon>
      <LatLonBox>
        <north>45.36420742068034</north>
        <south>45.36372498305681</south>
        <east>-76.06040954589844</east>
        <west>-76.06109619140625</west>
      </LatLonBox>
    </GroundOverlay>
      </Document>
</kml>
    