<?xml version="1.0" encoding="utf-8"?>
<kml xmlns="http://www.opengis.net/kml/2.2">
  <Document>
    <name>19/151381/336453.kml</name>
    <description></description>
    <Style>
      <ListStyle id="hideChildren">
        <listItemType>checkHideChildren</listItemType>
      </ListStyle>
    </Style>
    <Region>
      <LatLonAltBox>
        <north>45.37047873540156</north>
        <south>45.36999635126154</south>
        <east>-76.05422973632814</east>
        <west>-76.05491638183595</west>
      </LatLonAltBox>
      <Lod>
        <minLodPixels>128</minLodPixels>
        <maxLodPixels>-1</maxLodPixels>
      </Lod>
    </Region>
    <GroundOverlay>
      <drawOrder>38</drawOrder>
      <Icon>
        <href>336453.png</href>
      </Icon>
      <LatLonBox>
        <north>45.37047873540156</north>
        <south>45.36999635126154</south>
        <east>-76.05422973632814</east>
        <west>-76.05491638183595</west>
      </LatLonBox>
    </GroundOverlay>
      </Document>
</kml>
    