<?xml version="1.0" encoding="utf-8"?>
<kml xmlns="http://www.opengis.net/kml/2.2">
  <Document>
    <name>15/9458/20443.kml</name>
    <description></description>
    <Style>
      <ListStyle id="hideChildren">
        <listItemType>checkHideChildren</listItemType>
      </ListStyle>
    </Style>
    <Region>
      <LatLonAltBox>
        <north>45.40649414062500</north>
        <south>45.39550781250000</south>
        <east>-76.08032226562500</east>
        <west>-76.09130859375000</west>
      </LatLonAltBox>
      <Lod>
        <minLodPixels>128</minLodPixels>
        <maxLodPixels>2048</maxLodPixels>
      </Lod>
    </Region>
    <GroundOverlay>
      <drawOrder>30</drawOrder>
      <Icon>
        <href>20443.png</href>
      </Icon>
      <LatLonBox>
        <north>45.40649414062500</north>
        <south>45.39550781250000</south>
        <east>-76.08032226562500</east>
        <west>-76.09130859375000</west>
      </LatLonBox>
    </GroundOverlay>

    <NetworkLink>
      <name>16/18916/40886.png</name>
      <Region>
        <LatLonAltBox>
          <north>45.40649414062500</north>
          <south>45.40100097656250</south>
          <east>-76.08581542968750</east>
          <west>-76.09130859375000</west>
        </LatLonAltBox>
        <Lod>
          <minLodPixels>128</minLodPixels>
          <maxLodPixels>-1</maxLodPixels>
        </Lod>
      </Region>
      <Link>
        <href>../../16/18916/40886.kml</href>
        <viewRefreshMode>onRegion</viewRefreshMode>
        <viewFormat/>
      </Link>
    </NetworkLink>
        
    <NetworkLink>
      <name>16/18917/40886.png</name>
      <Region>
        <LatLonAltBox>
          <north>45.40649414062500</north>
          <south>45.40100097656250</south>
          <east>-76.08032226562500</east>
          <west>-76.08581542968750</west>
        </LatLonAltBox>
        <Lod>
          <minLodPixels>128</minLodPixels>
          <maxLodPixels>-1</maxLodPixels>
        </Lod>
      </Region>
      <Link>
        <href>../../16/18917/40886.kml</href>
        <viewRefreshMode>onRegion</viewRefreshMode>
        <viewFormat/>
      </Link>
    </NetworkLink>
        
    <NetworkLink>
      <name>16/18916/40887.png</name>
      <Region>
        <LatLonAltBox>
          <north>45.40100097656250</north>
          <south>45.39550781250000</south>
          <east>-76.08581542968750</east>
          <west>-76.09130859375000</west>
        </LatLonAltBox>
        <Lod>
          <minLodPixels>128</minLodPixels>
          <maxLodPixels>-1</maxLodPixels>
        </Lod>
      </Region>
      <Link>
        <href>../../16/18916/40887.kml</href>
        <viewRefreshMode>onRegion</viewRefreshMode>
        <viewFormat/>
      </Link>
    </NetworkLink>
        
    <NetworkLink>
      <name>16/18917/40887.png</name>
      <Region>
        <LatLonAltBox>
          <north>45.40100097656250</north>
          <south>45.39550781250000</south>
          <east>-76.08032226562500</east>
          <west>-76.08581542968750</west>
        </LatLonAltBox>
        <Lod>
          <minLodPixels>128</minLodPixels>
          <maxLodPixels>-1</maxLodPixels>
        </Lod>
      </Region>
      <Link>
        <href>../../16/18917/40887.kml</href>
        <viewRefreshMode>onRegion</viewRefreshMode>
        <viewFormat/>
      </Link>
    </NetworkLink>
              </Document>
</kml>
    