<?xml version="1.0" encoding="utf-8"?>
<kml xmlns="http://www.opengis.net/kml/2.2">
  <Document>
    <name>18/75676/168257.kml</name>
    <description></description>
    <Style>
      <ListStyle id="hideChildren">
        <listItemType>checkHideChildren</listItemType>
      </ListStyle>
    </Style>
    <Region>
      <LatLonAltBox>
        <north>45.40037851725538</north>
        <south>45.39941425500787</south>
        <east>-76.07345581054686</east>
        <west>-76.07482910156251</west>
      </LatLonAltBox>
      <Lod>
        <minLodPixels>128</minLodPixels>
        <maxLodPixels>2048</maxLodPixels>
      </Lod>
    </Region>
    <GroundOverlay>
      <drawOrder>36</drawOrder>
      <Icon>
        <href>168257.png</href>
      </Icon>
      <LatLonBox>
        <north>45.40037851725538</north>
        <south>45.39941425500787</south>
        <east>-76.07345581054686</east>
        <west>-76.07482910156251</west>
      </LatLonBox>
    </GroundOverlay>

    <NetworkLink>
      <name>19/151352/336515.png</name>
      <Region>
        <LatLonAltBox>
          <north>45.40037851725538</north>
          <south>45.39989638818863</south>
          <east>-76.07414245605467</east>
          <west>-76.07482910156251</west>
        </LatLonAltBox>
        <Lod>
          <minLodPixels>128</minLodPixels>
          <maxLodPixels>-1</maxLodPixels>
        </Lod>
      </Region>
      <Link>
        <href>../../19/151352/336515.kml</href>
        <viewRefreshMode>onRegion</viewRefreshMode>
        <viewFormat/>
      </Link>
    </NetworkLink>
        
    <NetworkLink>
      <name>19/151353/336515.png</name>
      <Region>
        <LatLonAltBox>
          <north>45.40037851725538</north>
          <south>45.39989638818863</south>
          <east>-76.07345581054686</east>
          <west>-76.07414245605467</west>
        </LatLonAltBox>
        <Lod>
          <minLodPixels>128</minLodPixels>
          <maxLodPixels>-1</maxLodPixels>
        </Lod>
      </Region>
      <Link>
        <href>../../19/151353/336515.kml</href>
        <viewRefreshMode>onRegion</viewRefreshMode>
        <viewFormat/>
      </Link>
    </NetworkLink>
        
    <NetworkLink>
      <name>19/151352/336514.png</name>
      <Region>
        <LatLonAltBox>
          <north>45.39989638818863</north>
          <south>45.39941425500787</south>
          <east>-76.07414245605467</east>
          <west>-76.07482910156251</west>
        </LatLonAltBox>
        <Lod>
          <minLodPixels>128</minLodPixels>
          <maxLodPixels>-1</maxLodPixels>
        </Lod>
      </Region>
      <Link>
        <href>../../19/151352/336514.kml</href>
        <viewRefreshMode>onRegion</viewRefreshMode>
        <viewFormat/>
      </Link>
    </NetworkLink>
        
    <NetworkLink>
      <name>19/151353/336514.png</name>
      <Region>
        <LatLonAltBox>
          <north>45.39989638818863</north>
          <south>45.39941425500787</south>
          <east>-76.07345581054686</east>
          <west>-76.07414245605467</west>
        </LatLonAltBox>
        <Lod>
          <minLodPixels>128</minLodPixels>
          <maxLodPixels>-1</maxLodPixels>
        </Lod>
      </Region>
      <Link>
        <href>../../19/151353/336514.kml</href>
        <viewRefreshMode>onRegion</viewRefreshMode>
        <viewFormat/>
      </Link>
    </NetworkLink>
              </Document>
</kml>
    