<?xml version="1.0" encoding="utf-8"?>
<kml xmlns="http://www.opengis.net/kml/2.2">
  <Document>
    <name>16/18913/24644.kml</name>
    <description></description>
    <Style>
      <ListStyle id="hideChildren">
        <listItemType>checkHideChildren</listItemType>
      </ListStyle>
    </Style>
    <Region>
      <LatLonAltBox>
        <north>45.37902832031250</north>
        <south>45.37353515625000</south>
        <east>-76.10229492187500</east>
        <west>-76.10778808593750</west>
      </LatLonAltBox>
      <Lod>
        <minLodPixels>128</minLodPixels>
        <maxLodPixels>2048</maxLodPixels>
      </Lod>
    </Region>
    <GroundOverlay>
      <drawOrder>32</drawOrder>
      <Icon>
        <href>24644.png</href>
      </Icon>
      <LatLonBox>
        <north>45.37902832031250</north>
        <south>45.37353515625000</south>
        <east>-76.10229492187500</east>
        <west>-76.10778808593750</west>
      </LatLonBox>
    </GroundOverlay>

    <NetworkLink>
      <name>17/37826/49289.png</name>
      <Region>
        <LatLonAltBox>
          <north>45.37902832031250</north>
          <south>45.37628173828125</south>
          <east>-76.10504150390625</east>
          <west>-76.10778808593750</west>
        </LatLonAltBox>
        <Lod>
          <minLodPixels>128</minLodPixels>
          <maxLodPixels>-1</maxLodPixels>
        </Lod>
      </Region>
      <Link>
        <href>../../17/37826/49289.kml</href>
        <viewRefreshMode>onRegion</viewRefreshMode>
        <viewFormat/>
      </Link>
    </NetworkLink>
        
    <NetworkLink>
      <name>17/37827/49289.png</name>
      <Region>
        <LatLonAltBox>
          <north>45.37902832031250</north>
          <south>45.37628173828125</south>
          <east>-76.10229492187500</east>
          <west>-76.10504150390625</west>
        </LatLonAltBox>
        <Lod>
          <minLodPixels>128</minLodPixels>
          <maxLodPixels>-1</maxLodPixels>
        </Lod>
      </Region>
      <Link>
        <href>../../17/37827/49289.kml</href>
        <viewRefreshMode>onRegion</viewRefreshMode>
        <viewFormat/>
      </Link>
    </NetworkLink>
        
    <NetworkLink>
      <name>17/37826/49288.png</name>
      <Region>
        <LatLonAltBox>
          <north>45.37628173828125</north>
          <south>45.37353515625000</south>
          <east>-76.10504150390625</east>
          <west>-76.10778808593750</west>
        </LatLonAltBox>
        <Lod>
          <minLodPixels>128</minLodPixels>
          <maxLodPixels>-1</maxLodPixels>
        </Lod>
      </Region>
      <Link>
        <href>../../17/37826/49288.kml</href>
        <viewRefreshMode>onRegion</viewRefreshMode>
        <viewFormat/>
      </Link>
    </NetworkLink>
        
    <NetworkLink>
      <name>17/37827/49288.png</name>
      <Region>
        <LatLonAltBox>
          <north>45.37628173828125</north>
          <south>45.37353515625000</south>
          <east>-76.10229492187500</east>
          <west>-76.10504150390625</west>
        </LatLonAltBox>
        <Lod>
          <minLodPixels>128</minLodPixels>
          <maxLodPixels>-1</maxLodPixels>
        </Lod>
      </Region>
      <Link>
        <href>../../17/37827/49288.kml</href>
        <viewRefreshMode>onRegion</viewRefreshMode>
        <viewFormat/>
      </Link>
    </NetworkLink>
              </Document>
</kml>
    