<?xml version="1.0" encoding="utf-8"?>
<kml xmlns="http://www.opengis.net/kml/2.2">
  <Document>
    <name>16/18920/42058.kml</name>
    <description></description>
    <Style>
      <ListStyle id="hideChildren">
        <listItemType>checkHideChildren</listItemType>
      </ListStyle>
    </Style>
    <Region>
      <LatLonAltBox>
        <north>45.37916094640917</north>
        <south>45.37530235052552</south>
        <east>-76.06384277343750</east>
        <west>-76.06933593750000</west>
      </LatLonAltBox>
      <Lod>
        <minLodPixels>128</minLodPixels>
        <maxLodPixels>2048</maxLodPixels>
      </Lod>
    </Region>
    <GroundOverlay>
      <drawOrder>32</drawOrder>
      <Icon>
        <href>42058.png</href>
      </Icon>
      <LatLonBox>
        <north>45.37916094640917</north>
        <south>45.37530235052552</south>
        <east>-76.06384277343750</east>
        <west>-76.06933593750000</west>
      </LatLonBox>
    </GroundOverlay>

    <NetworkLink>
      <name>17/37840/84117.png</name>
      <Region>
        <LatLonAltBox>
          <north>45.37916094640917</north>
          <south>45.37723168138015</south>
          <east>-76.06658935546875</east>
          <west>-76.06933593750000</west>
        </LatLonAltBox>
        <Lod>
          <minLodPixels>128</minLodPixels>
          <maxLodPixels>-1</maxLodPixels>
        </Lod>
      </Region>
      <Link>
        <href>../../17/37840/84117.kml</href>
        <viewRefreshMode>onRegion</viewRefreshMode>
        <viewFormat/>
      </Link>
    </NetworkLink>
        
    <NetworkLink>
      <name>17/37841/84117.png</name>
      <Region>
        <LatLonAltBox>
          <north>45.37916094640917</north>
          <south>45.37723168138015</south>
          <east>-76.06384277343750</east>
          <west>-76.06658935546875</west>
        </LatLonAltBox>
        <Lod>
          <minLodPixels>128</minLodPixels>
          <maxLodPixels>-1</maxLodPixels>
        </Lod>
      </Region>
      <Link>
        <href>../../17/37841/84117.kml</href>
        <viewRefreshMode>onRegion</viewRefreshMode>
        <viewFormat/>
      </Link>
    </NetworkLink>
        
    <NetworkLink>
      <name>17/37840/84116.png</name>
      <Region>
        <LatLonAltBox>
          <north>45.37723168138015</north>
          <south>45.37530235052552</south>
          <east>-76.06658935546875</east>
          <west>-76.06933593750000</west>
        </LatLonAltBox>
        <Lod>
          <minLodPixels>128</minLodPixels>
          <maxLodPixels>-1</maxLodPixels>
        </Lod>
      </Region>
      <Link>
        <href>../../17/37840/84116.kml</href>
        <viewRefreshMode>onRegion</viewRefreshMode>
        <viewFormat/>
      </Link>
    </NetworkLink>
        
    <NetworkLink>
      <name>17/37841/84116.png</name>
      <Region>
        <LatLonAltBox>
          <north>45.37723168138015</north>
          <south>45.37530235052552</south>
          <east>-76.06384277343750</east>
          <west>-76.06658935546875</west>
        </LatLonAltBox>
        <Lod>
          <minLodPixels>128</minLodPixels>
          <maxLodPixels>-1</maxLodPixels>
        </Lod>
      </Region>
      <Link>
        <href>../../17/37841/84116.kml</href>
        <viewRefreshMode>onRegion</viewRefreshMode>
        <viewFormat/>
      </Link>
    </NetworkLink>
              </Document>
</kml>
    