<?xml version="1.0" encoding="utf-8"?>
<kml xmlns="http://www.opengis.net/kml/2.2">
  <Document>
    <name>16/18920/42056.kml</name>
    <description></description>
    <Style>
      <ListStyle id="hideChildren">
        <listItemType>checkHideChildren</listItemType>
      </ListStyle>
    </Style>
    <Region>
      <LatLonAltBox>
        <north>45.37144349133922</north>
        <south>45.36758436884980</south>
        <east>-76.06384277343750</east>
        <west>-76.06933593750000</west>
      </LatLonAltBox>
      <Lod>
        <minLodPixels>128</minLodPixels>
        <maxLodPixels>2048</maxLodPixels>
      </Lod>
    </Region>
    <GroundOverlay>
      <drawOrder>32</drawOrder>
      <Icon>
        <href>42056.png</href>
      </Icon>
      <LatLonBox>
        <north>45.37144349133922</north>
        <south>45.36758436884980</south>
        <east>-76.06384277343750</east>
        <west>-76.06933593750000</west>
      </LatLonBox>
    </GroundOverlay>

    <NetworkLink>
      <name>17/37840/84113.png</name>
      <Region>
        <LatLonAltBox>
          <north>45.37144349133922</north>
          <south>45.36951396300744</south>
          <east>-76.06658935546875</east>
          <west>-76.06933593750000</west>
        </LatLonAltBox>
        <Lod>
          <minLodPixels>128</minLodPixels>
          <maxLodPixels>-1</maxLodPixels>
        </Lod>
      </Region>
      <Link>
        <href>../../17/37840/84113.kml</href>
        <viewRefreshMode>onRegion</viewRefreshMode>
        <viewFormat/>
      </Link>
    </NetworkLink>
        
    <NetworkLink>
      <name>17/37841/84113.png</name>
      <Region>
        <LatLonAltBox>
          <north>45.37144349133922</north>
          <south>45.36951396300744</south>
          <east>-76.06384277343750</east>
          <west>-76.06658935546875</west>
        </LatLonAltBox>
        <Lod>
          <minLodPixels>128</minLodPixels>
          <maxLodPixels>-1</maxLodPixels>
        </Lod>
      </Region>
      <Link>
        <href>../../17/37841/84113.kml</href>
        <viewRefreshMode>onRegion</viewRefreshMode>
        <viewFormat/>
      </Link>
    </NetworkLink>
        
    <NetworkLink>
      <name>17/37840/84112.png</name>
      <Region>
        <LatLonAltBox>
          <north>45.36951396300744</north>
          <south>45.36758436884980</south>
          <east>-76.06658935546875</east>
          <west>-76.06933593750000</west>
        </LatLonAltBox>
        <Lod>
          <minLodPixels>128</minLodPixels>
          <maxLodPixels>-1</maxLodPixels>
        </Lod>
      </Region>
      <Link>
        <href>../../17/37840/84112.kml</href>
        <viewRefreshMode>onRegion</viewRefreshMode>
        <viewFormat/>
      </Link>
    </NetworkLink>
        
    <NetworkLink>
      <name>17/37841/84112.png</name>
      <Region>
        <LatLonAltBox>
          <north>45.36951396300744</north>
          <south>45.36758436884980</south>
          <east>-76.06384277343750</east>
          <west>-76.06658935546875</west>
        </LatLonAltBox>
        <Lod>
          <minLodPixels>128</minLodPixels>
          <maxLodPixels>-1</maxLodPixels>
        </Lod>
      </Region>
      <Link>
        <href>../../17/37841/84112.kml</href>
        <viewRefreshMode>onRegion</viewRefreshMode>
        <viewFormat/>
      </Link>
    </NetworkLink>
              </Document>
</kml>
    