<?xml version="1.0" encoding="utf-8"?>
<kml xmlns="http://www.opengis.net/kml/2.2">
  <Document>
    <name>19/151394/336474.kml</name>
    <description></description>
    <Style>
      <ListStyle id="hideChildren">
        <listItemType>checkHideChildren</listItemType>
      </ListStyle>
    </Style>
    <Region>
      <LatLonAltBox>
        <north>45.38060785198293</north>
        <south>45.38012555423909</south>
        <east>-76.04530334472656</east>
        <west>-76.04598999023438</west>
      </LatLonAltBox>
      <Lod>
        <minLodPixels>128</minLodPixels>
        <maxLodPixels>-1</maxLodPixels>
      </Lod>
    </Region>
    <GroundOverlay>
      <drawOrder>38</drawOrder>
      <Icon>
        <href>336474.png</href>
      </Icon>
      <LatLonBox>
        <north>45.38060785198293</north>
        <south>45.38012555423909</south>
        <east>-76.04530334472656</east>
        <west>-76.04598999023438</west>
      </LatLonBox>
    </GroundOverlay>
      </Document>
</kml>
    