<?xml version="1.0" encoding="utf-8"?>
<kml xmlns="http://www.opengis.net/kml/2.2">
  <Document>
    <name>19/151361/197198.kml</name>
    <description></description>
    <Style>
      <ListStyle id="hideChildren">
        <listItemType>checkHideChildren</listItemType>
      </ListStyle>
    </Style>
    <Region>
      <LatLonAltBox>
        <north>134.59487915039062</north>
        <south>134.59419250488281</south>
        <east>-76.06796264648438</east>
        <west>-76.06864929199219</west>
      </LatLonAltBox>
      <Lod>
        <minLodPixels>128</minLodPixels>
        <maxLodPixels>-1</maxLodPixels>
      </Lod>
    </Region>
    <GroundOverlay>
      <drawOrder>38</drawOrder>
      <Icon>
        <href>197198.png</href>
      </Icon>
      <LatLonBox>
        <north>134.59487915039062</north>
        <south>134.59419250488281</south>
        <east>-76.06796264648438</east>
        <west>-76.06864929199219</west>
      </LatLonBox>
    </GroundOverlay>
      </Document>
</kml>
    