<?xml version="1.0" encoding="utf-8"?>
<kml xmlns="http://www.opengis.net/kml/2.2">
  <Document>
    <name>18/75673/163570.kml</name>
    <description></description>
    <Style>
      <ListStyle id="hideChildren">
        <listItemType>checkHideChildren</listItemType>
      </ListStyle>
    </Style>
    <Region>
      <LatLonAltBox>
        <north>45.37078857421875</north>
        <south>45.36941528320312</south>
        <east>-76.07757568359375</east>
        <west>-76.07894897460938</west>
      </LatLonAltBox>
      <Lod>
        <minLodPixels>128</minLodPixels>
        <maxLodPixels>2048</maxLodPixels>
      </Lod>
    </Region>
    <GroundOverlay>
      <drawOrder>36</drawOrder>
      <Icon>
        <href>163570.png</href>
      </Icon>
      <LatLonBox>
        <north>45.37078857421875</north>
        <south>45.36941528320312</south>
        <east>-76.07757568359375</east>
        <west>-76.07894897460938</west>
      </LatLonBox>
    </GroundOverlay>

    <NetworkLink>
      <name>19/151346/327140.png</name>
      <Region>
        <LatLonAltBox>
          <north>45.37078857421875</north>
          <south>45.37010192871094</south>
          <east>-76.07826232910156</east>
          <west>-76.07894897460938</west>
        </LatLonAltBox>
        <Lod>
          <minLodPixels>128</minLodPixels>
          <maxLodPixels>-1</maxLodPixels>
        </Lod>
      </Region>
      <Link>
        <href>../../19/151346/327140.kml</href>
        <viewRefreshMode>onRegion</viewRefreshMode>
        <viewFormat/>
      </Link>
    </NetworkLink>
        
    <NetworkLink>
      <name>19/151347/327140.png</name>
      <Region>
        <LatLonAltBox>
          <north>45.37078857421875</north>
          <south>45.37010192871094</south>
          <east>-76.07757568359375</east>
          <west>-76.07826232910156</west>
        </LatLonAltBox>
        <Lod>
          <minLodPixels>128</minLodPixels>
          <maxLodPixels>-1</maxLodPixels>
        </Lod>
      </Region>
      <Link>
        <href>../../19/151347/327140.kml</href>
        <viewRefreshMode>onRegion</viewRefreshMode>
        <viewFormat/>
      </Link>
    </NetworkLink>
        
    <NetworkLink>
      <name>19/151346/327141.png</name>
      <Region>
        <LatLonAltBox>
          <north>45.37010192871094</north>
          <south>45.36941528320312</south>
          <east>-76.07826232910156</east>
          <west>-76.07894897460938</west>
        </LatLonAltBox>
        <Lod>
          <minLodPixels>128</minLodPixels>
          <maxLodPixels>-1</maxLodPixels>
        </Lod>
      </Region>
      <Link>
        <href>../../19/151346/327141.kml</href>
        <viewRefreshMode>onRegion</viewRefreshMode>
        <viewFormat/>
      </Link>
    </NetworkLink>
        
    <NetworkLink>
      <name>19/151347/327141.png</name>
      <Region>
        <LatLonAltBox>
          <north>45.37010192871094</north>
          <south>45.36941528320312</south>
          <east>-76.07757568359375</east>
          <west>-76.07826232910156</west>
        </LatLonAltBox>
        <Lod>
          <minLodPixels>128</minLodPixels>
          <maxLodPixels>-1</maxLodPixels>
        </Lod>
      </Region>
      <Link>
        <href>../../19/151347/327141.kml</href>
        <viewRefreshMode>onRegion</viewRefreshMode>
        <viewFormat/>
      </Link>
    </NetworkLink>
              </Document>
</kml>
    