<?xml version="1.0" encoding="utf-8"?>
<kml xmlns="http://www.opengis.net/kml/2.2">
  <Document>
    <name>16/18924/24644.kml</name>
    <description></description>
    <Style>
      <ListStyle id="hideChildren">
        <listItemType>checkHideChildren</listItemType>
      </ListStyle>
    </Style>
    <Region>
      <LatLonAltBox>
        <north>45.37902832031250</north>
        <south>45.37353515625000</south>
        <east>-76.04187011718750</east>
        <west>-76.04736328125000</west>
      </LatLonAltBox>
      <Lod>
        <minLodPixels>128</minLodPixels>
        <maxLodPixels>2048</maxLodPixels>
      </Lod>
    </Region>
    <GroundOverlay>
      <drawOrder>32</drawOrder>
      <Icon>
        <href>24644.png</href>
      </Icon>
      <LatLonBox>
        <north>45.37902832031250</north>
        <south>45.37353515625000</south>
        <east>-76.04187011718750</east>
        <west>-76.04736328125000</west>
      </LatLonBox>
    </GroundOverlay>

    <NetworkLink>
      <name>17/37848/49289.png</name>
      <Region>
        <LatLonAltBox>
          <north>45.37902832031250</north>
          <south>45.37628173828125</south>
          <east>-76.04461669921875</east>
          <west>-76.04736328125000</west>
        </LatLonAltBox>
        <Lod>
          <minLodPixels>128</minLodPixels>
          <maxLodPixels>-1</maxLodPixels>
        </Lod>
      </Region>
      <Link>
        <href>https://swmoran.github.io/ch-tiles/tiles/DRAPE_Tiles/17/37848/49289.kml</href>
        <viewRefreshMode>onRegion</viewRefreshMode>
        <viewFormat/>
      </Link>
    </NetworkLink>
        
    <NetworkLink>
      <name>17/37849/49289.png</name>
      <Region>
        <LatLonAltBox>
          <north>45.37902832031250</north>
          <south>45.37628173828125</south>
          <east>-76.04187011718750</east>
          <west>-76.04461669921875</west>
        </LatLonAltBox>
        <Lod>
          <minLodPixels>128</minLodPixels>
          <maxLodPixels>-1</maxLodPixels>
        </Lod>
      </Region>
      <Link>
        <href>https://swmoran.github.io/ch-tiles/tiles/DRAPE_Tiles/17/37849/49289.kml</href>
        <viewRefreshMode>onRegion</viewRefreshMode>
        <viewFormat/>
      </Link>
    </NetworkLink>
        
    <NetworkLink>
      <name>17/37848/49288.png</name>
      <Region>
        <LatLonAltBox>
          <north>45.37628173828125</north>
          <south>45.37353515625000</south>
          <east>-76.04461669921875</east>
          <west>-76.04736328125000</west>
        </LatLonAltBox>
        <Lod>
          <minLodPixels>128</minLodPixels>
          <maxLodPixels>-1</maxLodPixels>
        </Lod>
      </Region>
      <Link>
        <href>https://swmoran.github.io/ch-tiles/tiles/DRAPE_Tiles/17/37848/49288.kml</href>
        <viewRefreshMode>onRegion</viewRefreshMode>
        <viewFormat/>
      </Link>
    </NetworkLink>
        
    <NetworkLink>
      <name>17/37849/49288.png</name>
      <Region>
        <LatLonAltBox>
          <north>45.37628173828125</north>
          <south>45.37353515625000</south>
          <east>-76.04187011718750</east>
          <west>-76.04461669921875</west>
        </LatLonAltBox>
        <Lod>
          <minLodPixels>128</minLodPixels>
          <maxLodPixels>-1</maxLodPixels>
        </Lod>
      </Region>
      <Link>
        <href>https://swmoran.github.io/ch-tiles/tiles/DRAPE_Tiles/17/37849/49288.kml</href>
        <viewRefreshMode>onRegion</viewRefreshMode>
        <viewFormat/>
      </Link>
    </NetworkLink>
              </Document>
</kml>
    