<?xml version="1.0" encoding="utf-8"?>
<kml xmlns="http://www.opengis.net/kml/2.2">
  <Document>
    <name>19/151366/197160.kml</name>
    <description></description>
    <Style>
      <ListStyle id="hideChildren">
        <listItemType>checkHideChildren</listItemType>
      </ListStyle>
    </Style>
    <Region>
      <LatLonAltBox>
        <north>134.62097167968750</north>
        <south>134.62028503417969</south>
        <east>-76.06452941894531</east>
        <west>-76.06521606445312</west>
      </LatLonAltBox>
      <Lod>
        <minLodPixels>128</minLodPixels>
        <maxLodPixels>-1</maxLodPixels>
      </Lod>
    </Region>
    <GroundOverlay>
      <drawOrder>38</drawOrder>
      <Icon>
        <href>197160.png</href>
      </Icon>
      <LatLonBox>
        <north>134.62097167968750</north>
        <south>134.62028503417969</south>
        <east>-76.06452941894531</east>
        <west>-76.06521606445312</west>
      </LatLonBox>
    </GroundOverlay>
      </Document>
</kml>
    