<?xml version="1.0" encoding="utf-8"?>
<kml xmlns="http://www.opengis.net/kml/2.2">
  <Document>
    <name>18/75676/98581.kml</name>
    <description></description>
    <Style>
      <ListStyle id="hideChildren">
        <listItemType>checkHideChildren</listItemType>
      </ListStyle>
    </Style>
    <Region>
      <LatLonAltBox>
        <north>45.38177490234375</north>
        <south>45.38040161132812</south>
        <east>-76.07345581054688</east>
        <west>-76.07482910156250</west>
      </LatLonAltBox>
      <Lod>
        <minLodPixels>128</minLodPixels>
        <maxLodPixels>2048</maxLodPixels>
      </Lod>
    </Region>
    <GroundOverlay>
      <drawOrder>36</drawOrder>
      <Icon>
        <href>98581.png</href>
      </Icon>
      <LatLonBox>
        <north>45.38177490234375</north>
        <south>45.38040161132812</south>
        <east>-76.07345581054688</east>
        <west>-76.07482910156250</west>
      </LatLonBox>
    </GroundOverlay>

    <NetworkLink>
      <name>19/151352/197163.png</name>
      <Region>
        <LatLonAltBox>
          <north>45.38177490234375</north>
          <south>45.38108825683594</south>
          <east>-76.07414245605469</east>
          <west>-76.07482910156250</west>
        </LatLonAltBox>
        <Lod>
          <minLodPixels>128</minLodPixels>
          <maxLodPixels>-1</maxLodPixels>
        </Lod>
      </Region>
      <Link>
        <href>https://swmoran.github.io/ch-tiles/tiles_GE/tiles_GE/19/151352/197163.kml</href>
        <viewRefreshMode>onRegion</viewRefreshMode>
        <viewFormat/>
      </Link>
    </NetworkLink>
        
    <NetworkLink>
      <name>19/151353/197163.png</name>
      <Region>
        <LatLonAltBox>
          <north>45.38177490234375</north>
          <south>45.38108825683594</south>
          <east>-76.07345581054688</east>
          <west>-76.07414245605469</west>
        </LatLonAltBox>
        <Lod>
          <minLodPixels>128</minLodPixels>
          <maxLodPixels>-1</maxLodPixels>
        </Lod>
      </Region>
      <Link>
        <href>https://swmoran.github.io/ch-tiles/tiles_GE/tiles_GE/19/151353/197163.kml</href>
        <viewRefreshMode>onRegion</viewRefreshMode>
        <viewFormat/>
      </Link>
    </NetworkLink>
        
    <NetworkLink>
      <name>19/151352/197162.png</name>
      <Region>
        <LatLonAltBox>
          <north>45.38108825683594</north>
          <south>45.38040161132812</south>
          <east>-76.07414245605469</east>
          <west>-76.07482910156250</west>
        </LatLonAltBox>
        <Lod>
          <minLodPixels>128</minLodPixels>
          <maxLodPixels>-1</maxLodPixels>
        </Lod>
      </Region>
      <Link>
        <href>https://swmoran.github.io/ch-tiles/tiles_GE/tiles_GE/19/151352/197162.kml</href>
        <viewRefreshMode>onRegion</viewRefreshMode>
        <viewFormat/>
      </Link>
    </NetworkLink>
        
    <NetworkLink>
      <name>19/151353/197162.png</name>
      <Region>
        <LatLonAltBox>
          <north>45.38108825683594</north>
          <south>45.38040161132812</south>
          <east>-76.07345581054688</east>
          <west>-76.07414245605469</west>
        </LatLonAltBox>
        <Lod>
          <minLodPixels>128</minLodPixels>
          <maxLodPixels>-1</maxLodPixels>
        </Lod>
      </Region>
      <Link>
        <href>https://swmoran.github.io/ch-tiles/tiles_GE/tiles_GE/19/151353/197162.kml</href>
        <viewRefreshMode>onRegion</viewRefreshMode>
        <viewFormat/>
      </Link>
    </NetworkLink>
              </Document>
</kml>
    