<?xml version="1.0" encoding="utf-8"?>
<kml xmlns="http://www.opengis.net/kml/2.2">
  <Document>
    <name>18/75697/163561.kml</name>
    <description></description>
    <Style>
      <ListStyle id="hideChildren">
        <listItemType>checkHideChildren</listItemType>
      </ListStyle>
    </Style>
    <Region>
      <LatLonAltBox>
        <north>45.38314819335938</north>
        <south>45.38177490234375</south>
        <east>-76.04461669921875</east>
        <west>-76.04598999023438</west>
      </LatLonAltBox>
      <Lod>
        <minLodPixels>128</minLodPixels>
        <maxLodPixels>2048</maxLodPixels>
      </Lod>
    </Region>
    <GroundOverlay>
      <drawOrder>36</drawOrder>
      <Icon>
        <href>163561.png</href>
      </Icon>
      <LatLonBox>
        <north>45.38314819335938</north>
        <south>45.38177490234375</south>
        <east>-76.04461669921875</east>
        <west>-76.04598999023438</west>
      </LatLonBox>
    </GroundOverlay>

    <NetworkLink>
      <name>19/151394/327122.png</name>
      <Region>
        <LatLonAltBox>
          <north>45.38314819335938</north>
          <south>45.38246154785156</south>
          <east>-76.04530334472656</east>
          <west>-76.04598999023438</west>
        </LatLonAltBox>
        <Lod>
          <minLodPixels>128</minLodPixels>
          <maxLodPixels>-1</maxLodPixels>
        </Lod>
      </Region>
      <Link>
        <href>../../19/151394/327122.kml</href>
        <viewRefreshMode>onRegion</viewRefreshMode>
        <viewFormat/>
      </Link>
    </NetworkLink>
        
    <NetworkLink>
      <name>19/151395/327122.png</name>
      <Region>
        <LatLonAltBox>
          <north>45.38314819335938</north>
          <south>45.38246154785156</south>
          <east>-76.04461669921875</east>
          <west>-76.04530334472656</west>
        </LatLonAltBox>
        <Lod>
          <minLodPixels>128</minLodPixels>
          <maxLodPixels>-1</maxLodPixels>
        </Lod>
      </Region>
      <Link>
        <href>../../19/151395/327122.kml</href>
        <viewRefreshMode>onRegion</viewRefreshMode>
        <viewFormat/>
      </Link>
    </NetworkLink>
        
    <NetworkLink>
      <name>19/151394/327123.png</name>
      <Region>
        <LatLonAltBox>
          <north>45.38246154785156</north>
          <south>45.38177490234375</south>
          <east>-76.04530334472656</east>
          <west>-76.04598999023438</west>
        </LatLonAltBox>
        <Lod>
          <minLodPixels>128</minLodPixels>
          <maxLodPixels>-1</maxLodPixels>
        </Lod>
      </Region>
      <Link>
        <href>../../19/151394/327123.kml</href>
        <viewRefreshMode>onRegion</viewRefreshMode>
        <viewFormat/>
      </Link>
    </NetworkLink>
        
    <NetworkLink>
      <name>19/151395/327123.png</name>
      <Region>
        <LatLonAltBox>
          <north>45.38246154785156</north>
          <south>45.38177490234375</south>
          <east>-76.04461669921875</east>
          <west>-76.04530334472656</west>
        </LatLonAltBox>
        <Lod>
          <minLodPixels>128</minLodPixels>
          <maxLodPixels>-1</maxLodPixels>
        </Lod>
      </Region>
      <Link>
        <href>../../19/151395/327123.kml</href>
        <viewRefreshMode>onRegion</viewRefreshMode>
        <viewFormat/>
      </Link>
    </NetworkLink>
              </Document>
</kml>
    