<?xml version="1.0" encoding="utf-8"?>
<kml xmlns="http://www.opengis.net/kml/2.2">
  <Document>
    <name>18/75700/163567.kml</name>
    <description></description>
    <Style>
      <ListStyle id="hideChildren">
        <listItemType>checkHideChildren</listItemType>
      </ListStyle>
    </Style>
    <Region>
      <LatLonAltBox>
        <north>45.37490844726562</north>
        <south>45.37353515625000</south>
        <east>-76.04049682617188</east>
        <west>-76.04187011718750</west>
      </LatLonAltBox>
      <Lod>
        <minLodPixels>128</minLodPixels>
        <maxLodPixels>2048</maxLodPixels>
      </Lod>
    </Region>
    <GroundOverlay>
      <drawOrder>36</drawOrder>
      <Icon>
        <href>163567.png</href>
      </Icon>
      <LatLonBox>
        <north>45.37490844726562</north>
        <south>45.37353515625000</south>
        <east>-76.04049682617188</east>
        <west>-76.04187011718750</west>
      </LatLonBox>
    </GroundOverlay>

    <NetworkLink>
      <name>19/151400/327134.png</name>
      <Region>
        <LatLonAltBox>
          <north>45.37490844726562</north>
          <south>45.37422180175781</south>
          <east>-76.04118347167969</east>
          <west>-76.04187011718750</west>
        </LatLonAltBox>
        <Lod>
          <minLodPixels>128</minLodPixels>
          <maxLodPixels>-1</maxLodPixels>
        </Lod>
      </Region>
      <Link>
        <href>../../19/151400/327134.kml</href>
        <viewRefreshMode>onRegion</viewRefreshMode>
        <viewFormat/>
      </Link>
    </NetworkLink>
        
    <NetworkLink>
      <name>19/151401/327134.png</name>
      <Region>
        <LatLonAltBox>
          <north>45.37490844726562</north>
          <south>45.37422180175781</south>
          <east>-76.04049682617188</east>
          <west>-76.04118347167969</west>
        </LatLonAltBox>
        <Lod>
          <minLodPixels>128</minLodPixels>
          <maxLodPixels>-1</maxLodPixels>
        </Lod>
      </Region>
      <Link>
        <href>../../19/151401/327134.kml</href>
        <viewRefreshMode>onRegion</viewRefreshMode>
        <viewFormat/>
      </Link>
    </NetworkLink>
        
    <NetworkLink>
      <name>19/151400/327135.png</name>
      <Region>
        <LatLonAltBox>
          <north>45.37422180175781</north>
          <south>45.37353515625000</south>
          <east>-76.04118347167969</east>
          <west>-76.04187011718750</west>
        </LatLonAltBox>
        <Lod>
          <minLodPixels>128</minLodPixels>
          <maxLodPixels>-1</maxLodPixels>
        </Lod>
      </Region>
      <Link>
        <href>../../19/151400/327135.kml</href>
        <viewRefreshMode>onRegion</viewRefreshMode>
        <viewFormat/>
      </Link>
    </NetworkLink>
        
    <NetworkLink>
      <name>19/151401/327135.png</name>
      <Region>
        <LatLonAltBox>
          <north>45.37422180175781</north>
          <south>45.37353515625000</south>
          <east>-76.04049682617188</east>
          <west>-76.04118347167969</west>
        </LatLonAltBox>
        <Lod>
          <minLodPixels>128</minLodPixels>
          <maxLodPixels>-1</maxLodPixels>
        </Lod>
      </Region>
      <Link>
        <href>../../19/151401/327135.kml</href>
        <viewRefreshMode>onRegion</viewRefreshMode>
        <viewFormat/>
      </Link>
    </NetworkLink>
              </Document>
</kml>
    