<?xml version="1.0" encoding="utf-8"?>
<kml xmlns="http://www.opengis.net/kml/2.2">
  <Document>
    <name>19/151307/197165.kml</name>
    <description></description>
    <Style>
      <ListStyle id="hideChildren">
        <listItemType>checkHideChildren</listItemType>
      </ListStyle>
    </Style>
    <Region>
      <LatLonAltBox>
        <north>45.38314819335938</north>
        <south>45.38246154785156</south>
        <east>-76.10504150390625</east>
        <west>-76.10572814941406</west>
      </LatLonAltBox>
      <Lod>
        <minLodPixels>128</minLodPixels>
        <maxLodPixels>-1</maxLodPixels>
      </Lod>
    </Region>
    <GroundOverlay>
      <drawOrder>38</drawOrder>
      <Icon>
        <href>197165.png</href>
      </Icon>
      <LatLonBox>
        <north>45.38314819335938</north>
        <south>45.38246154785156</south>
        <east>-76.10504150390625</east>
        <west>-76.10572814941406</west>
      </LatLonBox>
    </GroundOverlay>
      </Document>
</kml>
    