<?xml version="1.0" encoding="utf-8"?>
<kml xmlns="http://www.opengis.net/kml/2.2">
  <Document>
    <name>19/151364/197186.kml</name>
    <description></description>
    <Style>
      <ListStyle id="hideChildren">
        <listItemType>checkHideChildren</listItemType>
      </ListStyle>
    </Style>
    <Region>
      <LatLonAltBox>
        <north>134.60311889648438</north>
        <south>134.60243225097656</south>
        <east>-76.06590270996094</east>
        <west>-76.06658935546875</west>
      </LatLonAltBox>
      <Lod>
        <minLodPixels>128</minLodPixels>
        <maxLodPixels>-1</maxLodPixels>
      </Lod>
    </Region>
    <GroundOverlay>
      <drawOrder>38</drawOrder>
      <Icon>
        <href>197186.png</href>
      </Icon>
      <LatLonBox>
        <north>134.60311889648438</north>
        <south>134.60243225097656</south>
        <east>-76.06590270996094</east>
        <west>-76.06658935546875</west>
      </LatLonBox>
    </GroundOverlay>
      </Document>
</kml>
    