<?xml version="1.0" encoding="utf-8"?>
<kml xmlns="http://www.opengis.net/kml/2.2">
  <Document>
    <name>17/37855/84112.kml</name>
    <description></description>
    <Style>
      <ListStyle id="hideChildren">
        <listItemType>checkHideChildren</listItemType>
      </ListStyle>
    </Style>
    <Region>
      <LatLonAltBox>
        <north>45.36951396300744</north>
        <south>45.36758436884980</south>
        <east>-76.02539062500000</east>
        <west>-76.02813720703124</west>
      </LatLonAltBox>
      <Lod>
        <minLodPixels>128</minLodPixels>
        <maxLodPixels>2048</maxLodPixels>
      </Lod>
    </Region>
    <GroundOverlay>
      <drawOrder>34</drawOrder>
      <Icon>
        <href>84112.png</href>
      </Icon>
      <LatLonBox>
        <north>45.36951396300744</north>
        <south>45.36758436884980</south>
        <east>-76.02539062500000</east>
        <west>-76.02813720703124</west>
      </LatLonBox>
    </GroundOverlay>

    <NetworkLink>
      <name>18/75710/168225.png</name>
      <Region>
        <LatLonAltBox>
          <north>45.36951396300744</north>
          <south>45.36854917415683</south>
          <east>-76.02676391601562</east>
          <west>-76.02813720703124</west>
        </LatLonAltBox>
        <Lod>
          <minLodPixels>128</minLodPixels>
          <maxLodPixels>-1</maxLodPixels>
        </Lod>
      </Region>
      <Link>
        <href>../../18/75710/168225.kml</href>
        <viewRefreshMode>onRegion</viewRefreshMode>
        <viewFormat/>
      </Link>
    </NetworkLink>
        
    <NetworkLink>
      <name>18/75711/168225.png</name>
      <Region>
        <LatLonAltBox>
          <north>45.36951396300744</north>
          <south>45.36854917415683</south>
          <east>-76.02539062500000</east>
          <west>-76.02676391601562</west>
        </LatLonAltBox>
        <Lod>
          <minLodPixels>128</minLodPixels>
          <maxLodPixels>-1</maxLodPixels>
        </Lod>
      </Region>
      <Link>
        <href>../../18/75711/168225.kml</href>
        <viewRefreshMode>onRegion</viewRefreshMode>
        <viewFormat/>
      </Link>
    </NetworkLink>
        
    <NetworkLink>
      <name>18/75710/168224.png</name>
      <Region>
        <LatLonAltBox>
          <north>45.36854917415683</north>
          <south>45.36758436884980</south>
          <east>-76.02676391601562</east>
          <west>-76.02813720703124</west>
        </LatLonAltBox>
        <Lod>
          <minLodPixels>128</minLodPixels>
          <maxLodPixels>-1</maxLodPixels>
        </Lod>
      </Region>
      <Link>
        <href>../../18/75710/168224.kml</href>
        <viewRefreshMode>onRegion</viewRefreshMode>
        <viewFormat/>
      </Link>
    </NetworkLink>
        
    <NetworkLink>
      <name>18/75711/168224.png</name>
      <Region>
        <LatLonAltBox>
          <north>45.36854917415683</north>
          <south>45.36758436884980</south>
          <east>-76.02539062500000</east>
          <west>-76.02676391601562</west>
        </LatLonAltBox>
        <Lod>
          <minLodPixels>128</minLodPixels>
          <maxLodPixels>-1</maxLodPixels>
        </Lod>
      </Region>
      <Link>
        <href>../../18/75711/168224.kml</href>
        <viewRefreshMode>onRegion</viewRefreshMode>
        <viewFormat/>
      </Link>
    </NetworkLink>
              </Document>
</kml>
    